State,District,Area,Pincode,,,,
Tamilnadu,Cuddalore,A.Kuravankuppam ,607802,,,,
Tamilnadu,Cuddalore,Adari ,606304,,,,
Tamilnadu,Cuddalore,Adinarayananpuram ,608801,,,,
Tamilnadu,Cuddalore,Adur Agaram ,607302,,,,
Tamilnadu,Cuddalore,Agara Alambadi ,608702,,,,
Tamilnadu,Cuddalore,Agaram ,608502,,,,
Tamilnadu,Cuddalore,Akkadavalli ,607205,,,,
Tamilnadu,Cuddalore,Akkanur ,606106,,,,
Tamilnadu,Cuddalore,Akkarai Gori ,607003,,,,
Tamilnadu,Cuddalore,Alagaperumalkuppam ,607101,,,,
Tamilnadu,Cuddalore,Alaginatham ,607109,,,,
Tamilnadu,Cuddalore,Alambadi ,606108,,,,
Tamilnadu,Cuddalore,Alapakkam ,608801,,,,
Tamilnadu,Cuddalore,Alathur ,606303,,,,
Tamilnadu,Cuddalore,Alkondanatham ,608305,,,,
Tamilnadu,Cuddalore,Ambalavananpettai ,607301,,,,
Tamilnadu,Cuddalore,Ambapuram ,608704,,,,
Tamilnadu,Cuddalore,Ammapettai ,608401,,,,
Tamilnadu,Cuddalore,Ammeri ,607802,,,,
Tamilnadu,Cuddalore,Andarmullipallam ,608801,,,,
Tamilnadu,Cuddalore,Anguchettipalayam ,607110,,,,
Tamilnadu,Cuddalore,Annamalai University ,608002,,,,
Tamilnadu,Cuddalore,Annamalainagar ,608002,,,,
Tamilnadu,Cuddalore,Annavalli ,607003,,,,
Tamilnadu,Cuddalore,Anukkampattu ,607301,,,,
Tamilnadu,Cuddalore,Arangamangalam ,607302,,,,
Tamilnadu,Cuddalore,Arantangi ,608301,,,,
Tamilnadu,Cuddalore,Arasadikkuppam ,607103,,,,
Tamilnadu,Cuddalore,Ariyakoshti ,608502,,,,
Tamilnadu,Cuddalore,Athipatu ,608401,,,,
Tamilnadu,Cuddalore,Avatti ,606108,,,,
Tamilnadu,Cuddalore,Avinangudi ,606106,,,,
Tamilnadu,Cuddalore,Aviyanur ,607101,,,,
Tamilnadu,Cuddalore,Ayangudi ,608306,,,,
Tamilnadu,Cuddalore,Ayikuppam ,607301,,,,
Tamilnadu,Cuddalore,Ayyanur Akkaramangalam ,608201,,,,
Tamilnadu,Cuddalore,Azhisikudi ,608601,,,,
Tamilnadu,Cuddalore,B.Adivaraganallur ,608501,,,,
Tamilnadu,Cuddalore,B.Kolakudi ,608704,,,,
Tamilnadu,Cuddalore,B.Mutlur ,608501,,,,
Tamilnadu,Cuddalore,B.Odaiyur ,608601,,,,
Tamilnadu,Cuddalore,Badrakottai ,607102,,,,
Tamilnadu,Cuddalore,Bandarakottai ,607108,,,,
Tamilnadu,Cuddalore,Bharathi Road ,607001,,,,
Tamilnadu,Cuddalore,Bhuvanagiri ,608601,,,,
Tamilnadu,Cuddalore,"Block 1, Neyveli ",607801,,,,
Tamilnadu,Cuddalore,"Block 10,neyveli ",607801,,,,
Tamilnadu,Cuddalore,"Block 18, Neyveli ",607803,,,,
Tamilnadu,Cuddalore,"Block 24, Neyveli ",607801,,,,
Tamilnadu,Cuddalore,"Block 26, Neyveli ",607803,,,,
Tamilnadu,Cuddalore,"Block 27,. Neyveli ",607803,,,,
Tamilnadu,Cuddalore,"Block 29, Neyveli ",607807,,,,
Tamilnadu,Cuddalore,"Block 3, Neyveli ",607801,,,,
Tamilnadu,Cuddalore,"Block 5, Neyveli ",607803,,,,
Tamilnadu,Cuddalore,Budamur ,606001,,,,
Tamilnadu,Cuddalore,Budangudi ,608702,,,,
Tamilnadu,Cuddalore,Budavarayanpettai ,608601,,,,
Tamilnadu,Cuddalore,C  Keeranur ,606110,,,,
Tamilnadu,Cuddalore,C.Arasur ,608302,,,,
Tamilnadu,Cuddalore,C.Mutlur ,608102,,,,
Tamilnadu,Cuddalore,C.Pudupettai ,608502,,,,
Tamilnadu,Cuddalore,C.Sathamangalam ,608201,,,,
Tamilnadu,Cuddalore,C.Veeracholagam ,608602,,,,
Tamilnadu,Cuddalore,Capperquary ,607005,,,,
Tamilnadu,Cuddalore,Chellanchery ,605106,,,,
Tamilnadu,Cuddalore,Chettithangal ,608304,,,,
Tamilnadu,Cuddalore,Chidambaram ,608001,,,,
Tamilnadu,Cuddalore,Chidambaram ,608001,,,,
Tamilnadu,Cuddalore,Chidambaram Cutcherry ,608001,,,,
Tamilnadu,Cuddalore,Chidambaram East ,608001,,,,
Tamilnadu,Cuddalore,Chidambaram North ,608001,,,,
Tamilnadu,Cuddalore,Chidambaram West ,608001,,,,
Tamilnadu,Cuddalore,Chinnakannadi ,607302,,,,
Tamilnadu,Cuddalore,Chinnanargunam ,608704,,,,
Tamilnadu,Cuddalore,Chinnapanaickenpalayam ,607102,,,,
Tamilnadu,Cuddalore,Chinnaparur ,606104,,,,
Tamilnadu,Cuddalore,Cuddalore ,607001,,,,
Tamilnadu,Cuddalore,Cuddalore Court Buildings ,607001,,,,
Tamilnadu,Cuddalore,Cuddalore Old Town ,607003,,,,
Tamilnadu,Cuddalore,Cuddalore Ot Bazaar ,607003,,,,
Tamilnadu,Cuddalore,Cuddalore Port ,607003,,,,
Tamilnadu,Cuddalore,Cuddalore Public Offices ,607001,,,,
Tamilnadu,Cuddalore,Deevalur ,606110,,,,
Tamilnadu,Cuddalore,Dharmanallur ,606103,,,,
Tamilnadu,Cuddalore,E.Keeranur ,606106,,,,
Tamilnadu,Cuddalore,Edaiyur ,606302,,,,
Tamilnadu,Cuddalore,Edayarkuppam ,607102,,,,
Tamilnadu,Cuddalore,Elleri ,608303,,,,
Tamilnadu,Cuddalore,Elumedu ,607104,,,,
Tamilnadu,Cuddalore,Eluthur ,606303,,,,
Tamilnadu,Cuddalore,Enathirimangalam ,607108,,,,
Tamilnadu,Cuddalore,Ennanagaram ,608602,,,,
Tamilnadu,Cuddalore,Erumanur ,606001,,,,
Tamilnadu,Cuddalore,Erumbur ,608704,,,,
Tamilnadu,Cuddalore,Eyyalur ,608304,,,,
Tamilnadu,Cuddalore,Fort St.David ,607001,,,,
Tamilnadu,Cuddalore,Gandhi Nagar ,607308,,,,
Tamilnadu,Cuddalore,Gavarappattu ,608002,,,,
Tamilnadu,Cuddalore,Gopalapuram ,606103,,,,
Tamilnadu,Cuddalore,Gudalur ,606111,,,,
Tamilnadu,Cuddalore,Gudithangi ,607105,,,,
Tamilnadu,Cuddalore,Gunamangalam ,607109,,,,
Tamilnadu,Cuddalore,Gundu Uppalavadi ,607002,,,,
Tamilnadu,Cuddalore,Guruvappanpettai ,607302,,,,
Tamilnadu,Cuddalore,Idaichittur ,606104,,,,
Tamilnadu,Cuddalore,Iruppu ,607805,,,,
Tamilnadu,Cuddalore,Jayankondapattinam ,608002,,,,
Tamilnadu,Cuddalore,K.Adur ,608602,,,,
Tamilnadu,Cuddalore,K.Alambadi ,608602,,,,
Tamilnadu,Cuddalore,Kadambuliyur ,607103,,,,
Tamilnadu,Cuddalore,Kalaiyur ,607109,,,,
Tamilnadu,Cuddalore,Kalinjikuppam ,607104,,,,
Tamilnadu,Cuddalore,Kalkunam ,607302,,,,
Tamilnadu,Cuddalore,Kaludur ,606304,,,,
Tamilnadu,Cuddalore,Kammapuram ,606103,,,,
Tamilnadu,Cuddalore,Kanagasabainagar ,608001,,,,
Tamilnadu,Cuddalore,Kandakumaran ,608305,,,,
Tamilnadu,Cuddalore,Kandamangalam ,608301,,,,
Tamilnadu,Cuddalore,Kandrakottai ,607205,,,,
Tamilnadu,Cuddalore,Kanisapakkam ,607106,,,,
Tamilnadu,Cuddalore,Kanjankollai ,608304,,,,
Tamilnadu,Cuddalore,Kanur ,608701,,,,
Tamilnadu,Cuddalore,Kargudal ,606001,,,,
Tamilnadu,Cuddalore,Karnatham ,606104,,,,
Tamilnadu,Cuddalore,Karumbur ,607108,,,,
Tamilnadu,Cuddalore,Karunakaranallur ,608301,,,,
Tamilnadu,Cuddalore,Karunguli ,607303,,,,
Tamilnadu,Cuddalore,Karuppur ,608401,,,,
Tamilnadu,Cuddalore,Karuvepilankurichi ,606110,,,,
Tamilnadu,Cuddalore,Kathazhai ,606103,,,,
Tamilnadu,Cuddalore,Kattamuthupalayam,607205,,,,
Tamilnadu,Cuddalore,Kattugudalur ,607805,,,,
Tamilnadu,Cuddalore,Kattumailur ,606304,,,,
Tamilnadu,Cuddalore,Kattumannarkoil ,608301,,,,
Tamilnadu,Cuddalore,Kavalakudi ,608702,,,,
Tamilnadu,Cuddalore,Kavanur ,608703,,,,
Tamilnadu,Cuddalore,Keelamoongiladi ,608102,,,,
Tamilnadu,Cuddalore,Keelanuvampattu ,608102,,,,
Tamilnadu,Cuddalore,Keerapalayam ,608602,,,,
Tamilnadu,Cuddalore,Kilacheruvoi ,606106,,,,
Tamilnadu,Cuddalore,Kilakalpoondi ,606303,,,,
Tamilnadu,Cuddalore,Kilapalaiyur ,606103,,,,
Tamilnadu,Cuddalore,Kilarungunam ,607105,,,,
Tamilnadu,Cuddalore,Kilimangalam ,606105,,,,
Tamilnadu,Cuddalore,Kiliruppu ,607103,,,,
Tamilnadu,Cuddalore,Kilkangeyankuppam ,607805,,,,
Tamilnadu,Cuddalore,Kilkavarappattu ,607112,,,,
Tamilnadu,Cuddalore,Killai ,608102,,,,
Tamilnadu,Cuddalore,Kilmampattu ,607106,,,,
Tamilnadu,Cuddalore,Kilur ,607302,,,,
Tamilnadu,Cuddalore,Ko  Adhanur ,606001,,,,
Tamilnadu,Cuddalore,Ko Pavalangudi ,606104,,,,
Tamilnadu,Cuddalore,Kodukkanpalayam ,607003,,,,
Tamilnadu,Cuddalore,Kollimalai Kilpathi ,608303,,,,
Tamilnadu,Cuddalore,Kollimalai Melpathi ,608303,,,,
Tamilnadu,Cuddalore,Kollumedu ,608303,,,,
Tamilnadu,Cuddalore,Komaratchi ,608302,,,,
Tamilnadu,Cuddalore,Konankuppam ,606104,,,,
Tamilnadu,Cuddalore,Kondasamudram ,608701,,,,
Tamilnadu,Cuddalore,Kondur ,607002,,,,
Tamilnadu,Cuddalore,Kongarayanur ,607104,,,,
Tamilnadu,Cuddalore,Konur B.O,606105,,,,
Tamilnadu,Cuddalore,Korakkavadi ,606303,,,,
Tamilnadu,Cuddalore,Kosapallam ,606105,,,,
Tamilnadu,Cuddalore,Kothattai ,608501,,,,
Tamilnadu,Cuddalore,Kothattai ,606111,,,,
Tamilnadu,Cuddalore,Kothavacheri ,608601,,,,
Tamilnadu,Cuddalore,Kothavasal ,608305,,,,
Tamilnadu,Cuddalore,Kottagam ,607802,,,,
Tamilnadu,Cuddalore,Kotteri ,607804,,,,
Tamilnadu,Cuddalore,Kovilampoondi ,608002,,,,
Tamilnadu,Cuddalore,Kozhai ,608703,,,,
Tamilnadu,Cuddalore,Krishnankuppam ,607301,,,,
Tamilnadu,Cuddalore,Krishnapuram ,608602,,,,
Tamilnadu,Cuddalore,Kudimiyankuppam ,607101,,,,
Tamilnadu,Cuddalore,Kuduveli ,608305,,,,
Tamilnadu,Cuddalore,Kullanchavadi ,607301,,,,
Tamilnadu,Cuddalore,Kumarakud ,608702,,,,
Tamilnadu,Cuddalore,Kumaramangalam ,607205,,,,
Tamilnadu,Cuddalore,Kummidimulai ,608601,,,,
Tamilnadu,Cuddalore,Kunamangalam ,608703,,,,
Tamilnadu,Cuddalore,Kundiyamallur ,607301,,,,
Tamilnadu,Cuddalore,Kunjimedu ,608306,,,,
Tamilnadu,Cuddalore,Kuppanatham ,606001,,,,
Tamilnadu,Cuddalore,Kuriamangalam ,608501,,,,
Tamilnadu,Cuddalore,Kurinjipadi ,607302,,,,
Tamilnadu,Cuddalore,Lakkur ,606303,,,,
Tamilnadu,Cuddalore,Lakshminarayanapuram ,607106,,,,
Tamilnadu,Cuddalore,Lalpet ,608303,,,,
Tamilnadu,Cuddalore,Lalpuram ,608602,,,,
Tamilnadu,Cuddalore,M.Adhanur ,608304,,,,
Tamilnadu,Cuddalore,M.Kolakudi ,608301,,,,
Tamilnadu,Cuddalore,M.Odaiyur ,608303,,,,
Tamilnadu,Cuddalore,M.Pudur ,607004,,,,
Tamilnadu,Cuddalore,M.Puliyangudi ,608302,,,,
Tamilnadu,Cuddalore,Ma Podaiyur ,606108,,,,
Tamilnadu,Cuddalore,Madanagopalapuram ,607301,,,,
Tamilnadu,Cuddalore,Maduranthaganallur ,608201,,,,
Tamilnadu,Cuddalore,Malayanur ,606108,,,,
Tamilnadu,Cuddalore,Maligaimedu ,607112,,,,
Tamilnadu,Cuddalore,Maligampattu ,607106,,,,
Tamilnadu,Cuddalore,Mamangalam ,608701,,,,
Tamilnadu,Cuddalore,Manamthavizhnthaputhur ,607101,,,,
Tamilnadu,Cuddalore,Manavalanallur ,606001,,,,
Tamilnadu,Cuddalore,Mangalam ,606104,,,,
Tamilnadu,Cuddalore,Mangalur ,606108,,,,
Tamilnadu,Cuddalore,Maniadur ,608303,,,,
Tamilnadu,Cuddalore,Manikollai ,608501,,,,
Tamilnadu,Cuddalore,Manjakkuppam ,607001,,,,
Tamilnadu,Cuddalore,Manjakollai ,608601,,,,
Tamilnadu,Cuddalore,Manjakuli ,608501,,,,
Tamilnadu,Cuddalore,Mariappanagar ,608002,,,,
Tamilnadu,Cuddalore,Mariasusainagar ,607001,,,,
Tamilnadu,Cuddalore,Marudadu ,607109,,,,
Tamilnadu,Cuddalore,Marudur ,608704,,,,
Tamilnadu,Cuddalore,Marungur ,608703,,,,
Tamilnadu,Cuddalore,Marungur ,607103,,,,
Tamilnadu,Cuddalore,Maruvai ,607303,,,,
Tamilnadu,Cuddalore,Mathalapattu ,605007,,,,
Tamilnadu,Cuddalore,Mathur ,606001,,,,
Tamilnadu,Cuddalore,Melakadambur ,608304,,,,
Tamilnadu,Cuddalore,Melakolakudi ,607802,,,,
Tamilnadu,Cuddalore,Melakuppam ,607802,,,,
Tamilnadu,Cuddalore,Melamanakudi ,608601,,,,
Tamilnadu,Cuddalore,Melapalachanallur ,608301,,,,
Tamilnadu,Cuddalore,Melaparuthikudi ,608302,,,,
Tamilnadu,Cuddalore,Melavanniyur ,608302,,,,
Tamilnadu,Cuddalore,Melkavrapattu ,607112,,,,
Tamilnadu,Cuddalore,Melmampattu ,607103,,,,
Tamilnadu,Cuddalore,Melpathi ,607105,,,,
Tamilnadu,Cuddalore,Melpattambakkam ,607104,,,,
Tamilnadu,Cuddalore,Melur ,606111,,,,
Tamilnadu,Cuddalore,Mettukkuppam ,607802,,,,
Tamilnadu,Cuddalore,Miralur ,608601,,,,
Tamilnadu,Cuddalore,Mogaiyur ,608305,,,,
Tamilnadu,Cuddalore,Moolakuppam ,607303,,,,
Tamilnadu,Cuddalore,Movur ,608306,,,,
Tamilnadu,Cuddalore,Mudanai ,607804,,,,
Tamilnadu,Cuddalore,Mudapuli ,607805,,,,
Tamilnadu,Cuddalore,Mudikandanallur ,608702,,,,
Tamilnadu,Cuddalore,Mukhasaparur ,606120,,,,
Tamilnadu,Cuddalore,Mullangudi ,608302,,,,
Tamilnadu,Cuddalore,Murugangudi ,606105,,,,
Tamilnadu,Cuddalore,Muttam ,608306,,,,
Tamilnadu,Cuddalore,N. Naraiyur ,606304,,,,
Tamilnadu,Cuddalore,N.Moolakuppam ,607102,,,,
Tamilnadu,Cuddalore,Nadukkuppam ,607103,,,,
Tamilnadu,Cuddalore,Naduveerappattu ,607102,,,,
Tamilnadu,Cuddalore,Nagar ,606302,,,,
Tamilnadu,Cuddalore,Nagarapadi ,608703,,,,
Tamilnadu,Cuddalore,Nakkaravanthankudi ,608002,,,,
Tamilnadu,Cuddalore,Nallathur ,605106,,,,
Tamilnadu,Cuddalore,Nallur ,606302,,,,
Tamilnadu,Cuddalore,Nandesswaramangalam ,608702,,,,
Tamilnadu,Cuddalore,Nangudi ,608702,,,,
Tamilnadu,Cuddalore,Nanjalur ,608302,,,,
Tamilnadu,Cuddalore,Nanjamahathuvazkai ,608102,,,,
Tamilnadu,Cuddalore,Natham ,607101,,,,
Tamilnadu,Cuddalore,Nathapattu ,607109,,,,
Tamilnadu,Cuddalore,Nattarmangalam ,608301,,,,
Tamilnadu,Cuddalore,Nellikkuppam ,607105,,,,
Tamilnadu,Cuddalore,Nellikkuppam East ,607105,,,,
Tamilnadu,Cuddalore,Nellikuppam Bazaar ,607105,,,,
Tamilnadu,Cuddalore,Neyvasal ,608303,,,,
Tamilnadu,Cuddalore,Neyveli 1 ,607801,,,,
Tamilnadu,Cuddalore,Neyveli 2 ,607802,,,,
Tamilnadu,Cuddalore,Neyveli 3 ,607803,,,,
Tamilnadu,Cuddalore,Neyveli General Hospital ,607803,,,,
Tamilnadu,Cuddalore,Neyveli Ii Thermal Station ,607807,,,,
Tamilnadu,Cuddalore,Neyveli Second Mines ,607802,,,,
Tamilnadu,Cuddalore,Neyveli Thermal Bus Stand ,607807,,,,
Tamilnadu,Cuddalore,Nithinatham ,606304,,,,
Tamilnadu,Cuddalore,Odakkanallur ,608201,,,,
Tamilnadu,Cuddalore,Odappankuppam ,607805,,,,
Tamilnadu,Cuddalore,Omampuliyur ,608306,,,,
Tamilnadu,Cuddalore,Oomangalam ,607804,,,,
Tamilnadu,Cuddalore,Oraiyur ,607108,,,,
Tamilnadu,Cuddalore,Orangur ,606108,,,,
Tamilnadu,Cuddalore,Orathur ,608201,,,,
Tamilnadu,Cuddalore,Ottimedu ,606103,,,,
Tamilnadu,Cuddalore,Pachayankuppam ,607003,,,,
Tamilnadu,Cuddalore,Padirikuppam ,607401,,,,
Tamilnadu,Cuddalore,Pagandai ,607112,,,,
Tamilnadu,Cuddalore,Palayamkottai Melpathy ,608701,,,,
Tamilnadu,Cuddalore,Palayamkottai(CDL),608701,,,,
Tamilnadu,Cuddalore,Palayapattinam ,606001,,,,
Tamilnadu,Cuddalore,Pali ,606104,,,,
Tamilnadu,Cuddalore,Pallavarayanatham ,607102,,,,
Tamilnadu,Cuddalore,Palur ,607102,,,,
Tamilnadu,Cuddalore,Panikuppam ,607106,,,,
Tamilnadu,Cuddalore,Pannapattu ,608201,,,,
Tamilnadu,Cuddalore,Panruti ,607106,,,,
Tamilnadu,Cuddalore,Panruti Bazaar ,607106,,,,
Tamilnadu,Cuddalore,Panruti East ,607106,,,,
Tamilnadu,Cuddalore,Panruti West ,607106,,,,
Tamilnadu,Cuddalore,Paradur ,608201,,,,
Tamilnadu,Cuddalore,Parangipettai ,608502,,,,
Tamilnadu,Cuddalore,Paravalur ,606001,,,,
Tamilnadu,Cuddalore,Pasar ,606304,,,,
Tamilnadu,Cuddalore,Pelandurai ,606105,,,,
Tamilnadu,Cuddalore,Pennadam ,606111,,,,
Tamilnadu,Cuddalore,Pennadam ,606105,,,,
Tamilnadu,Cuddalore,Perambalur ,606302,,,,
Tamilnadu,Cuddalore,Perampattu ,608002,,,,
Tamilnadu,Cuddalore,Periyakappankulam ,607802,,,,
Tamilnadu,Cuddalore,Periyakomatti ,608501,,,,
Tamilnadu,Cuddalore,Periyakottumulai ,606103,,,,
Tamilnadu,Cuddalore,Periyakuppam ,608801,,,,
Tamilnadu,Cuddalore,Periyanellikkollai ,608704,,,,
Tamilnadu,Cuddalore,Periyanesalur ,606304,,,,
Tamilnadu,Cuddalore,Perperiyankuppam ,607805,,,,
Tamilnadu,Cuddalore,Perumalnaickenpalayam ,607104,,,,
Tamilnadu,Cuddalore,Perumulai ,606106,,,,
Tamilnadu,Cuddalore,Perungalur ,608305,,,,
Tamilnadu,Cuddalore,Perur ,608701,,,,
Tamilnadu,Cuddalore,Pethanaickenkuppam ,607302,,,,
Tamilnadu,Cuddalore,Pichavaram ,608002,,,,
Tamilnadu,Cuddalore,Pillaiyarthangal ,608303,,,,
Tamilnadu,Cuddalore,Pillur ,606304,,,,
Tamilnadu,Cuddalore,Pinnalur ,608704,,,,
Tamilnadu,Cuddalore,Pinnathur ,608102,,,,
Tamilnadu,Cuddalore,Ponnanthittu ,608102,,,,
Tamilnadu,Cuddalore,Poochimedu ,608801,,,,
Tamilnadu,Cuddalore,Poolambadi ,606304,,,,
Tamilnadu,Cuddalore,Poondi ,608703,,,,
Tamilnadu,Cuddalore,Poondiyankuppam ,607005,,,,
Tamilnadu,Cuddalore,Poovanikkuppam ,608801,,,,
Tamilnadu,Cuddalore,Pothiramangalam ,606111,,,,
Tamilnadu,Cuddalore,Poynapadi ,606304,,,,
Tamilnadu,Cuddalore,Pudaiyur ,608701,,,,
Tamilnadu,Cuddalore,Puduchatram ,608501,,,,
Tamilnadu,Cuddalore,Pudupalayam ,607001,,,,
Tamilnadu,Cuddalore,Pulamedu ,608302,,,,
Tamilnadu,Cuddalore,Pulavanur ,607205,,,,
Tamilnadu,Cuddalore,Puliyur ,607301,,,,
Tamilnadu,Cuddalore,Puthupet (CDL) ,607108,,,,
Tamilnadu,Cuddalore,Puvalai ,608601,,,,
Tamilnadu,Cuddalore,Puvanur ,606104,,,,
Tamilnadu,Cuddalore,Pythambadi ,607101,,,,
Tamilnadu,Cuddalore,Rajendra Cholagam ,608301,,,,
Tamilnadu,Cuddalore,Rajendra Pattinam ,608703,,,,
Tamilnadu,Cuddalore,Ramapuram ,607003,,,,
Tamilnadu,Cuddalore,Ramapuram ,608701,,,,
Tamilnadu,Cuddalore,Reddichavadi ,607402,,,,
Tamilnadu,Cuddalore,Reddiyur ,608304,,,,
Tamilnadu,Cuddalore,Rettakurichi ,606304,,,,
Tamilnadu,Cuddalore,Sakkangudi ,608201,,,,
Tamilnadu,Cuddalore,Salianthoppu ,608401,,,,
Tamilnadu,Cuddalore,Samattikuppam ,607301,,,,
Tamilnadu,Cuddalore,Samiyarpettai ,608502,,,,
Tamilnadu,Cuddalore,Sangolikuppam ,607005,,,,
Tamilnadu,Cuddalore,Sathamangalam ,606001,,,,
Tamilnadu,Cuddalore,Sathanatham ,606111,,,,
Tamilnadu,Cuddalore,Sathankuppam ,607004,,,,
Tamilnadu,Cuddalore,Sathapadi ,608601,,,,
Tamilnadu,Cuddalore,Sathapadi ,606103,,,,
Tamilnadu,Cuddalore,Sathipattu ,607106,,,,
Tamilnadu,Cuddalore,Sathiyam ,606302,,,,
Tamilnadu,Cuddalore,Sathiyavadi ,606110,,,,
Tamilnadu,Cuddalore,Sathukudal ,606110,,,,
Tamilnadu,Cuddalore,Sedapalayam ,607003,,,,
Tamilnadu,Cuddalore,Seemanthottam ,607003,,,,
Tamilnadu,Cuddalore,Sellankuppam ,607003,,,,
Tamilnadu,Cuddalore,Semmandalam ,607001,,,,
Tamilnadu,Cuddalore,Semmedu ,607106,,,,
Tamilnadu,Cuddalore,Semokottai ,607106,,,,
Tamilnadu,Cuddalore,Seplanatham ,607802,,,,
Tamilnadu,Cuddalore,Seppakkam ,606302,,,,
Tamilnadu,Cuddalore,Serakuppam ,607303,,,,
Tamilnadu,Cuddalore,Sethiathope ,608702,,,,
Tamilnadu,Cuddalore,Sevveri ,606106,,,,
Tamilnadu,Cuddalore,Shandan ,608304,,,,
Tamilnadu,Cuddalore,Sholathiram ,608701,,,,
Tamilnadu,Cuddalore,Sholavalli ,607105,,,,
Tamilnadu,Cuddalore,Silambimangalam ,608801,,,,
Tamilnadu,Cuddalore,Silambinathanpettai ,607102,,,,
Tamilnadu,Cuddalore,Singirikoil ,605007,,,,
Tamilnadu,Cuddalore,Sipcot Cuddalore ,607005,,,,
Tamilnadu,Cuddalore,Sirugramam ,607101,,,,
Tamilnadu,Cuddalore,Sirukattur ,608304,,,,
Tamilnadu,Cuddalore,Sirumangalam ,606302,,,,
Tamilnadu,Cuddalore,Sirumulai ,606106,,,,
Tamilnadu,Cuddalore,Sirupakkam ,606123,,,,
Tamilnadu,Cuddalore,Siruthondamadevi ,607103,,,,
Tamilnadu,Cuddalore,Siruvathur ,607106,,,,
Tamilnadu,Cuddalore,Sithamalli ,608301,,,,
Tamilnadu,Cuddalore,Sivapuri ,608002,,,,
Tamilnadu,Cuddalore,Small Bazaar ,608502,,,,
Tamilnadu,Cuddalore,Sornavur Melpathi ,607104,,,,
Tamilnadu,Cuddalore,Sri Adivaraganallur ,608703,,,,
Tamilnadu,Cuddalore,Sri Pudur ,608703,,,,
Tamilnadu,Cuddalore,Sri Vakkaramari ,608703,,,,
Tamilnadu,Cuddalore,Srimushnam ,608703,,,,
Tamilnadu,Cuddalore,Srinedunjeri ,608703,,,,
Tamilnadu,Cuddalore,Suba Uppalavadi ,607002,,,,
Tamilnadu,Cuddalore,Subramaniyapuram ,607301,,,,
Tamilnadu,Cuddalore,Sundaravandi,607401,,,,
Tamilnadu,Cuddalore,Suravilandur ,608302,,,,
Tamilnadu,Cuddalore,T   Gopurapuram ,606001,,,,
Tamilnadu,Cuddalore,T.Nedunjeri ,608305,,,,
Tamilnadu,Cuddalore,T.Palayam ,607301,,,,
Tamilnadu,Cuddalore,Temmur ,608302,,,,
Tamilnadu,Cuddalore,Terkuviruthangam ,608305,,,,
Tamilnadu,Cuddalore,Thachur ,606303,,,,
Tamilnadu,Cuddalore,Thandavankuppam ,607802,,,,
Tamilnadu,Cuddalore,Thatchakadu ,608501,,,,
Tamilnadu,Cuddalore,Thattampalayam ,607205,,,,
Tamilnadu,Cuddalore,Theerthanagiri ,608801,,,,
Tamilnadu,Cuddalore,Theethampalayam ,608501,,,,
Tamilnadu,Cuddalore,Therku Vadakku Puthur ,606110,,,,
Tamilnadu,Cuddalore,Thillaividangan ,608102,,,,
Tamilnadu,Cuddalore,Thiyagavalli ,608801,,,,
Tamilnadu,Cuddalore,Thokkanambakkam ,607402,,,,
Tamilnadu,Cuddalore,Thondamanatham ,607301,,,,
Tamilnadu,Cuddalore,Thoravalur ,606001,,,,
Tamilnadu,Cuddalore,Thottikuppam ,606001,,,,
Tamilnadu,Cuddalore,Tirukandeeswaram ,607105,,,,
Tamilnadu,Cuddalore,Tirumanikuzhi ,607401,,,,
Tamilnadu,Cuddalore,Tirunaraiyur ,608303,,,,
Tamilnadu,Cuddalore,Tirupadiripuliyur ,607002,,,,
Tamilnadu,Cuddalore,Tiruppadiripuliyur Bazaar ,607002,,,,
Tamilnadu,Cuddalore,Tiruppadiripuliyur West ,607002,,,,
Tamilnadu,Cuddalore,Tiruthuraiyur ,607205,,,,
Tamilnadu,Cuddalore,Tiruvamur,607106,,,,
Tamilnadu,Cuddalore,Tiruvatigai ,607106,,,,
Tamilnadu,Cuddalore,Tiruvattathurai ,606111,,,,
Tamilnadu,Cuddalore,Tiruvendhipuram ,607401,,,,
Tamilnadu,Cuddalore,Tittagudi ,606106,,,,
Tamilnadu,Cuddalore,Tolar ,606111,,,,
Tamilnadu,Cuddalore,Toludur ,606303,,,,
Tamilnadu,Cuddalore,U  Agaram ,607804,,,,
Tamilnadu,Cuddalore,Udayargudi ,608301,,,,
Tamilnadu,Cuddalore,Uthamacholamangalam ,608002,,,,
Tamilnadu,Cuddalore,Uttangal ,607804,,,,
Tamilnadu,Cuddalore,Vadakkumangudi ,608401,,,,
Tamilnadu,Cuddalore,Vadakkupalayam ,608701,,,,
Tamilnadu,Cuddalore,Vadakkuvelur ,607802,,,,
Tamilnadu,Cuddalore,Vadakuthu ,607303,,,,
Tamilnadu,Cuddalore,Vadalur ,607303,,,,
Tamilnadu,Cuddalore,Vadathalaikulam ,608704,,,,
Tamilnadu,Cuddalore,Vagaiyur ,606106,,,,
Tamilnadu,Cuddalore,Vaithianathapuram ,606303,,,,
Tamilnadu,Cuddalore,Vaiyur ,608401,,,,
Tamilnadu,Cuddalore,Vakkur ,608201,,,,
Tamilnadu,Cuddalore,Valakollai ,608702,,,,
Tamilnadu,Cuddalore,Valasakkadu ,608701,,,,
Tamilnadu,Cuddalore,Valayamadevi ,608704,,,,
Tamilnadu,Cuddalore,Valisodanaipalayam ,607003,,,,
Tamilnadu,Cuddalore,Vallam ,607805,,,,
Tamilnadu,Cuddalore,Vallampadugai ,608401,,,,
Tamilnadu,Cuddalore,Vallimaduram ,606108,,,,
Tamilnadu,Cuddalore,Valudalampattu ,607301,,,,
Tamilnadu,Cuddalore,Vanamadevi ,607105,,,,
Tamilnadu,Cuddalore,Vanamadevi ,608701,,,,
Tamilnadu,Cuddalore,Vanathirayapuram ,607303,,,,
Tamilnadu,Cuddalore,Vandipalayam ,607004,,,,
Tamilnadu,Cuddalore,Vannaiyur ,608302,,,,
Tamilnadu,Cuddalore,Vanpakkam ,607105,,,,
Tamilnadu,Cuddalore,Varakalpattu,607109,,,,
Tamilnadu,Cuddalore,Varambanur ,606302,,,,
Tamilnadu,Cuddalore,Varinjipakkam ,607205,,,,
Tamilnadu,Cuddalore,Vasanankuppam ,607301,,,,
Tamilnadu,Cuddalore,Vasantharayanpalayam,607003,,,,
Tamilnadu,Cuddalore,Vattathur ,608702,,,,
Tamilnadu,Cuddalore,Vayalur ,608602,,,,
Tamilnadu,Cuddalore,Veeramudayanatham ,608702,,,,
Tamilnadu,Cuddalore,Veeranandapuram,608301,,,,
Tamilnadu,Cuddalore,Veerraperumanallur ,607101,,,,
Tamilnadu,Cuddalore,Vehakollai ,607302,,,,
Tamilnadu,Cuddalore,Vellakarai ,607003,,,,
Tamilnadu,Cuddalore,Vellapakkam ,607109,,,,
Tamilnadu,Cuddalore,Venganur ,606303,,,,
Tamilnadu,Cuddalore,Venkatampettai ,607302,,,,
Tamilnadu,Cuddalore,Venugopalapuram ,607001,,,,
Tamilnadu,Cuddalore,Veppur ,606304,,,,
Tamilnadu,Cuddalore,Vijayamanagaram ,606104,,,,
Tamilnadu,Cuddalore,Vilagam ,608305,,,,
Tamilnadu,Cuddalore,Vilangattur ,606302,,,,
Tamilnadu,Cuddalore,Villiyanallur ,608501,,,,
Tamilnadu,Cuddalore,Vilvarayanatham ,607001,,,,
Tamilnadu,Cuddalore,Virupakshi ,607302,,,,
Tamilnadu,Cuddalore,Visoor ,607805,,,,
Tamilnadu,Cuddalore,Vriddhachalam ,606001,,,,
Tamilnadu,Cuddalore,Vriddhachalam Bazaar ,606001,,,,
Tamilnadu,Cuddalore,Vriddhachalam Cutchery ,606001,,,,
Tamilnadu,Erode,Alampalayam B.O,638105,,,,
Tamilnadu,Erode,Bellampatti B.O,638702,,,,
Tamilnadu,Erode,Devarajapattinam B.O,638702,,,,
Tamilnadu,Erode,Emmammpoondi B.O,638460,,,,
Tamilnadu,Erode,Kambiliampatti B.O,638706,,,,
Tamilnadu,Erode,Kokkampalayam B.O,638702,,,,
Tamilnadu,Erode,Kundadam S.O,638702,,,,
Tamilnadu,Erode,Mangalapatti B.O,638105,,,,
Tamilnadu,Erode,Muthugoundenpalayam B.O,638702,,,,
Tamilnadu,Erode,Muthur S.O,638105,,,,
Tamilnadu,Erode,Nallimadam B.O,638706,,,,
Tamilnadu,Erode,Nochipalayam B.O,638706,,,,
Tamilnadu,Erode,Olalakoil B.O,638460,,,,
Tamilnadu,Erode,Pothampalayam B.O,638460,,,,
Tamilnadu,Erode,Pulipar B.O,638460,,,,
Tamilnadu,Erode,Punganthurai B.O,638706,,,,
Tamilnadu,Erode,Punjaithamaraikulam B.O,638460,,,,
Tamilnadu,Erode,Rudravathi B.O,638702,,,,
Tamilnadu,Erode,Sadayapalayam B.O,638702,,,,
Tamilnadu,Erode,Savakattupalayam S.O,638460,,,,
Tamilnadu,Erode,Surianallur B.O,638702,,,,
Tamilnadu,Erode,Thayamapalayam S.O,638703,,,,
Tamilnadu,Erode,Vellierichal B.O,638105,,,,
Tamilnadu,Erode,Kalipalayam B.O,638661,,,,
Tamilnadu,Erode,Sirukinar B.O,638706,,,,
Tamilnadu,Erode,Vengampur B.O,638152,,,,
Tamilnadu,Erode,Nandavanampalayam B.O,638702,,,,
Tamilnadu,Erode,Kilankundal B.O,638106,,,,
Tamilnadu,Erode,Ponnivadi B.O,638673,,,,
Tamilnadu,Erode,Achur B.O,638673,,,,
Tamilnadu,Erode,Alampalayam B.O,638661,,,,
Tamilnadu,Erode,Alangiam S.O,638656,,,,
Tamilnadu,Erode,Anangur B.O,639202,,,,
Tamilnadu,Erode,Arikkaranvalasu B.O,639201,,,,
Tamilnadu,Erode,Bagavankoil B.O,638673,,,,
Tamilnadu,Erode,Bommanallur B.O,638673,,,,
Tamilnadu,Erode,Chinnamarudur B.O,638106,,,,
Tamilnadu,Erode,Chinnaputhur B.O,638657,,,,
Tamilnadu,Erode,Chitravuthampalayam B.O,638657,,,,
Tamilnadu,Erode,Cholakkadai Street S.O,638656,,,,
Tamilnadu,Erode,Dalavoipattinam S.O,638672,,,,
Tamilnadu,Erode,Dasarapatti B.O,638657,,,,
Tamilnadu,Erode,Dharapuram Bazaar S.O,638656,,,,
Tamilnadu,Erode,Dharapuram H.O,638656,,,,
Tamilnadu,Erode,Dharapuram South B.O,638656,,,,
Tamilnadu,Erode,Edakkalpadi B.O,639202,,,,
Tamilnadu,Erode,Ellisnagar S.O,638657,,,,
Tamilnadu,Erode,Erachapadi B.O,639202,,,,
Tamilnadu,Erode,Erasinampalayam B.O,638106,,,,
Tamilnadu,Erode,Gethalrev B.O,638657,,,,
Tamilnadu,Erode,Govindapuram B.O,638657,,,,
Tamilnadu,Erode,Hanumanthapuram B.O,638656,,,,
Tamilnadu,Erode,Kallivalasu B.O,638657,,,,
Tamilnadu,Erode,Kannivadi B.O,639202,,,,
Tamilnadu,Erode,Karaiyur B.O,638661,,,,
Tamilnadu,Erode,Kolathupalayam S.O,638661,,,,
Tamilnadu,Erode,Kolinjivadi S.O,638673,,,,
Tamilnadu,Erode,Komarapalayam B.O,638106,,,,
Tamilnadu,Erode,Koneripatti B.O,638673,,,,
Tamilnadu,Erode,Kottaimulanur B.O,638106,,,,
Tamilnadu,Erode,Kullaipalayam B.O,638657,,,,
Tamilnadu,Erode,Malamedu B.O,639201,,,,
Tamilnadu,Erode,Mambadi B.O,638106,,,,
Tamilnadu,Erode,Manakadavu B.O,638673,,,,
Tamilnadu,Erode,Mettuvalasu B.O,638661,,,,
Tamilnadu,Erode,Mulanur S.O,638106,,,,
Tamilnadu,Erode,Nagalingapuram B.O,638660,,,,
Tamilnadu,Erode,Nallampalayam B.O,638661,,,,
Tamilnadu,Erode,Nanjaithalaiyur S.O,639204,,,,
Tamilnadu,Erode,Nanjiampalayam B.O,638657,,,,
Tamilnadu,Erode,Nanjundapuram B.O,638657,,,,
Tamilnadu,Erode,Nathachennigoundenvalasu B.O,638106,,,,
Tamilnadu,Erode,Nathapalayam B.O,638106,,,,
Tamilnadu,Erode,Orathupalyaam B.O,638106,,,,
Tamilnadu,Erode,Pattuthurai B.O,638106,,,,
Tamilnadu,Erode,Peramium B.O,638661,,,,
Tamilnadu,Erode,Pichakalpatti B.O,638106,,,,
Tamilnadu,Erode,Ponnapuram B.O,638657,,,,
Tamilnadu,Erode,Puliampatti B.O,638106,,,,
Tamilnadu,Erode,Rakkiavalasu B.O,638106,,,,
Tamilnadu,Erode,Rettalavalasu B.O,638661,,,,
Tamilnadu,Erode,Sankarandampalayam S.O,638706,,,,
Tamilnadu,Erode,Selampalayam B.O,638672,,,,
Tamilnadu,Erode,Semmangarai B.O,638106,,,,
Tamilnadu,Erode,Therpatti B.O,638673,,,,
Tamilnadu,Erode,Thoppampatti B.O,638657,,,,
Tamilnadu,Erode,Thottiapalayam B.O,638661,,,,
Tamilnadu,Erode,Thurambadi B.O,638106,,,,
Tamilnadu,Erode,Undarapatti B.O,638673,,,,
Tamilnadu,Erode,Vadugapatti B.O,638106,,,,
Tamilnadu,Erode,Veerajimangalam B.O,638673,,,,
Tamilnadu,Erode,Velampundi B.O,639201,,,,
Tamilnadu,Erode,Vellavavipudur B.O,638661,,,,
Tamilnadu,Erode,Nelali B.O,638660,,,,
Tamilnadu,Erode,A.Sembulichampalayam B.O,638502,,,,
Tamilnadu,Erode,Akkaraikodiveri B.O,638454,,,,
Tamilnadu,Erode,Alampalayam B.O,638501,,,,
Tamilnadu,Erode,Alathur B.O,638455,,,,
Tamilnadu,Erode,Alingiam(Gobi) B.O,638457,,,,
Tamilnadu,Erode,Alukuli B.O,638453,,,,
Tamilnadu,Erode,Ammankoil B.O,638109,,,,
Tamilnadu,Erode,Ammapettai S.O,638311,,,,
Tamilnadu,Erode,Anaipalayam B.O,638752,,,,
Tamilnadu,Erode,Anjanur(Vemandampalayam) B.O,638462,,,,
Tamilnadu,Erode,Anjur B.O,638151,,,,
Tamilnadu,Erode,Anthiyur S.O,638501,,,,
Tamilnadu,Erode,Appakudal B.O,638315,,,,
Tamilnadu,Erode,Arachalur S.O,638101,,,,
Tamilnadu,Erode,Arakkankottai B.O,638506,,,,
Tamilnadu,Erode,Arasur B.O,638454,,,,
Tamilnadu,Erode,Atavanani Hanumanpalli B.O,638101,,,,
Tamilnadu,Erode,Athani S.O,638502,,,,
Tamilnadu,Erode,Athiyur B.O,638103,,,,
Tamilnadu,Erode,Avalpundurai S.O,638115,,,,
Tamilnadu,Erode,Avudayarparai B.O,638151,,,,
Tamilnadu,Erode,Ayalur B.O,638453,,,,
Tamilnadu,Erode,Ayyampalayam B.O,638151,,,,
Tamilnadu,Erode,Ayyampalayam B.O,638455,,,,
Tamilnadu,Erode,Bargur-anthiyur B.O,638501,,,,
Tamilnadu,Erode,Basuvanapuram B.O,638503,,,,
Tamilnadu,Erode,Basuvapatti B.O,638051,,,,
Tamilnadu,Erode,Bhavani Cutcherry S.O,638301,,,,
Tamilnadu,Erode,Bhavani H.O,638301,,,,
Tamilnadu,Erode,Bhavani Kudal S.O,638301,,,,
Tamilnadu,Erode,Brahmadesam B.O,638315,,,,
Tamilnadu,Erode,Budapadi B.O,638311,,,,
Tamilnadu,Erode,Chennampatti B.O,638504,,,,
Tamilnadu,Erode,Chennimalai S.O,638051,,,,
Tamilnadu,Erode,Chikkaiah Naicker College B.O,638004,,,,
Tamilnadu,Erode,Chinnapallam B.O,638311,,,,
Tamilnadu,Erode,Chinniampalayam(Kunathur) B.O,638103,,,,
Tamilnadu,Erode,Chittode S.O,638102,,,,
Tamilnadu,Erode,Dalavaipettai S.O,638327,,,,
Tamilnadu,Erode,Dalavoipalayam B.O,638751,,,,
Tamilnadu,Erode,Dasappagoundanpudur S.O,638503,,,,
Tamilnadu,Erode,Edayankattuvalsu S.O,638009,,,,
Tamilnadu,Erode,Elathur Chettipalayam B.O,638458,,,,
Tamilnadu,Erode,Elavamalai B.O,638316,,,,
Tamilnadu,Erode,Elavanatham B.O,638101,,,,
Tamilnadu,Erode,Elumathur B.O,638104,,,,
Tamilnadu,Erode,Ennamanagalam B.O,638501,,,,
Tamilnadu,Erode,Erangattur B.O,638505,,,,
Tamilnadu,Erode,Erode Collectorate S.O,638011,,,,
Tamilnadu,Erode,Erode East S.O,638001,,,,
Tamilnadu,Erode,Erode Fort S.O,638001,,,,
Tamilnadu,Erode,Erode H.O,638001,,,,
Tamilnadu,Erode,Erode Market S.O,638001,,,,
Tamilnadu,Erode,Erode North S.O,638001,,,,
Tamilnadu,Erode,Erode Railway Colony S.O,638002,,,,
Tamilnadu,Erode,Erode South S.O,638001,,,,
Tamilnadu,Erode,Ganapathipalayam S.O,638153,,,,
Tamilnadu,Erode,Gangapuram B.O,638102,,,,
Tamilnadu,Erode,Getticheyur S.O,638110,,,,
Tamilnadu,Erode,Gettisamudram B.O,638501,,,,
Tamilnadu,Erode,Gettisamudram Colony B.O,638501,,,,
Tamilnadu,Erode,Gnanipalayam B.O,638112,,,,
Tamilnadu,Erode,Gobichettipalayam East S.O,638452,,,,
Tamilnadu,Erode,Gobichettipalayam H.O,638452,,,,
Tamilnadu,Erode,Gobichettipalayam South S.O,638476,,,,
Tamilnadu,Erode,Greynagar B.O,638056,,,,
Tamilnadu,Erode,Gudakkarai B.O,638454,,,,
Tamilnadu,Villupuram,Kakuppam,605301,,,,
Tamilnadu,Villupuram,Koliyanur,605301,,,,
Tamilnadu,Villupuram,Vandimedu,605602,,,,
Tamilnadu,Villupuram,Vazhuthareddy,605401,,,,
Tamilnadu,Erode,Guruvareddiyur S.O,638504,,,,
Tamilnadu,Erode,Guthialathur B.O,638503,,,,
Tamilnadu,Erode,Ichipalayam B.O,638151,,,,
Tamilnadu,Erode,Ingur S.O,638058,,,,
Tamilnadu,Erode,Injampalli B.O,638104,,,,
Tamilnadu,Erode,Irugalur B.O,638462,,,,
Tamilnadu,Erode,Jambai S.O,638312,,,,
Tamilnadu,Erode,Kadappanalur B.O,638311,,,,
Tamilnadu,Erode,Kadathur S.O,638466,,,,
Tamilnadu,Erode,Kadayampatti B.O,638312,,,,
Tamilnadu,Erode,Kadirampatti B.O,638107,,,,
Tamilnadu,Erode,Kadukkampalayam B.O,638476,,,,
Tamilnadu,Erode,Kagam B.O,638109,,,,
Tamilnadu,Erode,Kaikolapalayam B.O,638056,,,,
Tamilnadu,Erode,Kalbhavi B.O,638314,,,,
Tamilnadu,Erode,Kaliappampalayam B.O,638110,,,,
Tamilnadu,Erode,Kalichettipalayam B.O,638455,,,,
Tamilnadu,Erode,Kalingarayanpalayam Pudur B.O,638301,,,,
Tamilnadu,Erode,Kalingiam B.O,638453,,,,
Tamilnadu,Erode,Kalkadambur B.O,638503,,,,
Tamilnadu,Erode,Kallipatti S.O,638505,,,,
Tamilnadu,Erode,Kambiliyampatti B.O,638056,,,,
Tamilnadu,Erode,Kanagapuram B.O,638112,,,,
Tamilnadu,Erode,Kanakkampalayam B.O,638505,,,,
Tamilnadu,Erode,Kandappagoundenvalasu B.O,638051,,,,
Tamilnadu,Erode,Kandasamipalayam B.O,638109,,,,
Tamilnadu,Erode,Kandikattuvalasu B.O,638115,,,,
Tamilnadu,Erode,Kanjikovil S.O,638116,,,,
Tamilnadu,Erode,Kannadipalayam B.O,638314,,,,
Tamilnadu,Erode,Karalayam B.O,638503,,,,
Tamilnadu,Erode,Karattadipalayam S.O,638453,,,,
Tamilnadu,Erode,Karattupalayam B.O,638457,,,,
Tamilnadu,Erode,Karukkampalayam B.O,638109,,,,
Tamilnadu,Erode,Karumandisellipalayam B.O,638052,,,,
Tamilnadu,Erode,Karungalpalayam S.O,638003,,,,
Tamilnadu,Erode,Kasbapettai B.O,638115,,,,
Tamilnadu,Erode,Kasipalayam B.O,638009,,,,
Tamilnadu,Erode,Kasipalayam S.O,638454,,,,
Tamilnadu,Erode,Kasthurbagarm B.O,638101,,,,
Tamilnadu,Erode,Kasthuripalayam B.O,638751,,,,
Tamilnadu,Erode,Kavindapadi S.O,638455,,,,
Tamilnadu,Erode,Kavundichipalayam B.O,638112,,,,
Tamilnadu,Erode,Kavuthampalayam B.O,638103,,,,
Tamilnadu,Erode,Kembanaickenpalayam B.O,638503,,,,
Tamilnadu,Erode,Kesarimangalam B.O,638311,,,,
Tamilnadu,Erode,Kidarai B.O,638458,,,,
Tamilnadu,Erode,Kilwani B.O,638502,,,,
Tamilnadu,Erode,Kodiveri B.O,638503,,,,
Tamilnadu,Erode,Kodumanal B.O,638751,,,,
Tamilnadu,Erode,Kodumudi S.O,638151,,,,
Tamilnadu,Erode,Kolanalli B.O,638154,,,,
Tamilnadu,Erode,Kolappalur S.O,638456,,,,
Tamilnadu,Erode,Kolathupalayam B.O,638152,,,,
Tamilnadu,Erode,Kollampalayam B.O,638002,,,,
Tamilnadu,Erode,Komarayanur B.O,638504,,,,
Tamilnadu,Erode,Komarayeevalasu B.O,638104,,,,
Tamilnadu,Erode,Kondapanaickenpalayam B.O,638503,,,,
Tamilnadu,Erode,Kondayampalayam(Bhavani) B.O,638505,,,,
Tamilnadu,Erode,Kongarpalayam B.O,638506,,,,
Tamilnadu,Erode,Koothampalayam B.O,638751,,,,
Tamilnadu,Erode,Koothampatti B.O,638101,,,,
Tamilnadu,Erode,Koothampoondi B.O,638315,,,,
Tamilnadu,Erode,Koshanam B.O,638458,,,,
Tamilnadu,Erode,Kottupullampalayam B.O,638453,,,,
Tamilnadu,Erode,Kovilpalayam B.O,638116,,,,
Tamilnadu,Erode,Kugalur S.O,638313,,,,
Tamilnadu,Erode,Kullampalayam B.O,638476,,,,
Tamilnadu,Erode,Kummakalipalayam B.O,638457,,,,
Tamilnadu,Erode,Kunnathur S.O,638103,,,,
Tamilnadu,Erode,Kuppandampalayam B.O,638502,,,,
Tamilnadu,Erode,Kurichi B.O,638314,,,,
Tamilnadu,Erode,Kurichi-kunnathur B.O,638110,,,,
Tamilnadu,Erode,Kurumandur S.O,638457,,,,
Tamilnadu,Erode,Kurupanaickenpalayam B.O,638301,,,,
Tamilnadu,Erode,Kuthambi B.O,638055,,,,
Tamilnadu,Erode,Kuttipalayam B.O,638312,,,,
Tamilnadu,Erode,L.M.Palapalayam B.O,638455,,,,
Tamilnadu,Erode,Lakkapuram B.O,638002,,,,
Tamilnadu,Erode,Malayampalayam B.O,638154,,,,
Tamilnadu,Erode,Mannathampalayam B.O,638153,,,,
Tamilnadu,Erode,Maravapalayam B.O,638051,,,,
Tamilnadu,Erode,Mathur B.O,638314,,,,
Tamilnadu,Erode,Melapalayam S.O,638051,,,,
Tamilnadu,Erode,Mettupalayam B.O,638315,,,,
Tamilnadu,Erode,Mevani B.O,638313,,,,
Tamilnadu,Erode,Michaelpalayam B.O,638501,,,,
Tamilnadu,Erode,Minnapalayam B.O,638109,,,,
Tamilnadu,Erode,Modakurichi S.O,638104,,,,
Tamilnadu,Erode,Morattupalayam B.O,638752,,,,
Tamilnadu,Erode,Mukasi Hanumanpalli B.O,638101,,,,
Tamilnadu,Erode,Mukasipidariyur B.O,638051,,,,
Tamilnadu,Erode,Mukasipudur B.O,638314,,,,
Tamilnadu,Erode,Mulapalayam B.O,638002,,,,
Tamilnadu,Erode,Mullampatti B.O,638107,,,,
Tamilnadu,Erode,Murali B.O,638504,,,,
Tamilnadu,Erode,Murungatholuvu B.O,638051,,,,
Tamilnadu,Erode,Muthayeepalayam B.O,638153,,,,
Tamilnadu,Erode,Mylambadi B.O,638314,,,,
Tamilnadu,Erode,Nadupatti B.O,638056,,,,
Tamilnadu,Erode,Nagadevampalayam B.O,638476,,,,
Tamilnadu,Erode,Nagalur B.O,638502,,,,
Tamilnadu,Erode,Nallampatti B.O,638057,,,,
Tamilnadu,Erode,Nambiyur S.O,638458,,,,
Tamilnadu,Erode,Nanjagoundenpalayam B.O,638476,,,,
Tamilnadu,Erode,Nanjai Puliampatti B.O,638506,,,,
Tamilnadu,Erode,Nanjai Uttukuli B.O,638104,,,,
Tamilnadu,Erode,Nasiyanur S.O,638107,,,,
Tamilnadu,Erode,Nathagoundenpalayam B.O,638115,,,,
Tamilnadu,Erode,Nerinjipettai B.O,638311,,,,
Tamilnadu,Erode,Nichampalayam B.O,638055,,,,
Tamilnadu,Erode,Odathurai B.O,638455,,,,
Tamilnadu,Erode,Odayagoundenpalayam B.O,638454,,,,
Tamilnadu,Erode,Olagadam S.O,638314,,,,
Tamilnadu,Erode,Olapalayam B.O,638052,,,,
Tamilnadu,Erode,Oricheri B.O,638315,,,,
Tamilnadu,Erode,Pachampalayam B.O,638314,,,,
Tamilnadu,Erode,Palakarai B.O,638057,,,,
Tamilnadu,Erode,Palakuttaipattipudur B.O,638504,,,,
Tamilnadu,Erode,Pallagoundenpalayam B.O,638056,,,,
Tamilnadu,Erode,Pallapalayam B.O,638116,,,,
Tamilnadu,Erode,Palliyuthu B.O,638101,,,,
Tamilnadu,Erode,Pandiampalayam B.O,638455,,,,
Tamilnadu,Erode,Pappampalayam B.O,638007,,,,
Tamilnadu,Erode,Pappampalayam B.O,638055,,,,
Tamilnadu,Erode,Pariyur Vellalapalayam B.O,638476,,,,
Tamilnadu,Erode,Paruvachi B.O,638312,,,,
Tamilnadu,Erode,Pasur S.O,638154,,,,
Tamilnadu,Erode,Patlur B.O,638314,,,,
Tamilnadu,Erode,Pattakaranpalayam B.O,638057,,,,
Tamilnadu,Erode,Pattimaniakaranpalayam B.O,638462,,,,
Tamilnadu,Erode,Peria Agraharam S.O,638005,,,,
Tamilnadu,Erode,Peria Semur B.O,638004,,,,
Tamilnadu,Erode,Periapuliyur B.O,638455,,,,
Tamilnadu,Erode,Periavattam B.O,638151,,,,
Tamilnadu,Erode,Periaveerasangli B.O,638056,,,,
Tamilnadu,Erode,Periyavettuvapalayam B.O,638052,,,,
Tamilnadu,Erode,Perode B.O,638102,,,,
Tamilnadu,Erode,Perumugaipudur B.O,638505,,,,
Tamilnadu,Erode,Perundalaiyur B.O,638315,,,,
Tamilnadu,Erode,Perundur R.S. B.O,638052,,,,
Tamilnadu,Erode,Perundurai S.O,638052,,,,
Tamilnadu,Erode,Perundurai Sanitorium S.O,638053,,,,
Tamilnadu,Erode,Perundurai West S.O,638052,,,,
Tamilnadu,Erode,Pethampalayam B.O,638116,,,,
Tamilnadu,Erode,Pichandampalayam B.O,638052,,,,
Tamilnadu,Erode,Polavakalipalayam B.O,638476,,,,
Tamilnadu,Erode,Polavapalayam B.O,638458,,,,
Tamilnadu,Erode,Ponmudi B.O,638056,,,,
Tamilnadu,Erode,Pudukkaraipudur B.O,638313,,,,
Tamilnadu,Erode,Pudupalayam S.O,638476,,,,
Tamilnadu,Erode,Pudur B.O,638002,,,,
Tamilnadu,Erode,Pullappanaickenpalayam B.O,638506,,,,
Tamilnadu,Erode,Pundurai Semur B.O,638115,,,,
Tamilnadu,Erode,Pungambadi B.O,638112,,,,
Tamilnadu,Erode,Punjaipalatholuvu B.O,638751,,,,
Tamilnadu,Erode,Punjaithuraiyampalayam S.O,638512,,,,
Tamilnadu,Erode,Punnam B.O,638312,,,,
Tamilnadu,Erode,Purappalikattuvalasu B.O,638104,,,,
Tamilnadu,Erode,Ramalingapuram B.O,638051,,,,
Tamilnadu,Erode,Ramanathapuram Pudur B.O,638005,,,,
Tamilnadu,Erode,Rangampalayam B.O,638009,,,,
Tamilnadu,Erode,Rasampalayam B.O,638151,,,,
Tamilnadu,Erode,Reddipalayam B.O,638504,,,,
Tamilnadu,Erode,Sakthinagar S.O,638315,,,,
Tamilnadu,Erode,Salaipudur B.O,638151,,,,
Tamilnadu,Erode,Salangapalayam B.O,638455,,,,
Tamilnadu,Erode,Sanarpalayam B.O,638051,,,,
Tamilnadu,Erode,Sankarapalayam B.O,638501,,,,
Tamilnadu,Erode,Sanyasipatti B.O,638311,,,,
Tamilnadu,Erode,Satamugai B.O,638503,,,,
Tamilnadu,Erode,Sathyamangalam Road S.O,638003,,,,
Tamilnadu,Erode,Guruvareddiyur S.O,638504,,,,
Tamilnadu,Kanyakumari,Adaikkakuzhi,629153,,,,
Tamilnadu,Kanyakumari,Agateeswaram,629701,,,,
Tamilnadu,Kanyakumari,Alagiamandapam,629167,,,,
Tamilnadu,Kanyakumari,Alampara,629170,,,,
Tamilnadu,Kanyakumari,Alanchi,629159,,,,
Tamilnadu,Kanyakumari,Alancholai,629101,,,,
Tamilnadu,Kanyakumari,Alancode,629802,,,,
Tamilnadu,Kanyakumari,Aloor,629801,,,,
Tamilnadu,Kanyakumari,Ammandivilai,629204,,,,
Tamilnadu,Kanyakumari,Anandanadarkudy,629201,,,,
Tamilnadu,Kanyakumari,Andirapuram,629851,,,,
Tamilnadu,Kanyakumari,Anducode,629168,,,,
Tamilnadu,Kanyakumari,Anjugramam,629401,,,,
Tamilnadu,Kanyakumari,Aralvaymoli,629301,,,,
Tamilnadu,Kanyakumari,Arukani,629101,,,,
Tamilnadu,Kanyakumari,Arumanai,629151,,,,
Tamilnadu,Kanyakumari,Arumanallur,629851,,,,
Tamilnadu,Kanyakumari,Aruvikkarai,629177,,,,
Tamilnadu,Kanyakumari,Asaripallam,629201,,,,
Tamilnadu,Kanyakumari,Asiramam,629704,,,,
Tamilnadu,Kanyakumari,Attur,629191,,,,
Tamilnadu,Kanyakumari,Azhakamparai,629252,,,,
Tamilnadu,Kanyakumari,Azhakappapuram,629401,,,,
Tamilnadu,Kanyakumari,Azhakiapandipuram,629851,,,,
Tamilnadu,Kanyakumari,Azhikkal,629202,,,,
Tamilnadu,Kanyakumari,Bethelpuram,629803,,,,
Tamilnadu,Kanyakumari,Bhoothapandy,629852,,,,
Tamilnadu,Kanyakumari,Catherin Booth hospital,629001,,,,
Tamilnadu,Kanyakumari,Chathancode,629153,,,,
Tamilnadu,Kanyakumari,Chemparuthivilai,629166,,,,
Tamilnadu,Kanyakumari,Chemponvilai,629804,,,,
Tamilnadu,Kanyakumari,Chenbagaramanputhur,629304,,,,
Tamilnadu,Kanyakumari,Chenkody,629177,,,,
Tamilnadu,Kanyakumari,Cheruvallur,629152,,,,
Tamilnadu,Kanyakumari,Chitharal,629151,,,,
Tamilnadu,Kanyakumari,Chittardam Colony,629161,,,,
Tamilnadu,Kanyakumari,Chunkankadai,629807,,,,
Tamilnadu,Kanyakumari,Colachel,629251,,,,
Tamilnadu,Kanyakumari,Derisanamcope,629851,,,,
Tamilnadu,Kanyakumari,Eathamozhi,629501,,,,
Tamilnadu,Kanyakumari,Edalakudy,629051,,,,
Tamilnadu,Kanyakumari,Elavuvilai,629171,,,,
Tamilnadu,Kanyakumari,Enayam,629193,,,,
Tamilnadu,Kanyakumari,Enayamputhenthurai,629193,,,,
Tamilnadu,Kanyakumari,Erachakulam,629902,,,,
Tamilnadu,Kanyakumari,Eravipudurkadai,629158,,,,
Tamilnadu,Kanyakumari,Eraviputhur,629402,,,,
Tamilnadu,Kanyakumari,Erumbukadu,629004,,,,
Tamilnadu,Villupuram,Kakuppam,605301,,,,
Tamilnadu,Villupuram,Koliyanur,605301,,,,
Tamilnadu,Villupuram,Panampattu,605301,,,,
Tamilnadu,Villupuram,Vandimedu,605602,,,,
Tamilnadu,Villupuram,Vazhuthareddy,605401,,,,
Tamilnadu,Tiruvannamalai,chetpet,606902,,,,
Tamilnadu,Tiruvannamalai,Arani,632317,,,,
State,District,Area,Pincode,,,,
Tamilnadu,Villupuram,Adanur  ,605402,,,,
Tamilnadu,Villupuram,Adavallikuthan  ,604301,,,,
Tamilnadu,Villupuram,Akkur  ,604207,,,,
Tamilnadu,Villupuram,Akshipakkam  ,604101,,,,
Tamilnadu,Villupuram,Alagrammam  ,604302,,,,
Tamilnadu,Villupuram,Alampoondi  ,604151,,,,
Tamilnadu,Villupuram,Alankuppam  ,604301,,,,
Tamilnadu,Villupuram,Alathur  ,604303,,,,
Tamilnadu,Villupuram,Anaiyeri  ,605201,,,,
Tamilnadu,Villupuram,Anangur  ,604203,,,,
Tamilnadu,Villupuram,Anangur  ,605103,,,,
Tamilnadu,Villupuram,Ananthapuram  ,605201,,,,
Tamilnadu,Villupuram,Anathur  ,604202,,,,
Tamilnadu,Villupuram,Andapattu  ,604101,,,,
Tamilnadu,Villupuram,Annamangalam  ,604210,,,,
Tamilnadu,Villupuram,Anniyur  ,605202,,,,
Tamilnadu,Villupuram,Anumandai  ,604303,,,,
Tamilnadu,Villupuram,Ariyalur Tirukkai  ,605402,,,,
Tamilnadu,Villupuram,Ariyur  ,605102,,,,
Tamilnadu,Villupuram,Arpisampalayam  ,605108,,,,
Tamilnadu,Villupuram,Arugavur  ,604203,,,,
Tamilnadu,Villupuram,Asokapuri  ,605203,,,,
Tamilnadu,Villupuram,Athipakkam  ,604207,,,,
Tamilnadu,Villupuram,Athipattu  ,604152,,,,
Tamilnadu,Villupuram,Athiyur  ,605201,,,,
Tamilnadu,Villupuram,Athiyur Thiruvadi  ,605401,,,,
Tamilnadu,Villupuram,Attur  ,604001,,,,
Tamilnadu,Villupuram,Auroville  ,605101,,,,
Tamilnadu,Villupuram,Avalurpet  ,604201,,,,
Tamilnadu,Villupuram,Avanipur  ,604101,,,,
Tamilnadu,Villupuram,Avarapakkam  ,604001,,,,
Tamilnadu,Villupuram,Aviyur  ,604203,,,,
Tamilnadu,Villupuram,Ayyanthoppu  ,604001,,,,
Tamilnadu,Villupuram,Ayyur Agaram  ,605601,,,,
Tamilnadu,Villupuram,Brahmadesam  ,604301,,,,
Tamilnadu,Villupuram,Brahmadesam  ,605203,,,,
Tamilnadu,Villupuram,Chellapiratti  ,604210,,,,
Tamilnadu,Villupuram,Chendur  ,604302,,,,
Tamilnadu,Villupuram,Chinnababusamudram  ,605102,,,,
Tamilnadu,Villupuram,Chinnanerkunam  ,604302,,,,
Tamilnadu,Villupuram,Chinthamani  ,605601,,,,
Tamilnadu,Villupuram,Coudapakkam  ,605502,,,,
Tamilnadu,Villupuram,Dadapuram  ,604207,,,,
Tamilnadu,Villupuram,Devadanampettai  ,604151,,,,
Tamilnadu,Villupuram,Devandavadi  ,604208,,,,
Tamilnadu,Villupuram,Devanur  ,604208,,,,
Tamilnadu,Villupuram,Eachur  ,604203,,,,
Tamilnadu,Villupuram,Endiyur  ,604001,,,,
Tamilnadu,Villupuram,Eraiyanur  ,604001,,,,
Tamilnadu,Villupuram,Eraiyur  ,604304,,,,
Tamilnadu,Villupuram,Eyyakunam  ,604204,,,,
Tamilnadu,Villupuram,Eyyal  ,604204,,,,
Tamilnadu,Villupuram,Gengarampalayam  ,605108,,,,
Tamilnadu,Villupuram,Gingee  ,604202,,,,
Tamilnadu,Villupuram,Gingee Bazaar  ,604202,,,,
Tamilnadu,Villupuram,Guduvampoondi  ,604208,,,,
Tamilnadu,Villupuram,Hemerjickx Cente  ,605111,,,,
Tamilnadu,Villupuram,Idapattu  ,604201,,,,
Tamilnadu,Villupuram,Illodu  ,604210,,,,
Tamilnadu,Villupuram,Jayankondam  ,604202,,,,
Tamilnadu,Villupuram,Kadali  ,604210,,,,
Tamilnadu,Villupuram,Kadambur  ,604206,,,,
Tamilnadu,Villupuram,Kadaperikuppam  ,605502,,,,
Tamilnadu,Villupuram,Kakkanur  ,605402,,,,
Tamilnadu,Villupuram,Kalaiyur  ,604206,,,,
Tamilnadu,Villupuram,Kalayampoondi  ,605202,,,,
Tamilnadu,Villupuram,Kallapattu  ,605108,,,,
Tamilnadu,Villupuram,Kallapuliyur  ,604208,,,,
Tamilnadu,Villupuram,Kalleri  ,604151,,,,
Tamilnadu,Villupuram,Kallipattu  ,605105,,,,
Tamilnadu,Villupuram,Kalpattu  ,605302,,,,
Tamilnadu,Villupuram,Kaluperumbakkam  ,605014,,,,
Tamilnadu,Villupuram,Kanai  ,605301,,,,
Tamilnadu,Villupuram,Kanakkankuppam  ,604151,,,,
Tamilnadu,Villupuram,Kandadu  ,604303,,,,
Tamilnadu,Villupuram,Kandamangalam  ,605102,,,,
Tamilnadu,Villupuram,Kandambakkam  ,605401,,,,
Tamilnadu,Villupuram,Kandnamanadi  ,605401,,,,
Tamilnadu,Villupuram,Kangiyanur  ,605302,,,,
Tamilnadu,Villupuram,Kanjanur  ,605203,,,,
Tamilnadu,Villupuram,Kappai  ,604205,,,,
Tamilnadu,Villupuram,Kappalampadi  ,604201,,,,
Tamilnadu,Villupuram,Kappiyampuliyur  ,605601,,,,
Tamilnadu,Villupuram,Kappur  ,605301,,,,
Tamilnadu,Villupuram,Karai  ,605201,,,,
Tamilnadu,Villupuram,Karattai  ,604154,,,,
Tamilnadu,Villupuram,Karnavur  ,604001,,,,
Tamilnadu,Villupuram,Karuvakshi  ,605201,,,,
Tamilnadu,Villupuram,Karuvampakkam  ,604207,,,,
Tamilnadu,Villupuram,Katrambakkam  ,605109,,,,
Tamilnadu,Villupuram,Kattalai  ,604001,,,,
Tamilnadu,Villupuram,Katterikuppam  ,605502,,,,
Tamilnadu,Villupuram,Kattusiviri  ,604207,,,,
Tamilnadu,Villupuram,Kaveripakkam  ,604001,,,,
Tamilnadu,Villupuram,Kedar  ,605402,,,,
Tamilnadu,Villupuram,Kiladanur  ,604307,,,,
Tamilnadu,Villupuram,Kiledayalam  ,604302,,,,
Tamilnadu,Villupuram,Kilinjikuppam  ,605110,,,,
Tamilnadu,Villupuram,Kiliyanur  ,604102,,,,
Tamilnadu,Villupuram,Kilmavilangai  ,604207,,,,
Tamilnadu,Villupuram,Kilsevur  ,604101,,,,
Tamilnadu,Villupuram,Kodiyam  ,604207,,,,
Tamilnadu,Villupuram,Kodukkur  ,605501,,,,
Tamilnadu,Villupuram,Kolathur  ,604301,,,,
Tamilnadu,Villupuram,Koliyanur  ,605103,,,,
Tamilnadu,Villupuram,Kollar  ,604206,,,,
Tamilnadu,Villupuram,Konai  ,604205,,,,
Tamilnadu,Villupuram,Konalur  ,605201,,,,
Tamilnadu,Villupuram,Kondangi  ,605301,,,,
Tamilnadu,Villupuram,Kongarapattu  ,604306,,,,
Tamilnadu,Villupuram,Konur  ,605301,,,,
Tamilnadu,Villupuram,Korakeni  ,605501,,,,
Tamilnadu,Villupuram,Kottapoondi  ,604201,,,,
Tamilnadu,Villupuram,Kottayampoondi  ,605203,,,,
Tamilnadu,Villupuram,Kovilporaiyur  ,604201,,,,
Tamilnadu,Villupuram,Kumarakuppam  ,605108,,,,
Tamilnadu,Villupuram,Kumulam  ,605107,,,,
Tamilnadu,Villupuram,Kundalapuliyur  ,605203,,,,
Tamilnadu,Villupuram,Kunimedu  ,604303,,,,
Tamilnadu,Villupuram,Kunnapakkam  ,604101,,,,
Tamilnadu,Villupuram,Kurunjipai  ,604205,,,,
Tamilnadu,Villupuram,Kutteripattu  ,604302,,,,
Tamilnadu,Villupuram,Lingareddpalayam  ,605107,,,,
Tamilnadu,Villupuram,Madugadipet  ,605107,,,,
Tamilnadu,Villupuram,Madurapakkam  ,605501,,,,
Tamilnadu,Villupuram,Mahadevimangalam  ,604210,,,,
Tamilnadu,Villupuram,Mailam  ,604304,,,,
Tamilnadu,Villupuram,Mambazhapattu  ,605302,,,,
Tamilnadu,Villupuram,Manalapadi  ,604151,,,,
Tamilnadu,Villupuram,Manandal  ,604204,,,,
Tamilnadu,Villupuram,Mandava  ,604303,,,,
Tamilnadu,Villupuram,Maragadhapuram  ,605401,,,,
Tamilnadu,Villupuram,Markanum  ,604303,,,,
Tamilnadu,Villupuram,Markonam  ,604208,,,,
Tamilnadu,Villupuram,Melacheri  ,604202,,,,
Tamilnadu,Villupuram,Melathipakkam  ,604207,,,,
Tamilnadu,Villupuram,Meledayalam  ,604202,,,,
Tamilnadu,Villupuram,Melkaranai  ,605202,,,,
Tamilnadu,Villupuram,Melmalayanur  ,604204,,,,
Tamilnadu,Villupuram,Melmannur  ,604208,,,,
Tamilnadu,Villupuram,Melolakkur  ,604203,,,,
Tamilnadu,Villupuram,Melpathi  ,605103,,,,
Tamilnadu,Villupuram,Melpettai  ,604307,,,,
Tamilnadu,Villupuram,Melsevalambadi  ,604204,,,,
Tamilnadu,Villupuram,Melsevur  ,604306,,,,
Tamilnadu,Villupuram,Melsithamur  ,604206,,,,
Tamilnadu,Villupuram,Melvailamur  ,604201,,,,
Tamilnadu,Villupuram,Mettupalayam  ,605105,,,,
Tamilnadu,Villupuram,Minambur  ,604205,,,,
Tamilnadu,Villupuram,Modaiyur  ,604206,,,,
Tamilnadu,Villupuram,Mokshakulam  ,605105,,,,
Tamilnadu,Villupuram,Molasur  ,604102,,,,
Tamilnadu,Villupuram,Mundiyambakkam  ,605601,,,,
Tamilnadu,Villupuram,Munnur  ,604301,,,,
Tamilnadu,Villupuram,Muppuli  ,604302,,,,
Tamilnadu,Villupuram,Muttathur  ,605203,,,,
Tamilnadu,Villupuram,Nadukuppam  ,604303,,,,
Tamilnadu,Villupuram,Naduvanthangal  ,604207,,,,
Tamilnadu,Villupuram,Nagar  ,604301,,,,
Tamilnadu,Villupuram,Nallanpillaipetral  ,604152,,,,
Tamilnadu,Villupuram,Nallathur  ,604307,,,,
Tamilnadu,Villupuram,Nallavur  ,604154,,,,
Tamilnadu,Villupuram,Nangathur  ,605202,,,,
Tamilnadu,Villupuram,Nanndu  ,605301,,,,
Tamilnadu,Villupuram,Naraiyur  ,605108,,,,
Tamilnadu,Villupuram,Naranamangalam  ,604201,,,,
Tamilnadu,Villupuram,Nayambadi  ,604151,,,,
Tamilnadu,Villupuram,Nedimoliyanur  ,604306,,,,
Tamilnadu,Villupuram,Neganur  ,604202,,,,
Tamilnadu,Villupuram,Nemur  ,605203,,,,
Tamilnadu,Villupuram,Nochalur  ,604201,,,,
Tamilnadu,Villupuram,Nolambur  ,604307,,,,
Tamilnadu,Villupuram,Odiampet  ,605110,,,,
Tamilnadu,Villupuram,Olagapuram  ,604154,,,,
Tamilnadu,Villupuram,Olakkur  ,604305,,,,
Tamilnadu,Villupuram,Olundiapet  ,605109,,,,
Tamilnadu,Villupuram,Omandur  ,604102,,,,
Tamilnadu,Villupuram,Omipper  ,604301,,,,
Tamilnadu,Villupuram,Ongur  ,604307,,,,
Tamilnadu,Villupuram,Orukodi  ,605301,,,,
Tamilnadu,Villupuram,P.Villiyanur  ,605105,,,,
Tamilnadu,Villupuram,Padipallam  ,604151,,,,
Tamilnadu,Villupuram,Padirapuliyur  ,604304,,,,
Tamilnadu,Villupuram,Pakkam  ,604153,,,,
Tamilnadu,Villupuram,Palakuppam  ,604001,,,,
Tamilnadu,Villupuram,Palapadi  ,604153,,,,
Tamilnadu,Villupuram,Palapattu  ,604205,,,,
Tamilnadu,Villupuram,Palayam  ,605107,,,,
Tamilnadu,Villupuram,Palliandur  ,605402,,,,
Tamilnadu,Villupuram,Pallikulam  ,604203,,,,
Tamilnadu,Villupuram,Pallineliyanur  ,605107,,,,
Tamilnadu,Villupuram,Pallithennal  ,605102,,,,
Tamilnadu,Villupuram,Panamalai  ,605201,,,,
Tamilnadu,Villupuram,Panampattu  ,605103,,,,
Tamilnadu,Villupuram,Panchalam  ,604307,,,,
Tamilnadu,Villupuram,Pankolathur  ,604101,,,,
Tamilnadu,Villupuram,Pennangar  ,604210,,,,
Tamilnadu,Villupuram,Peramandur  ,604302,,,,
Tamilnadu,Villupuram,Periyababusamudram  ,605102,,,,
Tamilnadu,Villupuram,Periyanmur  ,604151,,,,
Tamilnadu,Villupuram,Periyanolambai  ,604204,,,,
Tamilnadu,Villupuram,Perumbakkam  ,604304,,,,
Tamilnadu,Villupuram,Perumbakkam  ,605301,,,,
Tamilnadu,Villupuram,Perumukkal  ,604301,,,,
Tamilnadu,Villupuram,Perungappur  ,604151,,,,
Tamilnadu,Villupuram,Peruvalur  ,604208,,,,
Tamilnadu,Villupuram,Pidagam  ,605401,,,,
Tamilnadu,Villupuram,Pillur  ,605103,,,,
Tamilnadu,Villupuram,Ponnankuppam  ,605201,,,,
Tamilnadu,Villupuram,Poovarasankuppam  ,605105,,,,
Tamilnadu,Villupuram,Porur  ,605202,,,,
Tamilnadu,Villupuram,Poyyapakkam  ,605103,,,,
Tamilnadu,Villupuram,Pudupakkam  ,604303,,,,
Tamilnadu,Villupuram,Pulichapllam  ,605109,,,,
Tamilnadu,Villupuram,Puranasingupalayam  ,605107,,,,
Tamilnadu,Villupuram,Radhhapuram  ,605501,,,,
Tamilnadu,Villupuram,Rampakkam  ,605105,,,,
Tamilnadu,Villupuram,Rettanai  ,604306,,,,
Tamilnadu,Villupuram,Salayampalayam  ,605108,,,,
Tamilnadu,Villupuram,Sangeethamangalam  ,605202,,,,
Tamilnadu,Villupuram,Saram ( Tindivanam )  ,604307,,,,
Tamilnadu,Villupuram,Sathambadi  ,604204,,,,
Tamilnadu,Villupuram,Sathyamagalam  ,604153,,,,
Tamilnadu,Villupuram,Semangalam  ,605109,,,,
Tamilnadu,Villupuram,Semmedu  ,604153,,,,
Tamilnadu,Villupuram,Sepettai  ,604152,,,,
Tamilnadu,Villupuram,Serndanur  ,605103,,,,
Tamilnadu,Villupuram,Seshangur  ,605501,,,,
Tamilnadu,Villupuram,Sevalapuri  ,604202,,,,
Tamilnadu,Villupuram,Sholangunam  ,604210,,,,
Tamilnadu,Villupuram,Singanur  ,604001,,,,
Tamilnadu,Villupuram,Siruthalaipoondi  ,604204,,,,
Tamilnadu,Villupuram,Siruvadi  ,604301,,,,
Tamilnadu,Villupuram,Siruvalai  ,605402,,,,
Tamilnadu,Villupuram,Sokuppam  ,604153,,,,
Tamilnadu,Villupuram,Sorapattu  ,605501,,,,
Tamilnadu,Villupuram,Suthukeni  ,605502,,,,
Tamilnadu,Villupuram,Teli  ,605302,,,,
Tamilnadu,Villupuram,Thadagam  ,604152,,,,
Tamilnadu,Villupuram,Thailapuram  ,604102,,,,
Tamilnadu,Villupuram,Thaiyur  ,604205,,,,
Tamilnadu,Villupuram,Thalangadu  ,604303,,,,
Tamilnadu,Villupuram,Thalangunam  ,604201,,,,
Tamilnadu,Villupuram,Thalavanur  ,604205,,,,
Tamilnadu,Villupuram,Thaludali  ,604304,,,,
Tamilnadu,Villupuram,Thamanur  ,604210,,,,
Tamilnadu,Villupuram,Thandavasamudram  ,604151,,,,
Tamilnadu,Villupuram,Thaniyal  ,604207,,,,
Tamilnadu,Villupuram,Thayanur  ,604204,,,,
Tamilnadu,Villupuram,Thenkalavoy  ,604302,,,,
Tamilnadu,Villupuram,Thenkodipakkam  ,604102,,,,
Tamilnadu,Villupuram,Thenpalai  ,604151,,,,
Tamilnadu,Villupuram,Thenpasiyar  ,604001,,,,
Tamilnadu,Villupuram,Thenputhur  ,604306,,,,
Tamilnadu,Villupuram,Thensiruvalur  ,604102,,,,
Tamilnadu,Villupuram,Theppirampattu  ,604204,,,,
Tamilnadu,Villupuram,Thirubuvanai  ,605107,,,,
Tamilnadu,Villupuram,Thiruvamathr  ,605402,,,,
Tamilnadu,Villupuram,Thiruvampattu  ,604205,,,,
Tamilnadu,Villupuram,Thiruvandarkoil  ,605102,,,,
Tamilnadu,Villupuram,Thiruvathikunnam  ,604205,,,,
Tamilnadu,Villupuram,Thiurvakkarai  ,604304,,,,
Tamilnadu,Villupuram,Thondamanatham  ,605502,,,,
Tamilnadu,Villupuram,Thorapadi  ,604204,,,,
Tamilnadu,Villupuram,Tindivanam  ,604001,,,,
Tamilnadu,Villupuram,Tindivanam Bazaar  ,604001,,,,
Tamilnadu,Villupuram,Tindivanam East  ,604001,,,,
Tamilnadu,Villupuram,Tindivanam West  ,604001,,,,
Tamilnadu,Villupuram,Tiruchitambalam  ,605111,,,,
Tamilnadu,Villupuram,Tirumangalam  ,605501,,,,
Tamilnadu,Villupuram,Tirupachanur  ,605103,,,,
Tamilnadu,Villupuram,Tivanur  ,604206,,,,
Tamilnadu,Villupuram,Ural  ,604001,,,,
Tamilnadu,Villupuram,V.Budur  ,605108,,,,
Tamilnadu,Villupuram,V.Mathur  ,605107,,,,
Tamilnadu,Villupuram,V.Mathur  ,605201,,,,
Tamilnadu,Villupuram,V.Nerkunam  ,605501,,,,
Tamilnadu,Villupuram,V.Parangani  ,605109,,,,
Tamilnadu,Villupuram,Vadanerkunam  ,604301,,,,
Tamilnadu,Villupuram,Vadapalai  ,604204,,,,
Tamilnadu,Villupuram,Vaidapakkam  ,604301,,,,
Tamilnadu,Villupuram,Vairapuram  ,604207,,,,
Tamilnadu,Villupuram,Vakkur  ,605501,,,,
Tamilnadu,Villupuram,Valathi  ,604208,,,,
Tamilnadu,Villupuram,Valavanur  ,605108,,,,
Tamilnadu,Villupuram,Vallam  ,604206,,,,
Tamilnadu,Villupuram,Valudareddy  ,605401,,,,
Tamilnadu,Villupuram,Valudavur  ,605502,,,,
Tamilnadu,Villupuram,Vanur  ,605109,,,,
Tamilnadu,Villupuram,Velanthangal  ,604152,,,,
Tamilnadu,Villupuram,Veliyanur  ,604304,,,,
Tamilnadu,Villupuram,Vellimeudpettai  ,604207,,,,
Tamilnadu,Villupuram,Velur (SA)  ,604154,,,,
Tamilnadu,Villupuram,Vembi  ,605203,,,,
Tamilnadu,Villupuram,Vengandur  ,604306,,,,
Tamilnadu,Villupuram,Vengandur  ,605402,,,,
Tamilnadu,Villupuram,Venkatadri  Agaram  ,605105,,,,
Tamilnadu,Villupuram,Vilukkam  ,604206,,,,
Tamilnadu,Villupuram,Viramur  ,605402,,,,
Tamilnadu,Villupuram,Viranamur  ,604203,,,,
Tamilnadu,Cuddalore,A.Kuravankuppam ,607802,,,,
Tamilnadu,Cuddalore,Adari ,606304,,,,
Tamilnadu,Cuddalore,Adinarayananpuram ,608801,,,,
Tamilnadu,Cuddalore,Adur Agaram ,607302,,,,
Tamilnadu,Cuddalore,Agara Alambadi ,608702,,,,
Tamilnadu,Cuddalore,Agaram ,608502,,,,
Tamilnadu,Cuddalore,Akkadavalli ,607205,,,,
Tamilnadu,Cuddalore,Akkanur ,606106,,,,
Tamilnadu,Cuddalore,Akkarai Gori ,607003,,,,
Tamilnadu,Cuddalore,Alagaperumalkuppam ,607101,,,,
Tamilnadu,Cuddalore,Alaginatham ,607109,,,,
Tamilnadu,Cuddalore,Alambadi ,606108,,,,
Tamilnadu,Cuddalore,Alapakkam ,608801,,,,
Tamilnadu,Cuddalore,Alathur ,606303,,,,
Tamilnadu,Cuddalore,Alkondanatham ,608305,,,,
Tamilnadu,Cuddalore,Ambalavananpettai ,607301,,,,
Tamilnadu,Cuddalore,Ambapuram ,608704,,,,
Tamilnadu,Cuddalore,Ammapettai ,608401,,,,
Tamilnadu,Cuddalore,Ammeri ,607802,,,,
Tamilnadu,Cuddalore,Andarmullipallam ,608801,,,,
Tamilnadu,Cuddalore,Anguchettipalayam ,607110,,,,
Tamilnadu,Cuddalore,Annamalai University ,608002,,,,
Tamilnadu,Cuddalore,Annamalainagar ,608002,,,,
Tamilnadu,Cuddalore,Annavalli ,607003,,,,
Tamilnadu,Cuddalore,Anukkampattu ,607301,,,,
Tamilnadu,Cuddalore,Arangamangalam ,607302,,,,
Tamilnadu,Cuddalore,Arantangi ,608301,,,,
Tamilnadu,Cuddalore,Arasadikkuppam ,607103,,,,
Tamilnadu,Cuddalore,Ariyakoshti ,608502,,,,
Tamilnadu,Cuddalore,Athipatu ,608401,,,,
Tamilnadu,Cuddalore,Avatti ,606108,,,,
Tamilnadu,Cuddalore,Avinangudi ,606106,,,,
Tamilnadu,Cuddalore,Aviyanur ,607101,,,,
Tamilnadu,Cuddalore,Ayangudi ,608306,,,,
Tamilnadu,Cuddalore,Ayikuppam ,607301,,,,
Tamilnadu,Cuddalore,Ayyanur Akkaramangalam ,608201,,,,
Tamilnadu,Cuddalore,Azhisikudi ,608601,,,,
Tamilnadu,Cuddalore,B.Adivaraganallur ,608501,,,,
Tamilnadu,Cuddalore,B.Kolakudi ,608704,,,,
Tamilnadu,Cuddalore,B.Mutlur ,608501,,,,
Tamilnadu,Cuddalore,B.Odaiyur ,608601,,,,
Tamilnadu,Cuddalore,Badrakottai ,607102,,,,
Tamilnadu,Cuddalore,Bandarakottai ,607108,,,,
Tamilnadu,Cuddalore,Bharathi Road ,607001,,,,
Tamilnadu,Cuddalore,Bhuvanagiri ,608601,,,,
Tamilnadu,Cuddalore,Block 1 Neyveli ,607801,,,,
Tamilnadu,Cuddalore,Block 10 Neyveli ,607801,,,,
Tamilnadu,Cuddalore,Block 18 Neyveli ,607803,,,,
Tamilnadu,Cuddalore,Block 24 Neyveli ,607801,,,,
Tamilnadu,Cuddalore,Block 26 Neyveli ,607803,,,,
Tamilnadu,Cuddalore,Block 27 Neyveli ,607803,,,,
Tamilnadu,Cuddalore,Block 29 Neyveli ,607807,,,,
Tamilnadu,Cuddalore,Block 3 Neyveli ,607801,,,,
Tamilnadu,Cuddalore,Block 5 Neyveli ,607803,,,,
Tamilnadu,Cuddalore,Budamur ,606001,,,,
Tamilnadu,Cuddalore,Budangudi ,608702,,,,
Tamilnadu,Cuddalore,Budavarayanpettai ,608601,,,,
Tamilnadu,Cuddalore,C  Keeranur ,606110,,,,
Tamilnadu,Cuddalore,C.Arasur ,608302,,,,
Tamilnadu,Cuddalore,C.Mutlur ,608102,,,,
Tamilnadu,Cuddalore,C.Pudupettai ,608502,,,,
Tamilnadu,Cuddalore,C.Sathamangalam ,608201,,,,
Tamilnadu,Cuddalore,C.Veeracholagam ,608602,,,,
Tamilnadu,Cuddalore,Capperquary ,607005,,,,
Tamilnadu,Cuddalore,Chellanchery ,605106,,,,
Tamilnadu,Cuddalore,Chettithangal ,608304,,,,
Tamilnadu,Cuddalore,Chidambaram ,608001,,,,
Tamilnadu,Cuddalore,Chidambaram ,608001,,,,
Tamilnadu,Cuddalore,Chidambaram Cutcherry ,608001,,,,
Tamilnadu,Cuddalore,Chidambaram East ,608001,,,,
Tamilnadu,Cuddalore,Chidambaram North ,608001,,,,
Tamilnadu,Cuddalore,Chidambaram West ,608001,,,,
Tamilnadu,Cuddalore,Chinnakannadi ,607302,,,,
Tamilnadu,Cuddalore,Chinnanargunam ,608704,,,,
Tamilnadu,Cuddalore,Chinnapanaickenpalayam ,607102,,,,
Tamilnadu,Cuddalore,Chinnaparur ,606104,,,,
Tamilnadu,Cuddalore,Cuddalore ,607001,,,,
Tamilnadu,Cuddalore,Cuddalore Court Buildings ,607001,,,,
Tamilnadu,Cuddalore,Cuddalore Old Town ,607003,,,,
Tamilnadu,Cuddalore,Cuddalore Ot Bazaar ,607003,,,,
Tamilnadu,Cuddalore,Cuddalore Port ,607003,,,,
Tamilnadu,Cuddalore,Cuddalore Public Offices ,607001,,,,
Tamilnadu,Cuddalore,Deevalur ,606110,,,,
Tamilnadu,Cuddalore,Dharmanallur ,606103,,,,
Tamilnadu,Cuddalore,E.Keeranur ,606106,,,,
Tamilnadu,Cuddalore,Edaiyur ,606302,,,,
Tamilnadu,Cuddalore,Edayarkuppam ,607102,,,,
Tamilnadu,Cuddalore,Elleri ,608303,,,,
Tamilnadu,Cuddalore,Elumedu ,607104,,,,
Tamilnadu,Cuddalore,Eluthur ,606303,,,,
Tamilnadu,Cuddalore,Enathirimangalam ,607108,,,,
Tamilnadu,Cuddalore,Ennanagaram ,608602,,,,
Tamilnadu,Cuddalore,Erumanur ,606001,,,,
Tamilnadu,Cuddalore,Erumbur ,608704,,,,
Tamilnadu,Cuddalore,Eyyalur ,608304,,,,
Tamilnadu,Cuddalore,Fort St.David ,607001,,,,
Tamilnadu,Cuddalore,Gandhi Nagar ,607308,,,,
Tamilnadu,Cuddalore,Gavarappattu ,608002,,,,
Tamilnadu,Cuddalore,Gopalapuram ,606103,,,,
Tamilnadu,Cuddalore,Gudalur ,606111,,,,
Tamilnadu,Cuddalore,Gudithangi ,607105,,,,
Tamilnadu,Cuddalore,Gunamangalam ,607109,,,,
Tamilnadu,Cuddalore,Gundu Uppalavadi ,607002,,,,
Tamilnadu,Cuddalore,Guruvappanpettai ,607302,,,,
Tamilnadu,Cuddalore,Idaichittur ,606104,,,,
Tamilnadu,Cuddalore,Iruppu ,607805,,,,
Tamilnadu,Cuddalore,Jayankondapattinam ,608002,,,,
Tamilnadu,Cuddalore,K.Adur ,608602,,,,
Tamilnadu,Cuddalore,K.Alambadi ,608602,,,,
Tamilnadu,Cuddalore,Kadambuliyur ,607103,,,,
Tamilnadu,Cuddalore,Kalaiyur ,607109,,,,
Tamilnadu,Cuddalore,Kalinjikuppam ,607104,,,,
Tamilnadu,Cuddalore,Kalkunam ,607302,,,,
Tamilnadu,Cuddalore,Kaludur ,606304,,,,
Tamilnadu,Cuddalore,Kammapuram ,606103,,,,
Tamilnadu,Cuddalore,Kanagasabainagar ,608001,,,,
Tamilnadu,Cuddalore,Kandakumaran ,608305,,,,
Tamilnadu,Cuddalore,Kandamangalam ,608301,,,,
Tamilnadu,Cuddalore,Kandrakottai ,607205,,,,
Tamilnadu,Cuddalore,Kanisapakkam ,607106,,,,
Tamilnadu,Cuddalore,Kanjankollai ,608304,,,,
Tamilnadu,Cuddalore,Kanur ,608701,,,,
Tamilnadu,Cuddalore,Kargudal ,606001,,,,
Tamilnadu,Cuddalore,Karnatham ,606104,,,,
Tamilnadu,Cuddalore,Karumbur ,607108,,,,
Tamilnadu,Cuddalore,Karunakaranallur ,608301,,,,
Tamilnadu,Cuddalore,Karunguli ,607303,,,,
Tamilnadu,Cuddalore,Karuppur ,608401,,,,
Tamilnadu,Cuddalore,Karuvepilankurichi ,606110,,,,
Tamilnadu,Cuddalore,Kathazhai ,606103,,,,
Tamilnadu,Cuddalore,Kattamuthupalayam,607205,,,,
Tamilnadu,Cuddalore,Kattugudalur ,607805,,,,
Tamilnadu,Cuddalore,Kattumailur ,606304,,,,
Tamilnadu,Cuddalore,Kattumannarkoil ,608301,,,,
Tamilnadu,Cuddalore,Kavalakudi ,608702,,,,
Tamilnadu,Cuddalore,Kavanur ,608703,,,,
Tamilnadu,Cuddalore,Keelamoongiladi ,608102,,,,
Tamilnadu,Cuddalore,Keelanuvampattu ,608102,,,,
Tamilnadu,Cuddalore,Keerapalayam ,608602,,,,
Tamilnadu,Cuddalore,Kilacheruvoi ,606106,,,,
Tamilnadu,Cuddalore,Kilakalpoondi ,606303,,,,
Tamilnadu,Cuddalore,Kilapalaiyur ,606103,,,,
Tamilnadu,Cuddalore,Kilarungunam ,607105,,,,
Tamilnadu,Cuddalore,Kilimangalam ,606105,,,,
Tamilnadu,Cuddalore,Kiliruppu ,607103,,,,
Tamilnadu,Cuddalore,Kilkangeyankuppam ,607805,,,,
Tamilnadu,Cuddalore,Kilkavarappattu ,607112,,,,
Tamilnadu,Cuddalore,Killai ,608102,,,,
Tamilnadu,Cuddalore,Kilmampattu ,607106,,,,
Tamilnadu,Cuddalore,Kilur ,607302,,,,
Tamilnadu,Cuddalore,Ko  Adhanur ,606001,,,,
Tamilnadu,Cuddalore,Ko Pavalangudi ,606104,,,,
Tamilnadu,Cuddalore,Kodukkanpalayam ,607003,,,,
Tamilnadu,Cuddalore,Kollimalai Kilpathi ,608303,,,,
Tamilnadu,Cuddalore,Kollimalai Melpathi ,608303,,,,
Tamilnadu,Cuddalore,Kollumedu ,608303,,,,
Tamilnadu,Cuddalore,Komaratchi ,608302,,,,
Tamilnadu,Cuddalore,Konankuppam ,606104,,,,
Tamilnadu,Cuddalore,Kondasamudram ,608701,,,,
Tamilnadu,Cuddalore,Kondur ,607002,,,,
Tamilnadu,Cuddalore,Kongarayanur ,607104,,,,
Tamilnadu,Cuddalore,Konur B.O,606105,,,,
Tamilnadu,Cuddalore,Korakkavadi ,606303,,,,
Tamilnadu,Cuddalore,Kosapallam ,606105,,,,
Tamilnadu,Cuddalore,Kothattai ,608501,,,,
Tamilnadu,Cuddalore,Kothattai ,606111,,,,
Tamilnadu,Cuddalore,Kothavacheri ,608601,,,,
Tamilnadu,Cuddalore,Kothavasal ,608305,,,,
Tamilnadu,Cuddalore,Kottagam ,607802,,,,
Tamilnadu,Cuddalore,Kotteri ,607804,,,,
Tamilnadu,Cuddalore,Kovilampoondi ,608002,,,,
Tamilnadu,Cuddalore,Kozhai ,608703,,,,
Tamilnadu,Cuddalore,Krishnankuppam ,607301,,,,
Tamilnadu,Cuddalore,Krishnapuram ,608602,,,,
Tamilnadu,Cuddalore,Kudimiyankuppam ,607101,,,,
Tamilnadu,Cuddalore,Kuduveli ,608305,,,,
Tamilnadu,Cuddalore,Kullanchavadi ,607301,,,,
Tamilnadu,Cuddalore,Kumarakud ,608702,,,,
Tamilnadu,Cuddalore,Kumaramangalam ,607205,,,,
Tamilnadu,Cuddalore,Kummidimulai ,608601,,,,
Tamilnadu,Cuddalore,Kunamangalam ,608703,,,,
Tamilnadu,Cuddalore,Kundiyamallur ,607301,,,,
Tamilnadu,Cuddalore,Kunjimedu ,608306,,,,
Tamilnadu,Cuddalore,Kuppanatham ,606001,,,,
Tamilnadu,Cuddalore,Kuriamangalam ,608501,,,,
Tamilnadu,Cuddalore,Kurinjipadi ,607302,,,,
Tamilnadu,Cuddalore,Lakkur ,606303,,,,
Tamilnadu,Cuddalore,Lakshminarayanapuram ,607106,,,,
Tamilnadu,Cuddalore,Lalpet ,608303,,,,
Tamilnadu,Cuddalore,Lalpuram ,608602,,,,
Tamilnadu,Cuddalore,M.Adhanur ,608304,,,,
Tamilnadu,Cuddalore,M.Kolakudi ,608301,,,,
Tamilnadu,Cuddalore,M.Odaiyur ,608303,,,,
Tamilnadu,Cuddalore,M.Pudur ,607004,,,,
Tamilnadu,Cuddalore,M.Puliyangudi ,608302,,,,
Tamilnadu,Cuddalore,Ma Podaiyur ,606108,,,,
Tamilnadu,Cuddalore,Madanagopalapuram ,607301,,,,
Tamilnadu,Cuddalore,Maduranthaganallur ,608201,,,,
Tamilnadu,Cuddalore,Malayanur ,606108,,,,
Tamilnadu,Cuddalore,Maligaimedu ,607112,,,,
Tamilnadu,Cuddalore,Maligampattu ,607106,,,,
Tamilnadu,Cuddalore,Mamangalam ,608701,,,,
Tamilnadu,Cuddalore,Manamthavizhnthaputhur ,607101,,,,
Tamilnadu,Cuddalore,Manavalanallur ,606001,,,,
Tamilnadu,Cuddalore,Mangalam ,606104,,,,
Tamilnadu,Cuddalore,Mangalur ,606108,,,,
Tamilnadu,Cuddalore,Maniadur ,608303,,,,
Tamilnadu,Cuddalore,Manikollai ,608501,,,,
Tamilnadu,Cuddalore,Manjakkuppam ,607001,,,,
Tamilnadu,Cuddalore,Manjakollai ,608601,,,,
Tamilnadu,Cuddalore,Manjakuli ,608501,,,,
Tamilnadu,Cuddalore,Mariappanagar ,608002,,,,
Tamilnadu,Cuddalore,Mariasusainagar ,607001,,,,
Tamilnadu,Cuddalore,Marudadu ,607109,,,,
Tamilnadu,Cuddalore,Marudur ,608704,,,,
Tamilnadu,Cuddalore,Marungur ,608703,,,,
Tamilnadu,Cuddalore,Marungur ,607103,,,,
Tamilnadu,Cuddalore,Maruvai ,607303,,,,
Tamilnadu,Cuddalore,Mathalapattu ,605007,,,,
Tamilnadu,Cuddalore,Mathur ,606001,,,,
Tamilnadu,Cuddalore,Melakadambur ,608304,,,,
Tamilnadu,Cuddalore,Melakolakudi ,607802,,,,
Tamilnadu,Cuddalore,Melakuppam ,607802,,,,
Tamilnadu,Cuddalore,Melamanakudi ,608601,,,,
Tamilnadu,Cuddalore,Melapalachanallur ,608301,,,,
Tamilnadu,Cuddalore,Melaparuthikudi ,608302,,,,
Tamilnadu,Cuddalore,Melavanniyur ,608302,,,,
Tamilnadu,Cuddalore,Melkavrapattu ,607112,,,,
Tamilnadu,Cuddalore,Melmampattu ,607103,,,,
Tamilnadu,Cuddalore,Melpathi ,607105,,,,
Tamilnadu,Cuddalore,Melpattambakkam ,607104,,,,
Tamilnadu,Cuddalore,Melur ,606111,,,,
Tamilnadu,Cuddalore,Mettukkuppam ,607802,,,,
Tamilnadu,Cuddalore,Miralur ,608601,,,,
Tamilnadu,Cuddalore,Mogaiyur ,608305,,,,
Tamilnadu,Cuddalore,Moolakuppam ,607303,,,,
Tamilnadu,Cuddalore,Movur ,608306,,,,
Tamilnadu,Cuddalore,Mudanai ,607804,,,,
Tamilnadu,Cuddalore,Mudapuli ,607805,,,,
Tamilnadu,Cuddalore,Mudikandanallur ,608702,,,,
Tamilnadu,Cuddalore,Mukhasaparur ,606120,,,,
Tamilnadu,Cuddalore,Mullangudi ,608302,,,,
Tamilnadu,Cuddalore,Murugangudi ,606105,,,,
Tamilnadu,Cuddalore,Muttam ,608306,,,,
Tamilnadu,Cuddalore,N. Naraiyur ,606304,,,,
Tamilnadu,Cuddalore,N.Moolakuppam ,607102,,,,
Tamilnadu,Cuddalore,Nadukkuppam ,607103,,,,
Tamilnadu,Cuddalore,Naduveerappattu ,607102,,,,
Tamilnadu,Cuddalore,Nagar ,606302,,,,
Tamilnadu,Cuddalore,Nagarapadi ,608703,,,,
Tamilnadu,Cuddalore,Nakkaravanthankudi ,608002,,,,
Tamilnadu,Cuddalore,Nallathur ,605106,,,,
Tamilnadu,Cuddalore,Nallur ,606302,,,,
Tamilnadu,Cuddalore,Nandesswaramangalam ,608702,,,,
Tamilnadu,Cuddalore,Nangudi ,608702,,,,
Tamilnadu,Cuddalore,Nanjalur ,608302,,,,
Tamilnadu,Cuddalore,Nanjamahathuvazkai ,608102,,,,
Tamilnadu,Cuddalore,Natham ,607101,,,,
Tamilnadu,Cuddalore,Nathapattu ,607109,,,,
Tamilnadu,Cuddalore,Nattarmangalam ,608301,,,,
Tamilnadu,Cuddalore,Nellikkuppam ,607105,,,,
Tamilnadu,Cuddalore,Nellikkuppam East ,607105,,,,
Tamilnadu,Cuddalore,Nellikuppam Bazaar ,607105,,,,
Tamilnadu,Cuddalore,Neyvasal ,608303,,,,
Tamilnadu,Cuddalore,Neyveli 1 ,607801,,,,
Tamilnadu,Cuddalore,Neyveli 2 ,607802,,,,
Tamilnadu,Cuddalore,Neyveli 3 ,607803,,,,
Tamilnadu,Cuddalore,Neyveli General Hospital ,607803,,,,
Tamilnadu,Cuddalore,Neyveli Ii Thermal Station ,607807,,,,
Tamilnadu,Cuddalore,Neyveli Second Mines ,607802,,,,
Tamilnadu,Cuddalore,Neyveli Thermal Bus Stand ,607807,,,,
Tamilnadu,Cuddalore,Nithinatham ,606304,,,,
Tamilnadu,Cuddalore,Odakkanallur ,608201,,,,
Tamilnadu,Cuddalore,Odappankuppam ,607805,,,,
Tamilnadu,Cuddalore,Omampuliyur ,608306,,,,
Tamilnadu,Cuddalore,Oomangalam ,607804,,,,
Tamilnadu,Cuddalore,Oraiyur ,607108,,,,
Tamilnadu,Cuddalore,Orangur ,606108,,,,
Tamilnadu,Cuddalore,Orathur ,608201,,,,
Tamilnadu,Cuddalore,Ottimedu ,606103,,,,
Tamilnadu,Cuddalore,Pachayankuppam ,607003,,,,
Tamilnadu,Cuddalore,Padirikuppam ,607401,,,,
Tamilnadu,Cuddalore,Pagandai ,607112,,,,
Tamilnadu,Cuddalore,Palayamkottai Melpathy ,608701,,,,
Tamilnadu,Cuddalore,Palayamkottai(CDL),608701,,,,
Tamilnadu,Cuddalore,Palayapattinam ,606001,,,,
Tamilnadu,Cuddalore,Pali ,606104,,,,
Tamilnadu,Cuddalore,Pallavarayanatham ,607102,,,,
Tamilnadu,Cuddalore,Palur ,607102,,,,
Tamilnadu,Cuddalore,Panikuppam ,607106,,,,
Tamilnadu,Cuddalore,Pannapattu ,608201,,,,
Tamilnadu,Cuddalore,Panruti ,607106,,,,
Tamilnadu,Cuddalore,Panruti Bazaar ,607106,,,,
Tamilnadu,Cuddalore,Panruti East ,607106,,,,
Tamilnadu,Cuddalore,Panruti West ,607106,,,,
Tamilnadu,Cuddalore,Paradur ,608201,,,,
Tamilnadu,Cuddalore,Parangipettai ,608502,,,,
Tamilnadu,Cuddalore,Paravalur ,606001,,,,
Tamilnadu,Cuddalore,Pasar ,606304,,,,
Tamilnadu,Cuddalore,Pelandurai ,606105,,,,
Tamilnadu,Cuddalore,Pennadam ,606111,,,,
Tamilnadu,Cuddalore,Pennadam ,606105,,,,
Tamilnadu,Cuddalore,Perambalur ,606302,,,,
Tamilnadu,Cuddalore,Perampattu ,608002,,,,
Tamilnadu,Cuddalore,Periyakappankulam ,607802,,,,
Tamilnadu,Cuddalore,Periyakomatti ,608501,,,,
Tamilnadu,Cuddalore,Periyakottumulai ,606103,,,,
Tamilnadu,Cuddalore,Periyakuppam ,608801,,,,
Tamilnadu,Cuddalore,Periyanellikkollai ,608704,,,,
Tamilnadu,Cuddalore,Periyanesalur ,606304,,,,
Tamilnadu,Cuddalore,Perperiyankuppam ,607805,,,,
Tamilnadu,Cuddalore,Perumalnaickenpalayam ,607104,,,,
Tamilnadu,Cuddalore,Perumulai ,606106,,,,
Tamilnadu,Cuddalore,Perungalur ,608305,,,,
Tamilnadu,Cuddalore,Perur ,608701,,,,
Tamilnadu,Cuddalore,Pethanaickenkuppam ,607302,,,,
Tamilnadu,Cuddalore,Pichavaram ,608002,,,,
Tamilnadu,Cuddalore,Pillaiyarthangal ,608303,,,,
Tamilnadu,Cuddalore,Pillur ,606304,,,,
Tamilnadu,Cuddalore,Pinnalur ,608704,,,,
Tamilnadu,Cuddalore,Pinnathur ,608102,,,,
Tamilnadu,Cuddalore,Ponnanthittu ,608102,,,,
Tamilnadu,Cuddalore,Poochimedu ,608801,,,,
Tamilnadu,Cuddalore,Poolambadi ,606304,,,,
Tamilnadu,Cuddalore,Poondi ,608703,,,,
Tamilnadu,Cuddalore,Poondiyankuppam ,607005,,,,
Tamilnadu,Cuddalore,Poovanikkuppam ,608801,,,,
Tamilnadu,Cuddalore,Pothiramangalam ,606111,,,,
Tamilnadu,Cuddalore,Poynapadi ,606304,,,,
Tamilnadu,Cuddalore,Pudaiyur ,608701,,,,
Tamilnadu,Cuddalore,Puduchatram ,608501,,,,
Tamilnadu,Cuddalore,Pudupalayam ,607001,,,,
Tamilnadu,Cuddalore,Pulamedu ,608302,,,,
Tamilnadu,Cuddalore,Pulavanur ,607205,,,,
Tamilnadu,Cuddalore,Puliyur ,607301,,,,
Tamilnadu,Cuddalore,Puthupet (CDL) ,607108,,,,
Tamilnadu,Cuddalore,Puvalai ,608601,,,,
Tamilnadu,Cuddalore,Puvanur ,606104,,,,
Tamilnadu,Cuddalore,Pythambadi ,607101,,,,
Tamilnadu,Cuddalore,Rajendra Cholagam ,608301,,,,
Tamilnadu,Cuddalore,Rajendra Pattinam ,608703,,,,
Tamilnadu,Cuddalore,Ramapuram ,607003,,,,
Tamilnadu,Cuddalore,Ramapuram ,608701,,,,
Tamilnadu,Cuddalore,Reddichavadi ,607402,,,,
Tamilnadu,Cuddalore,Reddiyur ,608304,,,,
Tamilnadu,Cuddalore,Rettakurichi ,606304,,,,
Tamilnadu,Cuddalore,Sakkangudi ,608201,,,,
Tamilnadu,Cuddalore,Salianthoppu ,608401,,,,
Tamilnadu,Cuddalore,Samattikuppam ,607301,,,,
Tamilnadu,Cuddalore,Samiyarpettai ,608502,,,,
Tamilnadu,Cuddalore,Sangolikuppam ,607005,,,,
Tamilnadu,Cuddalore,Sathamangalam ,606001,,,,
Tamilnadu,Cuddalore,Sathanatham ,606111,,,,
Tamilnadu,Cuddalore,Sathankuppam ,607004,,,,
Tamilnadu,Cuddalore,Sathapadi ,608601,,,,
Tamilnadu,Cuddalore,Sathapadi ,606103,,,,
Tamilnadu,Cuddalore,Sathipattu ,607106,,,,
Tamilnadu,Cuddalore,Sathiyam ,606302,,,,
Tamilnadu,Cuddalore,Sathiyavadi ,606110,,,,
Tamilnadu,Cuddalore,Sathukudal ,606110,,,,
Tamilnadu,Cuddalore,Sedapalayam ,607003,,,,
Tamilnadu,Cuddalore,Seemanthottam ,607003,,,,
Tamilnadu,Cuddalore,Sellankuppam ,607003,,,,
Tamilnadu,Cuddalore,Semmandalam ,607001,,,,
Tamilnadu,Cuddalore,Semmedu ,607106,,,,
Tamilnadu,Cuddalore,Semokottai ,607106,,,,
Tamilnadu,Cuddalore,Seplanatham ,607802,,,,
Tamilnadu,Cuddalore,Seppakkam ,606302,,,,
Tamilnadu,Cuddalore,Serakuppam ,607303,,,,
Tamilnadu,Cuddalore,Sethiathope ,608702,,,,
Tamilnadu,Cuddalore,Sevveri ,606106,,,,
Tamilnadu,Cuddalore,Shandan ,608304,,,,
Tamilnadu,Cuddalore,Sholathiram ,608701,,,,
Tamilnadu,Cuddalore,Sholavalli ,607105,,,,
Tamilnadu,Cuddalore,Silambimangalam ,608801,,,,
Tamilnadu,Cuddalore,Silambinathanpettai ,607102,,,,
Tamilnadu,Cuddalore,Singirikoil ,605007,,,,
Tamilnadu,Cuddalore,Sipcot Cuddalore ,607005,,,,
Tamilnadu,Cuddalore,Sirugramam ,607101,,,,
Tamilnadu,Cuddalore,Sirukattur ,608304,,,,
Tamilnadu,Cuddalore,Sirumangalam ,606302,,,,
Tamilnadu,Cuddalore,Sirumulai ,606106,,,,
Tamilnadu,Cuddalore,Sirupakkam ,606123,,,,
Tamilnadu,Cuddalore,Siruthondamadevi ,607103,,,,
Tamilnadu,Cuddalore,Siruvathur ,607106,,,,
Tamilnadu,Cuddalore,Sithamalli ,608301,,,,
Tamilnadu,Cuddalore,Sivapuri ,608002,,,,
Tamilnadu,Cuddalore,Small Bazaar ,608502,,,,
Tamilnadu,Cuddalore,Sornavur Melpathi ,607104,,,,
Tamilnadu,Cuddalore,Sri Adivaraganallur ,608703,,,,
Tamilnadu,Cuddalore,Sri Pudur ,608703,,,,
Tamilnadu,Cuddalore,Sri Vakkaramari ,608703,,,,
Tamilnadu,Cuddalore,Srimushnam ,608703,,,,
Tamilnadu,Cuddalore,Srinedunjeri ,608703,,,,
Tamilnadu,Cuddalore,Suba Uppalavadi ,607002,,,,
Tamilnadu,Cuddalore,Subramaniyapuram ,607301,,,,
Tamilnadu,Cuddalore,Sundaravandi,607401,,,,
Tamilnadu,Cuddalore,Suravilandur ,608302,,,,
Tamilnadu,Cuddalore,T   Gopurapuram ,606001,,,,
Tamilnadu,Cuddalore,T.Nedunjeri ,608305,,,,
Tamilnadu,Cuddalore,T.Palayam ,607301,,,,
Tamilnadu,Cuddalore,Temmur ,608302,,,,
Tamilnadu,Cuddalore,Terkuviruthangam ,608305,,,,
Tamilnadu,Cuddalore,Thachur ,606303,,,,
Tamilnadu,Cuddalore,Thandavankuppam ,607802,,,,
Tamilnadu,Cuddalore,Thatchakadu ,608501,,,,
Tamilnadu,Cuddalore,Thattampalayam ,607205,,,,
Tamilnadu,Cuddalore,Theerthanagiri ,608801,,,,
Tamilnadu,Cuddalore,Theethampalayam ,608501,,,,
Tamilnadu,Cuddalore,Therku Vadakku Puthur ,606110,,,,
Tamilnadu,Cuddalore,Thillaividangan ,608102,,,,
Tamilnadu,Cuddalore,Thiyagavalli ,608801,,,,
Tamilnadu,Cuddalore,Thokkanambakkam ,607402,,,,
Tamilnadu,Cuddalore,Thondamanatham ,607301,,,,
Tamilnadu,Cuddalore,Thoravalur ,606001,,,,
Tamilnadu,Cuddalore,Thottikuppam ,606001,,,,
Tamilnadu,Cuddalore,Tirukandeeswaram ,607105,,,,
Tamilnadu,Cuddalore,Tirumanikuzhi ,607401,,,,
Tamilnadu,Cuddalore,Tirunaraiyur ,608303,,,,
Tamilnadu,Cuddalore,Tirupadiripuliyur ,607002,,,,
Tamilnadu,Cuddalore,Tiruppadiripuliyur Bazaar ,607002,,,,
Tamilnadu,Cuddalore,Tiruppadiripuliyur West ,607002,,,,
Tamilnadu,Cuddalore,Tiruthuraiyur ,607205,,,,
Tamilnadu,Cuddalore,Tiruvamur,607106,,,,
Tamilnadu,Cuddalore,Tiruvatigai ,607106,,,,
Tamilnadu,Cuddalore,Tiruvattathurai ,606111,,,,
Tamilnadu,Cuddalore,Tiruvendhipuram ,607401,,,,
Tamilnadu,Cuddalore,Tittagudi ,606106,,,,
Tamilnadu,Cuddalore,Tolar ,606111,,,,
Tamilnadu,Cuddalore,Toludur ,606303,,,,
Tamilnadu,Cuddalore,U  Agaram ,607804,,,,
Tamilnadu,Cuddalore,Udayargudi ,608301,,,,
Tamilnadu,Cuddalore,Uthamacholamangalam ,608002,,,,
Tamilnadu,Cuddalore,Uttangal ,607804,,,,
Tamilnadu,Cuddalore,Vadakkumangudi ,608401,,,,
Tamilnadu,Cuddalore,Vadakkupalayam ,608701,,,,
Tamilnadu,Cuddalore,Vadakkuvelur ,607802,,,,
Tamilnadu,Cuddalore,Vadakuthu ,607303,,,,
Tamilnadu,Cuddalore,Vadalur ,607303,,,,
Tamilnadu,Cuddalore,Vadathalaikulam ,608704,,,,
Tamilnadu,Cuddalore,Vagaiyur ,606106,,,,
Tamilnadu,Cuddalore,Vaithianathapuram ,606303,,,,
Tamilnadu,Cuddalore,Vaiyur ,608401,,,,
Tamilnadu,Cuddalore,Vakkur ,608201,,,,
Tamilnadu,Cuddalore,Valakollai ,608702,,,,
Tamilnadu,Cuddalore,Valasakkadu ,608701,,,,
Tamilnadu,Cuddalore,Valayamadevi ,608704,,,,
Tamilnadu,Cuddalore,Valisodanaipalayam ,607003,,,,
Tamilnadu,Cuddalore,Vallam ,607805,,,,
Tamilnadu,Cuddalore,Vallampadugai ,608401,,,,
Tamilnadu,Cuddalore,Vallimaduram ,606108,,,,
Tamilnadu,Cuddalore,Valudalampattu ,607301,,,,
Tamilnadu,Cuddalore,Vanamadevi ,607105,,,,
Tamilnadu,Cuddalore,Vanamadevi ,608701,,,,
Tamilnadu,Cuddalore,Vanathirayapuram ,607303,,,,
Tamilnadu,Cuddalore,Vandipalayam ,607004,,,,
Tamilnadu,Cuddalore,Vannaiyur ,608302,,,,
Tamilnadu,Cuddalore,Vanpakkam ,607105,,,,
Tamilnadu,Cuddalore,Varakalpattu,607109,,,,
Tamilnadu,Cuddalore,Varambanur ,606302,,,,
Tamilnadu,Cuddalore,Varinjipakkam ,607205,,,,
Tamilnadu,Cuddalore,Vasanankuppam ,607301,,,,
Tamilnadu,Cuddalore,Vasantharayanpalayam,607003,,,,
Tamilnadu,Cuddalore,Vattathur ,608702,,,,
Tamilnadu,Cuddalore,Vayalur ,608602,,,,
Tamilnadu,Cuddalore,Veeramudayanatham ,608702,,,,
Tamilnadu,Cuddalore,Veeranandapuram,608301,,,,
Tamilnadu,Cuddalore,Veerraperumanallur ,607101,,,,
Tamilnadu,Cuddalore,Vehakollai ,607302,,,,
Tamilnadu,Cuddalore,Vellakarai ,607003,,,,
Tamilnadu,Cuddalore,Vellapakkam ,607109,,,,
Tamilnadu,Cuddalore,Venganur ,606303,,,,
Tamilnadu,Cuddalore,Venkatampettai ,607302,,,,
Tamilnadu,Cuddalore,Venugopalapuram ,607001,,,,
Tamilnadu,Cuddalore,Veppur ,606304,,,,
Tamilnadu,Cuddalore,Vijayamanagaram ,606104,,,,
Tamilnadu,Cuddalore,Vilagam ,608305,,,,
Tamilnadu,Cuddalore,Vilangattur ,606302,,,,
Tamilnadu,Cuddalore,Villiyanallur ,608501,,,,
Tamilnadu,Cuddalore,Vilvarayanatham ,607001,,,,
Tamilnadu,Cuddalore,Virupakshi ,607302,,,,
Tamilnadu,Cuddalore,Visoor ,607805,,,,
Tamilnadu,Cuddalore,Vriddhachalam ,606001,,,,
Tamilnadu,Cuddalore,Vriddhachalam Bazaar ,606001,,,,
Tamilnadu,Cuddalore,Vriddhachalam Cutchery ,606001,,,,
Tamilnadu,Erode,Alampalayam B.O,638105,,,,
Tamilnadu,Erode,Bellampatti B.O,638702,,,,
Tamilnadu,Erode,Devarajapattinam B.O,638702,,,,
Tamilnadu,Erode,Emmammpoondi B.O,638460,,,,
Tamilnadu,Erode,Kambiliampatti B.O,638706,,,,
Tamilnadu,Erode,Kokkampalayam B.O,638702,,,,
Tamilnadu,Erode,Kundadam S.O,638702,,,,
Tamilnadu,Erode,Mangalapatti B.O,638105,,,,
Tamilnadu,Erode,Muthugoundenpalayam B.O,638702,,,,
Tamilnadu,Erode,Muthur S.O,638105,,,,
Tamilnadu,Erode,Nallimadam B.O,638706,,,,
Tamilnadu,Erode,Nochipalayam B.O,638706,,,,
Tamilnadu,Erode,Olalakoil B.O,638460,,,,
Tamilnadu,Erode,Pothampalayam B.O,638460,,,,
Tamilnadu,Erode,Pulipar B.O,638460,,,,
Tamilnadu,Erode,Punganthurai B.O,638706,,,,
Tamilnadu,Erode,Punjaithamaraikulam B.O,638460,,,,
Tamilnadu,Erode,Rudravathi B.O,638702,,,,
Tamilnadu,Erode,Sadayapalayam B.O,638702,,,,
Tamilnadu,Erode,Savakattupalayam S.O,638460,,,,
Tamilnadu,Erode,Surianallur B.O,638702,,,,
Tamilnadu,Erode,Thayamapalayam S.O,638703,,,,
Tamilnadu,Erode,Vellierichal B.O,638105,,,,
Tamilnadu,Erode,Kalipalayam B.O,638661,,,,
Tamilnadu,Erode,Sirukinar B.O,638706,,,,
Tamilnadu,Erode,Vengampur B.O,638152,,,,
Tamilnadu,Erode,Nandavanampalayam B.O,638702,,,,
Tamilnadu,Erode,Kilankundal B.O,638106,,,,
Tamilnadu,Erode,Ponnivadi B.O,638673,,,,
Tamilnadu,Erode,Achur B.O,638673,,,,
Tamilnadu,Erode,Alampalayam B.O,638661,,,,
Tamilnadu,Erode,Alangiam S.O,638656,,,,
Tamilnadu,Erode,Anangur B.O,639202,,,,
Tamilnadu,Erode,Arikkaranvalasu B.O,639201,,,,
Tamilnadu,Erode,Bagavankoil B.O,638673,,,,
Tamilnadu,Erode,Bommanallur B.O,638673,,,,
Tamilnadu,Erode,Chinnamarudur B.O,638106,,,,
Tamilnadu,Erode,Chinnaputhur B.O,638657,,,,
Tamilnadu,Erode,Chitravuthampalayam B.O,638657,,,,
Tamilnadu,Erode,Cholakkadai Street S.O,638656,,,,
Tamilnadu,Erode,Dalavoipattinam S.O,638672,,,,
Tamilnadu,Erode,Dasarapatti B.O,638657,,,,
Tamilnadu,Erode,Dharapuram Bazaar S.O,638656,,,,
Tamilnadu,Erode,Dharapuram H.O,638656,,,,
Tamilnadu,Erode,Dharapuram South B.O,638656,,,,
Tamilnadu,Erode,Edakkalpadi B.O,639202,,,,
Tamilnadu,Erode,Ellisnagar S.O,638657,,,,
Tamilnadu,Erode,Erachapadi B.O,639202,,,,
Tamilnadu,Erode,Erasinampalayam B.O,638106,,,,
Tamilnadu,Erode,Gethalrev B.O,638657,,,,
Tamilnadu,Erode,Govindapuram B.O,638657,,,,
Tamilnadu,Erode,Hanumanthapuram B.O,638656,,,,
Tamilnadu,Erode,Kallivalasu B.O,638657,,,,
Tamilnadu,Erode,Kannivadi B.O,639202,,,,
Tamilnadu,Erode,Karaiyur B.O,638661,,,,
Tamilnadu,Erode,Kolathupalayam S.O,638661,,,,
Tamilnadu,Erode,Kolinjivadi S.O,638673,,,,
Tamilnadu,Erode,Komarapalayam B.O,638106,,,,
Tamilnadu,Erode,Koneripatti B.O,638673,,,,
Tamilnadu,Erode,Kottaimulanur B.O,638106,,,,
Tamilnadu,Erode,Kullaipalayam B.O,638657,,,,
Tamilnadu,Erode,Malamedu B.O,639201,,,,
Tamilnadu,Erode,Mambadi B.O,638106,,,,
Tamilnadu,Erode,Manakadavu B.O,638673,,,,
Tamilnadu,Erode,Mettuvalasu B.O,638661,,,,
Tamilnadu,Erode,Mulanur S.O,638106,,,,
Tamilnadu,Erode,Nagalingapuram B.O,638660,,,,
Tamilnadu,Erode,Nallampalayam B.O,638661,,,,
Tamilnadu,Erode,Nanjaithalaiyur S.O,639204,,,,
Tamilnadu,Erode,Nanjiampalayam B.O,638657,,,,
Tamilnadu,Erode,Nanjundapuram B.O,638657,,,,
Tamilnadu,Erode,Nathachennigoundenvalasu B.O,638106,,,,
Tamilnadu,Erode,Nathapalayam B.O,638106,,,,
Tamilnadu,Erode,Orathupalyaam B.O,638106,,,,
Tamilnadu,Erode,Pattuthurai B.O,638106,,,,
Tamilnadu,Erode,Peramium B.O,638661,,,,
Tamilnadu,Erode,Pichakalpatti B.O,638106,,,,
Tamilnadu,Erode,Ponnapuram B.O,638657,,,,
Tamilnadu,Erode,Puliampatti B.O,638106,,,,
Tamilnadu,Erode,Rakkiavalasu B.O,638106,,,,
Tamilnadu,Erode,Rettalavalasu B.O,638661,,,,
Tamilnadu,Erode,Sankarandampalayam S.O,638706,,,,
Tamilnadu,Erode,Selampalayam B.O,638672,,,,
Tamilnadu,Erode,Semmangarai B.O,638106,,,,
Tamilnadu,Erode,Therpatti B.O,638673,,,,
Tamilnadu,Erode,Thoppampatti B.O,638657,,,,
Tamilnadu,Erode,Thottiapalayam B.O,638661,,,,
Tamilnadu,Erode,Thurambadi B.O,638106,,,,
Tamilnadu,Erode,Undarapatti B.O,638673,,,,
Tamilnadu,Erode,Vadugapatti B.O,638106,,,,
Tamilnadu,Erode,Veerajimangalam B.O,638673,,,,
Tamilnadu,Erode,Velampundi B.O,639201,,,,
Tamilnadu,Erode,Vellavavipudur B.O,638661,,,,
Tamilnadu,Erode,Nelali B.O,638660,,,,
Tamilnadu,Erode,A.Sembulichampalayam B.O,638502,,,,
Tamilnadu,Erode,Akkaraikodiveri B.O,638454,,,,
Tamilnadu,Erode,Alampalayam B.O,638501,,,,
Tamilnadu,Erode,Alathur B.O,638455,,,,
Tamilnadu,Erode,Alingiam(Gobi) B.O,638457,,,,
Tamilnadu,Erode,Alukuli B.O,638453,,,,
Tamilnadu,Erode,Ammankoil B.O,638109,,,,
Tamilnadu,Erode,Ammapettai S.O,638311,,,,
Tamilnadu,Erode,Anaipalayam B.O,638752,,,,
Tamilnadu,Erode,Anjanur(Vemandampalayam) B.O,638462,,,,
Tamilnadu,Erode,Anjur B.O,638151,,,,
Tamilnadu,Erode,Anthiyur S.O,638501,,,,
Tamilnadu,Erode,Appakudal B.O,638315,,,,
Tamilnadu,Erode,Arachalur S.O,638101,,,,
Tamilnadu,Erode,Arakkankottai B.O,638506,,,,
Tamilnadu,Erode,Arasur B.O,638454,,,,
Tamilnadu,Erode,Atavanani Hanumanpalli B.O,638101,,,,
Tamilnadu,Erode,Athani S.O,638502,,,,
Tamilnadu,Erode,Athiyur B.O,638103,,,,
Tamilnadu,Erode,Avalpundurai S.O,638115,,,,
Tamilnadu,Erode,Avudayarparai B.O,638151,,,,
Tamilnadu,Erode,Ayalur B.O,638453,,,,
Tamilnadu,Erode,Ayyampalayam B.O,638151,,,,
Tamilnadu,Erode,Ayyampalayam B.O,638455,,,,
Tamilnadu,Erode,Bargur-anthiyur B.O,638501,,,,
Tamilnadu,Erode,Basuvanapuram B.O,638503,,,,
Tamilnadu,Erode,Basuvapatti B.O,638051,,,,
Tamilnadu,Erode,Bhavani Cutcherry S.O,638301,,,,
Tamilnadu,Erode,Bhavani H.O,638301,,,,
Tamilnadu,Erode,Bhavani Kudal S.O,638301,,,,
Tamilnadu,Erode,Brahmadesam B.O,638315,,,,
Tamilnadu,Erode,Budapadi B.O,638311,,,,
Tamilnadu,Erode,Chennampatti B.O,638504,,,,
Tamilnadu,Erode,Chennimalai S.O,638051,,,,
Tamilnadu,Erode,Chikkaiah Naicker College B.O,638004,,,,
Tamilnadu,Erode,Chinnapallam B.O,638311,,,,
Tamilnadu,Erode,Chinniampalayam(Kunathur) B.O,638103,,,,
Tamilnadu,Erode,Chittode S.O,638102,,,,
Tamilnadu,Erode,Dalavaipettai S.O,638327,,,,
Tamilnadu,Erode,Dalavoipalayam B.O,638751,,,,
Tamilnadu,Erode,Dasappagoundanpudur S.O,638503,,,,
Tamilnadu,Erode,Edayankattuvalsu S.O,638009,,,,
Tamilnadu,Erode,Elathur Chettipalayam B.O,638458,,,,
Tamilnadu,Erode,Elavamalai B.O,638316,,,,
Tamilnadu,Erode,Elavanatham B.O,638101,,,,
Tamilnadu,Erode,Elumathur B.O,638104,,,,
Tamilnadu,Erode,Ennamanagalam B.O,638501,,,,
Tamilnadu,Erode,Erangattur B.O,638505,,,,
Tamilnadu,Erode,Erode Collectorate S.O,638011,,,,
Tamilnadu,Erode,Erode East S.O,638001,,,,
Tamilnadu,Erode,Erode Fort S.O,638001,,,,
Tamilnadu,Erode,Erode H.O,638001,,,,
Tamilnadu,Erode,Erode Market S.O,638001,,,,
Tamilnadu,Erode,Erode North S.O,638001,,,,
Tamilnadu,Erode,Erode Railway Colony S.O,638002,,,,
Tamilnadu,Erode,Erode South S.O,638001,,,,
Tamilnadu,Erode,Ganapathipalayam S.O,638153,,,,
Tamilnadu,Erode,Gangapuram B.O,638102,,,,
Tamilnadu,Erode,Getticheyur S.O,638110,,,,
Tamilnadu,Erode,Gettisamudram B.O,638501,,,,
Tamilnadu,Erode,Gettisamudram Colony B.O,638501,,,,
Tamilnadu,Erode,Gnanipalayam B.O,638112,,,,
Tamilnadu,Erode,Gobichettipalayam East S.O,638452,,,,
Tamilnadu,Erode,Gobichettipalayam H.O,638452,,,,
Tamilnadu,Erode,Gobichettipalayam South S.O,638476,,,,
Tamilnadu,Erode,Greynagar B.O,638056,,,,
Tamilnadu,Erode,Gudakkarai B.O,638454,,,,
Tamilnadu,Villupuram,Kakuppam,605301,,,,
Tamilnadu,Villupuram,Koliyanur,605301,,,,
Tamilnadu,Villupuram,Vandimedu,605602,,,,
Tamilnadu,Villupuram,Vazhuthareddy,605401,,,,
Tamilnadu,Erode,Guruvareddiyur S.O,638504,,,,
Tamilnadu,Erode,Guthialathur B.O,638503,,,,
Tamilnadu,Erode,Ichipalayam B.O,638151,,,,
Tamilnadu,Erode,Ingur S.O,638058,,,,
Tamilnadu,Erode,Injampalli B.O,638104,,,,
Tamilnadu,Erode,Irugalur B.O,638462,,,,
Tamilnadu,Erode,Jambai S.O,638312,,,,
Tamilnadu,Erode,Kadappanalur B.O,638311,,,,
Tamilnadu,Erode,Kadathur S.O,638466,,,,
Tamilnadu,Erode,Kadayampatti B.O,638312,,,,
Tamilnadu,Erode,Kadirampatti B.O,638107,,,,
Tamilnadu,Erode,Kadukkampalayam B.O,638476,,,,
Tamilnadu,Erode,Kagam B.O,638109,,,,
Tamilnadu,Erode,Kaikolapalayam B.O,638056,,,,
Tamilnadu,Erode,Kalbhavi B.O,638314,,,,
Tamilnadu,Erode,Kaliappampalayam B.O,638110,,,,
Tamilnadu,Erode,Kalichettipalayam B.O,638455,,,,
Tamilnadu,Erode,Kalingarayanpalayam Pudur B.O,638301,,,,
Tamilnadu,Erode,Kalingiam B.O,638453,,,,
Tamilnadu,Erode,Kalkadambur B.O,638503,,,,
Tamilnadu,Erode,Kallipatti S.O,638505,,,,
Tamilnadu,Erode,Kambiliyampatti B.O,638056,,,,
Tamilnadu,Erode,Kanagapuram B.O,638112,,,,
Tamilnadu,Erode,Kanakkampalayam B.O,638505,,,,
Tamilnadu,Erode,Kandappagoundenvalasu B.O,638051,,,,
Tamilnadu,Erode,Kandasamipalayam B.O,638109,,,,
Tamilnadu,Erode,Kandikattuvalasu B.O,638115,,,,
Tamilnadu,Erode,Kanjikovil S.O,638116,,,,
Tamilnadu,Erode,Kannadipalayam B.O,638314,,,,
Tamilnadu,Erode,Karalayam B.O,638503,,,,
Tamilnadu,Erode,Karattadipalayam S.O,638453,,,,
Tamilnadu,Erode,Karattupalayam B.O,638457,,,,
Tamilnadu,Erode,Karukkampalayam B.O,638109,,,,
Tamilnadu,Erode,Karumandisellipalayam B.O,638052,,,,
Tamilnadu,Erode,Karungalpalayam S.O,638003,,,,
Tamilnadu,Erode,Kasbapettai B.O,638115,,,,
Tamilnadu,Erode,Kasipalayam B.O,638009,,,,
Tamilnadu,Erode,Kasipalayam S.O,638454,,,,
Tamilnadu,Erode,Kasthurbagarm B.O,638101,,,,
Tamilnadu,Erode,Kasthuripalayam B.O,638751,,,,
Tamilnadu,Erode,Kavindapadi S.O,638455,,,,
Tamilnadu,Erode,Kavundichipalayam B.O,638112,,,,
Tamilnadu,Erode,Kavuthampalayam B.O,638103,,,,
Tamilnadu,Erode,Kembanaickenpalayam B.O,638503,,,,
Tamilnadu,Erode,Kesarimangalam B.O,638311,,,,
Tamilnadu,Erode,Kidarai B.O,638458,,,,
Tamilnadu,Erode,Kilwani B.O,638502,,,,
Tamilnadu,Erode,Kodiveri B.O,638503,,,,
Tamilnadu,Erode,Kodumanal B.O,638751,,,,
Tamilnadu,Erode,Kodumudi S.O,638151,,,,
Tamilnadu,Erode,Kolanalli B.O,638154,,,,
Tamilnadu,Erode,Kolappalur S.O,638456,,,,
Tamilnadu,Erode,Kolathupalayam B.O,638152,,,,
Tamilnadu,Erode,Kollampalayam B.O,638002,,,,
Tamilnadu,Erode,Komarayanur B.O,638504,,,,
Tamilnadu,Erode,Komarayeevalasu B.O,638104,,,,
Tamilnadu,Erode,Kondapanaickenpalayam B.O,638503,,,,
Tamilnadu,Erode,Kondayampalayam(Bhavani) B.O,638505,,,,
Tamilnadu,Erode,Kongarpalayam B.O,638506,,,,
Tamilnadu,Erode,Koothampalayam B.O,638751,,,,
Tamilnadu,Erode,Koothampatti B.O,638101,,,,
Tamilnadu,Erode,Koothampoondi B.O,638315,,,,
Tamilnadu,Erode,Koshanam B.O,638458,,,,
Tamilnadu,Erode,Kottupullampalayam B.O,638453,,,,
Tamilnadu,Erode,Kovilpalayam B.O,638116,,,,
Tamilnadu,Erode,Kugalur S.O,638313,,,,
Tamilnadu,Erode,Kullampalayam B.O,638476,,,,
Tamilnadu,Erode,Kummakalipalayam B.O,638457,,,,
Tamilnadu,Erode,Kunnathur S.O,638103,,,,
Tamilnadu,Erode,Kuppandampalayam B.O,638502,,,,
Tamilnadu,Erode,Kurichi B.O,638314,,,,
Tamilnadu,Erode,Kurichi-kunnathur B.O,638110,,,,
Tamilnadu,Erode,Kurumandur S.O,638457,,,,
Tamilnadu,Erode,Kurupanaickenpalayam B.O,638301,,,,
Tamilnadu,Erode,Kuthambi B.O,638055,,,,
Tamilnadu,Erode,Kuttipalayam B.O,638312,,,,
Tamilnadu,Erode,L.M.Palapalayam B.O,638455,,,,
Tamilnadu,Erode,Lakkapuram B.O,638002,,,,
Tamilnadu,Erode,Malayampalayam B.O,638154,,,,
Tamilnadu,Erode,Mannathampalayam B.O,638153,,,,
Tamilnadu,Erode,Maravapalayam B.O,638051,,,,
Tamilnadu,Erode,Mathur B.O,638314,,,,
Tamilnadu,Erode,Melapalayam S.O,638051,,,,
Tamilnadu,Erode,Mettupalayam B.O,638315,,,,
Tamilnadu,Erode,Mevani B.O,638313,,,,
Tamilnadu,Erode,Michaelpalayam B.O,638501,,,,
Tamilnadu,Erode,Minnapalayam B.O,638109,,,,
Tamilnadu,Erode,Modakurichi S.O,638104,,,,
Tamilnadu,Erode,Morattupalayam B.O,638752,,,,
Tamilnadu,Erode,Mukasi Hanumanpalli B.O,638101,,,,
Tamilnadu,Erode,Mukasipidariyur B.O,638051,,,,
Tamilnadu,Erode,Mukasipudur B.O,638314,,,,
Tamilnadu,Erode,Mulapalayam B.O,638002,,,,
Tamilnadu,Erode,Mullampatti B.O,638107,,,,
Tamilnadu,Erode,Murali B.O,638504,,,,
Tamilnadu,Erode,Murungatholuvu B.O,638051,,,,
Tamilnadu,Erode,Muthayeepalayam B.O,638153,,,,
Tamilnadu,Erode,Mylambadi B.O,638314,,,,
Tamilnadu,Erode,Nadupatti B.O,638056,,,,
Tamilnadu,Erode,Nagadevampalayam B.O,638476,,,,
Tamilnadu,Erode,Nagalur B.O,638502,,,,
Tamilnadu,Erode,Nallampatti B.O,638057,,,,
Tamilnadu,Erode,Nambiyur S.O,638458,,,,
Tamilnadu,Erode,Nanjagoundenpalayam B.O,638476,,,,
Tamilnadu,Erode,Nanjai Puliampatti B.O,638506,,,,
Tamilnadu,Erode,Nanjai Uttukuli B.O,638104,,,,
Tamilnadu,Erode,Nasiyanur S.O,638107,,,,
Tamilnadu,Erode,Nathagoundenpalayam B.O,638115,,,,
Tamilnadu,Erode,Nerinjipettai B.O,638311,,,,
Tamilnadu,Erode,Nichampalayam B.O,638055,,,,
Tamilnadu,Erode,Odathurai B.O,638455,,,,
Tamilnadu,Erode,Odayagoundenpalayam B.O,638454,,,,
Tamilnadu,Erode,Olagadam S.O,638314,,,,
Tamilnadu,Erode,Olapalayam B.O,638052,,,,
Tamilnadu,Erode,Oricheri B.O,638315,,,,
Tamilnadu,Erode,Pachampalayam B.O,638314,,,,
Tamilnadu,Erode,Palakarai B.O,638057,,,,
Tamilnadu,Erode,Palakuttaipattipudur B.O,638504,,,,
Tamilnadu,Erode,Pallagoundenpalayam B.O,638056,,,,
Tamilnadu,Erode,Pallapalayam B.O,638116,,,,
Tamilnadu,Erode,Palliyuthu B.O,638101,,,,
Tamilnadu,Erode,Pandiampalayam B.O,638455,,,,
Tamilnadu,Erode,Pappampalayam B.O,638007,,,,
Tamilnadu,Erode,Pappampalayam B.O,638055,,,,
Tamilnadu,Erode,Pariyur Vellalapalayam B.O,638476,,,,
Tamilnadu,Erode,Paruvachi B.O,638312,,,,
Tamilnadu,Erode,Pasur S.O,638154,,,,
Tamilnadu,Erode,Patlur B.O,638314,,,,
Tamilnadu,Erode,Pattakaranpalayam B.O,638057,,,,
Tamilnadu,Erode,Pattimaniakaranpalayam B.O,638462,,,,
Tamilnadu,Erode,Peria Agraharam S.O,638005,,,,
Tamilnadu,Erode,Peria Semur B.O,638004,,,,
Tamilnadu,Erode,Periapuliyur B.O,638455,,,,
Tamilnadu,Erode,Periavattam B.O,638151,,,,
Tamilnadu,Erode,Periaveerasangli B.O,638056,,,,
Tamilnadu,Erode,Periyavettuvapalayam B.O,638052,,,,
Tamilnadu,Erode,Perode B.O,638102,,,,
Tamilnadu,Erode,Perumugaipudur B.O,638505,,,,
Tamilnadu,Erode,Perundalaiyur B.O,638315,,,,
Tamilnadu,Erode,Perundur R.S. B.O,638052,,,,
Tamilnadu,Erode,Perundurai S.O,638052,,,,
Tamilnadu,Erode,Perundurai Sanitorium S.O,638053,,,,
Tamilnadu,Erode,Perundurai West S.O,638052,,,,
Tamilnadu,Erode,Pethampalayam B.O,638116,,,,
Tamilnadu,Erode,Pichandampalayam B.O,638052,,,,
Tamilnadu,Erode,Polavakalipalayam B.O,638476,,,,
Tamilnadu,Erode,Polavapalayam B.O,638458,,,,
Tamilnadu,Erode,Ponmudi B.O,638056,,,,
Tamilnadu,Erode,Pudukkaraipudur B.O,638313,,,,
Tamilnadu,Erode,Pudupalayam S.O,638476,,,,
Tamilnadu,Erode,Pudur B.O,638002,,,,
Tamilnadu,Erode,Pullappanaickenpalayam B.O,638506,,,,
Tamilnadu,Erode,Pundurai Semur B.O,638115,,,,
Tamilnadu,Erode,Pungambadi B.O,638112,,,,
Tamilnadu,Erode,Punjaipalatholuvu B.O,638751,,,,
Tamilnadu,Erode,Punjaithuraiyampalayam S.O,638512,,,,
Tamilnadu,Erode,Punnam B.O,638312,,,,
Tamilnadu,Erode,Purappalikattuvalasu B.O,638104,,,,
Tamilnadu,Erode,Ramalingapuram B.O,638051,,,,
Tamilnadu,Erode,Ramanathapuram Pudur B.O,638005,,,,
Tamilnadu,Erode,Rangampalayam B.O,638009,,,,
Tamilnadu,Erode,Rasampalayam B.O,638151,,,,
Tamilnadu,Erode,Reddipalayam B.O,638504,,,,
Tamilnadu,Erode,Sakthinagar S.O,638315,,,,
Tamilnadu,Erode,Salaipudur B.O,638151,,,,
Tamilnadu,Erode,Salangapalayam B.O,638455,,,,
Tamilnadu,Erode,Sanarpalayam B.O,638051,,,,
Tamilnadu,Erode,Sankarapalayam B.O,638501,,,,
Tamilnadu,Erode,Sanyasipatti B.O,638311,,,,
Tamilnadu,Erode,Satamugai B.O,638503,,,,
Tamilnadu,Erode,Sathyamangalam Road S.O,638003,,,,
Tamilnadu,Erode,Guruvareddiyur S.O,638504,,,,
Tamilnadu,Kanyakumari,Adaikkakuzhi,629153,,,,
Tamilnadu,Kanyakumari,Agateeswaram,629701,,,,
Tamilnadu,Kanyakumari,Alagiamandapam,629167,,,,
Tamilnadu,Kanyakumari,Alampara,629170,,,,
Tamilnadu,Kanyakumari,Alanchi,629159,,,,
Tamilnadu,Kanyakumari,Alancholai,629101,,,,
Tamilnadu,Kanyakumari,Alancode,629802,,,,
Tamilnadu,Kanyakumari,Aloor,629801,,,,
Tamilnadu,Kanyakumari,Ammandivilai,629204,,,,
Tamilnadu,Kanyakumari,Anandanadarkudy,629201,,,,
Tamilnadu,Kanyakumari,Andirapuram,629851,,,,
Tamilnadu,Kanyakumari,Anducode,629168,,,,
Tamilnadu,Kanyakumari,Anjugramam,629401,,,,
Tamilnadu,Villupuram,Kakuppam,605301,,,,
Tamilnadu,Villupuram,Koliyanur,605301,,,,
Tamilnadu,Villupuram,Panampattu,605301,,,,
Tamilnadu,Villupuram,Vandimedu,605602,,,,
Tamilnadu,Villupuram,Vazhuthareddy,605401,,,,
Tamilnadu,Tiruvannamalai,chetpet,606902,,,,
Tamilnadu,Tiruvannamalai,Arani,632317,,,,
Tamilnadu,Tiruvannamalai,Chengam,606701,,,,
Tamilnadu,Dharmapuri,Vennampatti,636701,,,,
Tamilnadu,DINDIGUL,Soolapuram B.O,639203,,,,
Tamilnadu,DINDIGUL,19 Pudur B.O,624614,,,,
Tamilnadu,DINDIGUL,A.Nadupatti B.O,624302,,,,
Tamilnadu,DINDIGUL,Achanampatti B.O,624702,,,,
Tamilnadu,DINDIGUL,Adalur B.O,624212,,,,
Tamilnadu,DINDIGUL,Adiyanuthu B.O,624003,,,,
Tamilnadu,DINDIGUL,Agaram B.O,624709,,,,
Tamilnadu,DINDIGUL,Alagapuri B.O,624710,,,,
Tamilnadu,DINDIGUL,Alamarathupatti B.O,624303,,,,
Tamilnadu,DINDIGUL,Alambadi B.O,624620,,,,
Tamilnadu,DINDIGUL,Alambadimines B.O,624703,,,,
Tamilnadu,DINDIGUL,Amarapundi B.O,624613,,,,
Tamilnadu,DINDIGUL,Ambathurai B.O,624302,,,,
Tamilnadu,DINDIGUL,Ambathurai R.S S.O,624302,,,,
Tamilnadu,DINDIGUL,Ambilikai S.O,624612,,,,
Tamilnadu,DINDIGUL,Ammapatti B.O,624206,,,,
Tamilnadu,DINDIGUL,Ammapatti B.O,624622,,,,
Tamilnadu,DINDIGUL,Ammayanaickanur S.O,624201,,,,
Tamilnadu,DINDIGUL,Anaipatti B.O,624219,,,,
Tamilnadu,DINDIGUL,Anaipatti B.O,624620,,,,
Tamilnadu,DINDIGUL,Andipatti B.O,624621,,,,
Tamilnadu,DINDIGUL,Angunagar S.O,624001,,,,
Tamilnadu,DINDIGUL,Anjukulipatti B.O,624308,,,,
Tamilnadu,DINDIGUL,Appanuthu B.O,624617,,,,
Tamilnadu,DINDIGUL,Aranmanaivalasu B.O,624616,,,,
Tamilnadu,DINDIGUL,Arasappapillaipatti B.O,624619,,,,
Tamilnadu,DINDIGUL,Athikombai B.O,624619,,,,
Tamilnadu,DINDIGUL,Attur S.O,624701,,,,
Tamilnadu,DINDIGUL,Avichipatti B.O,624401,,,,
Tamilnadu,DINDIGUL,Avilipatti B.O,624304,,,,
Tamilnadu,DINDIGUL,Ayakudi S.O,624613,,,,
Tamilnadu,DINDIGUL,Ayyalur S.O,624801,,,,
Tamilnadu,DINDIGUL,Ayyankottai B.O,624211,,,,
Tamilnadu,DINDIGUL,Balakrishnapurampudur S.O,624005,,,,
Tamilnadu,DINDIGUL,Balasamudram S.O,624610,,,,
Tamilnadu,DINDIGUL,Batlagundu Bazar S.O,624202,,,,
Tamilnadu,DINDIGUL,Batlagundu S.O,624202,,,,
Tamilnadu,DINDIGUL,Begampur S.O,624002,,,,
Tamilnadu,DINDIGUL,Bharathipuram S.O,624003,,,,
Tamilnadu,DINDIGUL,Bodikamanvadi B.O,624708,,,,
Tamilnadu,DINDIGUL,Boduvarpatti B.O,624614,,,,
Tamilnadu,DINDIGUL,Bojanampatti B.O,624802,,,,
Tamilnadu,DINDIGUL,Boothagudi B.O,624402,,,,
Tamilnadu,DINDIGUL,Chatirapatti B.O,624620,,,,
Tamilnadu,DINDIGUL,Chatrapatti S.O,624614,,,,
Tamilnadu,DINDIGUL,Chettiapatti S.O,624314,,,,
Tamilnadu,DINDIGUL,Chinnakalayamputhur B.O,624615,,,,
Tamilnadu,DINDIGUL,Chinnakkampatti B.O,624712,,,,
Tamilnadu,DINDIGUL,Chinnalapatti S.O,624301,,,,
Tamilnadu,DINDIGUL,Chinnamandavadi B.O,624612,,,,
Tamilnadu,DINDIGUL,Chittoor B.O,624702,,,,
Tamilnadu,DINDIGUL,D.Gudalur B.O,624620,,,,
Tamilnadu,DINDIGUL,Dasaripatti B.O,624614,,,,
Tamilnadu,DINDIGUL,Devarappanpatti B.O,624204,,,,
Tamilnadu,DINDIGUL,Devathur B.O,624614,,,,
Tamilnadu,DINDIGUL,Dharmathupatti S.O,624714,,,,
Tamilnadu,DINDIGUL,Dindigul Bus Stand S.O,624001,,,,
Tamilnadu,DINDIGUL,Dindigul Collectorate S.O,624004,,,,
Tamilnadu,DINDIGUL,Dindigul East S.O,624003,,,,
Tamilnadu,DINDIGUL,Dindigul Fort S.O,624001,,,,
Tamilnadu,DINDIGUL,Dindigul H.O,624001,,,,
Tamilnadu,DINDIGUL,Dindigul North S.O,624001,,,,
Tamilnadu,DINDIGUL,Dindigul Santhaipettai S.O,624003,,,,
Tamilnadu,DINDIGUL,Dindigul South S.O,624001,,,,
Tamilnadu,DINDIGUL,Emakkalapuram B.O,624304,,,,
Tamilnadu,DINDIGUL,Eriyodu S.O,624702,,,,
Tamilnadu,DINDIGUL,Erramanaickenpatti B.O,624613,,,,
Tamilnadu,DINDIGUL,Ethilodu B.O,624219,,,,
Tamilnadu,DINDIGUL,G.Thummalapatti B.O,624202,,,,
Tamilnadu,DINDIGUL,Gandhigram S.O,624302,,,,
Tamilnadu,DINDIGUL,Gurunathanaickanur B.O,624622,,,,
Tamilnadu,DINDIGUL,Guziliamparai S.O,624703,,,,
Tamilnadu,DINDIGUL,Hanumantharayankottai S.O,624054,,,,
Tamilnadu,DINDIGUL,I.Vadipatti B.O,624616,,,,
Tamilnadu,DINDIGUL,Idayakottai S.O,624704,,,,
Tamilnadu,DINDIGUL,Iyyampalayam S.O,624204,,,,
Tamilnadu,DINDIGUL,Jambudarikottai B.O,624206,,,,
Tamilnadu,DINDIGUL,Jambuliapatti B.O,624005,,,,
Tamilnadu,DINDIGUL,Javadhupatti B.O,624704,,,,
Tamilnadu,DINDIGUL,Jenankottai B.O,624710,,,,
Tamilnadu,DINDIGUL,Jogipatti B.O,624704,,,,
Tamilnadu,DINDIGUL,Jothampatti B.O,624308,,,,
Tamilnadu,DINDIGUL,K.Ayyapatti B.O,624308,,,,
Tamilnadu,DINDIGUL,K.C.Patti B.O,624212,,,,
Tamilnadu,DINDIGUL,K.Keeranur B.O,624616,,,,
Tamilnadu,DINDIGUL,K.Pudukottai B.O,624622,,,,
Tamilnadu,DINDIGUL,K.Rajathanikottai B.O,624206,,,,
Tamilnadu,DINDIGUL,K.Singarakottai B.O,624708,,,,
Tamilnadu,DINDIGUL,Kalanampatti B.O,624710,,,,
Tamilnadu,DINDIGUL,Kalanjipatti B.O,624619,,,,
Tamilnadu,DINDIGUL,Kalayamputhur S.O,624615,,,,
Tamilnadu,DINDIGUL,Kalikkampatti B.O,624303,,,,
Tamilnadu,DINDIGUL,Kallimandayam S.O,624616,,,,
Tamilnadu,DINDIGUL,Kallipatti B.O,624709,,,,
Tamilnadu,DINDIGUL,Kamanur B.O,624216,,,,
Tamilnadu,DINDIGUL,Kamatchipuram B.O,624622,,,,
Tamilnadu,DINDIGUL,Kambiliampatti B.O,624306,,,,
Tamilnadu,DINDIGUL,Kanakkanpatti B.O,624613,,,,
Tamilnadu,DINDIGUL,Kanalkadu B.O,624216,,,,
Tamilnadu,DINDIGUL,Kanapadi B.O,624802,,,,
Tamilnadu,DINDIGUL,Kanavoipatti B.O,624202,,,,
Tamilnadu,DINDIGUL,Kanavoipatti B.O,624308,,,,
Tamilnadu,DINDIGUL,Kanniapuram B.O,624308,,,,
Tamilnadu,DINDIGUL,Kannivadi S.O,624705,,,,
Tamilnadu,DINDIGUL,Kappalapatti B.O,624614,,,,
Tamilnadu,DINDIGUL,Kappiliapatti B.O,624612,,,,
Tamilnadu,DINDIGUL,Kariampatti B.O,624215,,,,
Tamilnadu,DINDIGUL,Kariampatti B.O,624616,,,,
Tamilnadu,DINDIGUL,Karikali B.O,624703,,,,
Tamilnadu,DINDIGUL,Karikaranpudur B.O,624615,,,,
Tamilnadu,DINDIGUL,Kasampatti B.O,624401,,,,
Tamilnadu,DINDIGUL,Kasavanampatti B.O,624705,,,,
Tamilnadu,DINDIGUL,Kasipalayam S.O,624711,,,,
Tamilnadu,DINDIGUL,Kattakamanpatti B.O,624202,,,,
Tamilnadu,DINDIGUL,Kattakoothanpatti B.O,624215,,,,
Tamilnadu,DINDIGUL,Kattupatti B.O,624306,,,,
Tamilnadu,DINDIGUL,Kavalapatti B.O,624621,,,,
Tamilnadu,DINDIGUL,Kaveriammapatti B.O,624619,,,,
Tamilnadu,DINDIGUL,Kaviakadu B.O,624212,,,,
Tamilnadu,DINDIGUL,Kavunji B.O,624103,,,,
Tamilnadu,DINDIGUL,Kazhutharukkipalayam B.O,624616,,,,
Tamilnadu,DINDIGUL,Keeranur(MA) S.O,624617,,,,
Tamilnadu,DINDIGUL,Kethaiyarumbu B.O,624619,,,,
Tamilnadu,DINDIGUL,Kilanavayal B.O,624103,,,,
Tamilnadu,DINDIGUL,Kilavarai B.O,624103,,,,
Tamilnadu,DINDIGUL,Kodagipatti B.O,624403,,,,
Tamilnadu,DINDIGUL,Kodaikanal Observatory S.O,624103,,,,
Tamilnadu,DINDIGUL,Kodaikanal S.O,624101,,,,
Tamilnadu,DINDIGUL,Kodaimangalam B.O,624618,,,,
Tamilnadu,DINDIGUL,Kodairoad R.S. S.O,624206,,,,
Tamilnadu,DINDIGUL,Kodalangadu B.O,624216,,,,
Tamilnadu,DINDIGUL,Kodanginaickenpatti B.O,624215,,,,
Tamilnadu,DINDIGUL,Kodangipatti B.O,624710,,,,
Tamilnadu,DINDIGUL,Kolinjipatti B.O,624304,,,,
Tamilnadu,DINDIGUL,Kollapatti B.O,624619,,,,
Tamilnadu,DINDIGUL,Kollapatti B.O,624801,,,,
Tamilnadu,DINDIGUL,Komberipatti B.O,624801,,,,
Tamilnadu,DINDIGUL,Konapatti B.O,624304,,,,
Tamilnadu,DINDIGUL,Konur B.O,624705,,,,
Tamilnadu,DINDIGUL,Kookal B.O,624103,,,,
Tamilnadu,DINDIGUL,Koovakkapatti B.O,624710,,,,
Tamilnadu,DINDIGUL,Koovanuthu B.O,624003,,,,
Tamilnadu,DINDIGUL,Kosavapatti B.O,624304,,,,
Tamilnadu,DINDIGUL,Kosikurichi B.O,624401,,,,
Tamilnadu,DINDIGUL,Kothayam B.O,624614,,,,
Tamilnadu,DINDIGUL,Kottaipatti B.O,624403,,,,
Tamilnadu,DINDIGUL,Kottaiyur B.O,624402,,,,
Tamilnadu,DINDIGUL,Kottanatham B.O,624620,,,,
Tamilnadu,DINDIGUL,Kottapatti B.O,624002,,,,
Tamilnadu,DINDIGUL,Kottathurai B.O,624617,,,,
Tamilnadu,DINDIGUL,Kottur B.O,624215,,,,
Tamilnadu,DINDIGUL,Kovilammapatti B.O,624618,,,,
Tamilnadu,DINDIGUL,Kovilur B.O,624005,,,,
Tamilnadu,DINDIGUL,Kovilur S.O,624706,,,,
Tamilnadu,DINDIGUL,Kulathupatti B.O,624706,,,,
Tamilnadu,DINDIGUL,Kulathur B.O,624005,,,,
Tamilnadu,DINDIGUL,Kullichettipatti B.O,624219,,,,
Tamilnadu,DINDIGUL,Kumbaraiyur B.O,624202,,,,
Tamilnadu,DINDIGUL,Kumbur B.O,624103,,,,
Tamilnadu,DINDIGUL,Kumbur B.O,624710,,,,
Tamilnadu,DINDIGUL,Kunnuvarankottai B.O,624220,,,,
Tamilnadu,DINDIGUL,Kuppammalpatti B.O,624212,,,,
Tamilnadu,DINDIGUL,Kusavapatti B.O,624802,,,,
Tamilnadu,DINDIGUL,Kuthiluppai B.O,624712,,,,
Tamilnadu,DINDIGUL,Kuttampundi B.O,624616,,,,
Tamilnadu,DINDIGUL,Kuttathupatti B.O,624002,,,,
Tamilnadu,DINDIGUL,Kuttupatti B.O,624401,,,,
Tamilnadu,DINDIGUL,Kuzhipatti B.O,624202,,,,
Tamilnadu,DINDIGUL,Landakottai B.O,624620,,,,
Tamilnadu,DINDIGUL,Lingavadi B.O,624401,,,,
Tamilnadu,DINDIGUL,M.N.Patti B.O,624002,,,,
Tamilnadu,DINDIGUL,M.Vadipatti B.O,624211,,,,
Tamilnadu,DINDIGUL,Ma.Athappanpatti B.O,624712,,,,
Tamilnadu,DINDIGUL,Madur B.O,624306,,,,
Tamilnadu,DINDIGUL,Mallanampatti B.O,624202,,,,
Tamilnadu,DINDIGUL,Mallapuram B.O,624703,,,,
Tamilnadu,DINDIGUL,Mallayapuram B.O,624707,,,,
Tamilnadu,DINDIGUL,Malvarpatti B.O,624709,,,,
Tamilnadu,DINDIGUL,Manakkattur B.O,624403,,,,
Tamilnadu,DINDIGUL,Mandavadi B.O,624612,,,,
Tamilnadu,DINDIGUL,Mangarai B.O,624622,,,,
Tamilnadu,DINDIGUL,Manjalpirappu B.O,624212,,,,
Tamilnadu,DINDIGUL,Manjanaickenpatti B.O,624614,,,,
Tamilnadu,DINDIGUL,Mannavanur B.O,624103,,,,
Tamilnadu,DINDIGUL,Manur B.O,624618,,,,
Tamilnadu,DINDIGUL,Marambadi B.O,624709,,,,
Tamilnadu,DINDIGUL,Marichilambu B.O,624613,,,,
Tamilnadu,DINDIGUL,Markampatti B.O,624306,,,,
Tamilnadu,DINDIGUL,Markkampatti S.O,624712,,,,
Tamilnadu,DINDIGUL,Marunoothu B.O,624304,,,,
Tamilnadu,DINDIGUL,Maruthanathi-project B.O,624204,,,,
Tamilnadu,DINDIGUL,Melkaraipatti B.O,624617,,,,
Tamilnadu,DINDIGUL,Mengles Road S.O,624001,,,,
Tamilnadu,DINDIGUL,Mettupatti B.O,624002,,,,
Tamilnadu,DINDIGUL,Mettupatti B.O,624616,,,,
Tamilnadu,DINDIGUL,Metturgate B.O,624206,,,,
Tamilnadu,DINDIGUL,Micheal Palayam B.O,624215,,,,
Tamilnadu,DINDIGUL,Moolaiyar B.O,624210,,,,
Tamilnadu,DINDIGUL,Moongilpatti B.O,624402,,,,
Tamilnadu,DINDIGUL,Morepatti B.O,624802,,,,
Tamilnadu,DINDIGUL,Mottanampatti B.O,624802,,,,
Tamilnadu,DINDIGUL,Mulaiyur B.O,624401,,,,
Tamilnadu,DINDIGUL,Mullipadi B.O,624005,,,,
Tamilnadu,DINDIGUL,Munnilakottai B.O,624303,,,,
Tamilnadu,DINDIGUL,Murunellikottai B.O,624710,,,,
Tamilnadu,DINDIGUL,Musuvanuthu B.O,624219,,,,
Tamilnadu,DINDIGUL,Muthalagupatti B.O,624002,,,,
Tamilnadu,DINDIGUL,Muthanampattipudur B.O,624622,,,,
Tamilnadu,DINDIGUL,Muthunaickenpatti B.O,624618,,,,
Tamilnadu,DINDIGUL,N.G.O.Colony S.O,624001,,,,
Tamilnadu,DINDIGUL,N.Panjampatti S.O,624303,,,,
Tamilnadu,DINDIGUL,N.Paraipatti B.O,624005,,,,
Tamilnadu,DINDIGUL,N.Pudupatti B.O,624401,,,,
Tamilnadu,DINDIGUL,Nadakottai B.O,624220,,,,
Tamilnadu,DINDIGUL,Nadumandalam B.O,624401,,,,
Tamilnadu,DINDIGUL,Nadupatti B.O,624212,,,,
Tamilnadu,DINDIGUL,Naduvanur B.O,624401,,,,
Tamilnadu,DINDIGUL,Nagalnagar S.O,624003,,,,
Tamilnadu,DINDIGUL,Nagayakottai B.O,624706,,,,
Tamilnadu,DINDIGUL,Nallamanaickenpatti B.O,624003,,,,
Tamilnadu,DINDIGUL,Nallamanarkottai B.O,624005,,,,
Tamilnadu,DINDIGUL,Nallurkadu B.O,624212,,,,
Tamilnadu,DINDIGUL,Nalupulikottai B.O,624619,,,,
Tamilnadu,DINDIGUL,Narasingapuram B.O,624307,,,,
Tamilnadu,DINDIGUL,Narikalpatti S.O,624618,,,,
Tamilnadu,DINDIGUL,Nariyuthu B.O,624215,,,,
Tamilnadu,DINDIGUL,Natham East S.O,624401,,,,
Tamilnadu,DINDIGUL,Natham Koilpatti S.O,624401,,,,
Tamilnadu,DINDIGUL,Natham S.O,624401,,,,
Tamilnadu,DINDIGUL,Nathambazar B.O,624401,,,,
Tamilnadu,DINDIGUL,Nathapatti B.O,624710,,,,
Tamilnadu,DINDIGUL,Naduvanur B.O,624401,,,,
Tamilnadu,DINDIGUL,Nagalnagar S.O,624003,,,,
Tamilnadu,DINDIGUL,Nagayakottai B.O,624706,,,,
Tamilnadu,DINDIGUL,Nallamanaickenpatti B.O,624003,,,,
Tamilnadu,DINDIGUL,Nallamanarkottai B.O,624005,,,,
Tamilnadu,DINDIGUL,Nallurkadu B.O,624212,,,,
Tamilnadu,DINDIGUL,Nalupulikottai B.O,624619,,,,
Tamilnadu,DINDIGUL,Narasingapuram B.O,624307,,,,
Tamilnadu,DINDIGUL,Narikalpatti S.O,624618,,,,
Tamilnadu,DINDIGUL,Nariyuthu B.O,624215,,,,
Tamilnadu,DINDIGUL,Natham East S.O,624401,,,,
Tamilnadu,DINDIGUL,Natham Koilpatti S.O,624401,,,,
Tamilnadu,DINDIGUL,Natham S.O,624401,,,,
Tamilnadu,DINDIGUL,Nathambazar B.O,624401,,,,
Tamilnadu,DINDIGUL,Nathapatti B.O,624710,,,,
Tamilnadu,DINDIGUL,Neelamalaikottai B.O,624619,,,,
Tamilnadu,DINDIGUL,Neikkarapatti B.O,624615,,,,
Tamilnadu,DINDIGUL,Nellur B.O,624204,,,,
Tamilnadu,DINDIGUL,Nilakottai H.O,624208,,,,
Tamilnadu,DINDIGUL,Nuthalapuram B.O,624202,,,,
Tamilnadu,DINDIGUL,Odaipatti B.O,624612,,,,
Tamilnadu,DINDIGUL,Oddanchatram North S.O,624619,,,,
Tamilnadu,DINDIGUL,Oddanchatram S.O,624619,,,,
Tamilnadu,DINDIGUL,Old Batlagundu B.O,624202,,,,
Tamilnadu,DINDIGUL,Old Oddanchatram B.O,624619,,,,
Tamilnadu,DINDIGUL,Oruthattu B.O,624206,,,,
Tamilnadu,DINDIGUL,Ottupatti B.O,624708,,,,
Tamilnadu,DINDIGUL,Pachalur B.O,624212,,,,
Tamilnadu,DINDIGUL,Pachamalayankottai B.O,624707,,,,
Tamilnadu,DINDIGUL,Padiyur B.O,624005,,,,
Tamilnadu,DINDIGUL,Paganattam B.O,624702,,,,
Tamilnadu,DINDIGUL,Palakkanuthu S.O,624624,,,,
Tamilnadu,DINDIGUL,Palani Bazaar S.O,624601,,,,
Tamilnadu,DINDIGUL,Palani Devastanam S.O,624601,,,,
Tamilnadu,DINDIGUL,Palani East S.O,624601,,,,
Tamilnadu,DINDIGUL,Palani H.O,624601,,,,
Tamilnadu,DINDIGUL,Palani North S.O,624601,,,,
Tamilnadu,DINDIGUL,Palani R.S S.O,624601,,,,
Tamilnadu,DINDIGUL,Palani West S.O,624601,,,,
Tamilnadu,DINDIGUL,Palappanpatti B.O,624616,,,,
Tamilnadu,DINDIGUL,Palarparundalar Dam B.O,624610,,,,
Tamilnadu,DINDIGUL,Palayakannivadi B.O,624705,,,,
Tamilnadu,DINDIGUL,Palayam S.O,624620,,,,
Tamilnadu,DINDIGUL,Palayankottai B.O,624708,,,,
Tamilnadu,DINDIGUL,Pallapatti B.O,624002,,,,
Tamilnadu,DINDIGUL,Pallathukalvai B.O,624212,,,,
Tamilnadu,DINDIGUL,Pambarpuram S.O,624101,,,,
Tamilnadu,DINDIGUL,Pandianagar S.O,624001,,,,
Tamilnadu,DINDIGUL,Pandithakaranur B.O,624620,,,,
Tamilnadu,DINDIGUL,Pandrimalai B.O,624212,,,,
Tamilnadu,DINDIGUL,Pannaikadu S.O,624210,,,,
Tamilnadu,DINDIGUL,Pannaipatti B.O,624705,,,,
Tamilnadu,DINDIGUL,Pappampatti S.O,624621,,,,
Tamilnadu,DINDIGUL,Pappanampatti B.O,624622,,,,
Tamilnadu,DINDIGUL,Paraipatti B.O,624707,,,,
Tamilnadu,DINDIGUL,Paruthiyur B.O,624616,,,,
Tamilnadu,DINDIGUL,Pattiveeranpatti S.O,624211,,,,
Tamilnadu,DINDIGUL,Pazhamputhur B.O,624103,,,,
Tamilnadu,DINDIGUL,Periakuzhipatti B.O,624704,,,,
Tamilnadu,DINDIGUL,Perichipalayam B.O,624617,,,,
Tamilnadu,DINDIGUL,Periyakalayamputhur B.O,624615,,,,
Tamilnadu,DINDIGUL,Periyakottai B.O,624306,,,,
Tamilnadu,DINDIGUL,Periyakottai B.O,624614,,,,
Tamilnadu,DINDIGUL,Periyamottanuthu B.O,624618,,,,
Tamilnadu,DINDIGUL,Periyur B.O,624212,,,,
Tamilnadu,DINDIGUL,Perumalkoilpatti B.O,624302,,,,
Tamilnadu,DINDIGUL,Perumalnaickenvalasu B.O,624614,,,,
Tamilnadu,DINDIGUL,Perumalpudur B.O,624615,,,,
Tamilnadu,DINDIGUL,Perumbarai S.O,624212,,,,
Tamilnadu,DINDIGUL,Pethanaickenpatti B.O,624615,,,,
Tamilnadu,DINDIGUL,Pilathu B.O,624802,,,,
Tamilnadu,DINDIGUL,Pillamanaickenpatti B.O,624706,,,,
Tamilnadu,DINDIGUL,Pillayarnatham B.O,624219,,,,
Tamilnadu,DINDIGUL,Pillayarnatham B.O,624403,,,,
Tamilnadu,DINDIGUL,Pithalaipatti B.O,624002,,,,
Tamilnadu,DINDIGUL,Polur B.O,624103,,,,
Tamilnadu,DINDIGUL,Ponnimandurai B.O,624002,,,,
Tamilnadu,DINDIGUL,Poolampati B.O,624613,,,,
Tamilnadu,DINDIGUL,Poombarai B.O,624103,,,,
Tamilnadu,DINDIGUL,Poosaripatti B.O,624202,,,,
Tamilnadu,DINDIGUL,Poothampatti B.O,624702,,,,
Tamilnadu,DINDIGUL,Porulur B.O,624616,,,,
Tamilnadu,DINDIGUL,Puduchatram B.O,624619,,,,
Tamilnadu,DINDIGUL,Pudur(NTM) B.O,624401,,,,
Tamilnadu,DINDIGUL,Pudurchettiapatti B.O,624710,,,,
Tamilnadu,DINDIGUL,Pulathur B.O,624202,,,,
Tamilnadu,DINDIGUL,Puliamarathukottai B.O,624710,,,,
Tamilnadu,DINDIGUL,Puliampatti B.O,624617,,,,
Tamilnadu,DINDIGUL,Puliyurnatham B.O,624704,,,,
Tamilnadu,DINDIGUL,Pundi B.O,624103,,,,
Tamilnadu,DINDIGUL,Punnapatti B.O,624401,,,,
Tamilnadu,DINDIGUL,Pushpathur B.O,624618,,,,
Tamilnadu,DINDIGUL,Puthuputhur B.O,624103,,,,
Tamilnadu,DINDIGUL,Puthur B.O,624801,,,,
Tamilnadu,DINDIGUL,R.Iyyampalayam B.O,624621,,,,
Tamilnadu,DINDIGUL,R.Kombai B.O,624706,,,,
Tamilnadu,DINDIGUL,R.Pudukottai B.O,624706,,,,
Tamilnadu,DINDIGUL,R.Vellodu B.O,624620,,,,
Tamilnadu,DINDIGUL,Ragalapuram B.O,624304,,,,
Tamilnadu,DINDIGUL,Rajakkapatti S.O,624316,,,,
Tamilnadu,DINDIGUL,Rajampatti B.O,624617,,,,
Tamilnadu,DINDIGUL,Rajathanikottai B.O,624220,,,,
Tamilnadu,DINDIGUL,Ramagiri B.O,624703,,,,
Tamilnadu,DINDIGUL,Ramarajapuram S.O,624213,,,,
Tamilnadu,DINDIGUL,Reddiapatti B.O,624003,,,,
Tamilnadu,DINDIGUL,Reddiapatti B.O,624202,,,,
Tamilnadu,DINDIGUL,Reddiapatti B.O,624401,,,,
Tamilnadu,DINDIGUL,Reddiarchatram S.O,624622,,,,
Tamilnadu,DINDIGUL,S.R.G.Pudur B.O,624619,,,,
Tamilnadu,DINDIGUL,S.Vadipatti B.O,624622,,,,
Tamilnadu,DINDIGUL,Sadayampatti B.O,624306,,,,
Tamilnadu,DINDIGUL,Sakkampatti B.O,624612,,,,
Tamilnadu,DINDIGUL,Sakkiliankodai B.O,624308,,,,
Tamilnadu,DINDIGUL,Samiyarpatti S.O,624312,,,,
Tamilnadu,DINDIGUL,Samudrapatti S.O,624402,,,,
Tamilnadu,DINDIGUL,Sanarpatti S.O,624304,,,,
Tamilnadu,DINDIGUL,Sandaiyur B.O,624220,,,,
Tamilnadu,DINDIGUL,Sangalpatty B.O,624215,,,,
Tamilnadu,DINDIGUL,Sangampalayam B.O,624617,,,,
Tamilnadu,DINDIGUL,Sangareddikottai B.O,624211,,,,
Tamilnadu,DINDIGUL,Sankarapuram B.O,624215,,,,
Tamilnadu,DINDIGUL,Sathampadi B.O,624401,,,,
Tamilnadu,DINDIGUL,Sedapatti B.O,624708,,,,
Tamilnadu,DINDIGUL,Sellamanthadi B.O,624005,,,,
Tamilnadu,DINDIGUL,Sembatti S.O,624707,,,,
Tamilnadu,DINDIGUL,Sendurai S.O,624403,,,,
Tamilnadu,DINDIGUL,Sengurichi B.O,624306,,,,
Tamilnadu,DINDIGUL,Senkattampatti B.O,624708,,,,
Tamilnadu,DINDIGUL,Sennamanaickenpatti B.O,624004,,,,
Tamilnadu,DINDIGUL,Servaikaranpatti B.O,624620,,,,
Tamilnadu,DINDIGUL,Sethur B.O,624401,,,,
Tamilnadu,DINDIGUL,Settinaickenpatti B.O,624004,,,,
Tamilnadu,DINDIGUL,Sevugampatti B.O,624211,,,,
Tamilnadu,DINDIGUL,Silaipadi B.O,624005,,,,
Tamilnadu,DINDIGUL,Silukkuvarpatti S.O,624215,,,,
Tamilnadu,DINDIGUL,Siluvathur S.O,624306,,,,
Tamilnadu,DINDIGUL,Silvarpatti B.O,624709,,,,
Tamilnadu,DINDIGUL,Sindalagundu B.O,624002,,,,
Tamilnadu,DINDIGUL,Singarakottai.V. B.O,624802,,,,
Tamilnadu,DINDIGUL,Sirugudi S.O,624404,,,,
Tamilnadu,DINDIGUL,Sirumalai B.O,624003,,,,
Tamilnadu,DINDIGUL,Sirumalaipudur B.O,624003,,,,
Tamilnadu,DINDIGUL,Sirunaickenpatti B.O,624219,,,,
Tamilnadu,DINDIGUL,Sirunaickenpatti B.O,624307,,,,
Tamilnadu,DINDIGUL,Sitharevu S.O,624228,,,,
Tamilnadu,DINDIGUL,Sithargalnatham B.O,624219,,,,
Tamilnadu,DINDIGUL,Sithayankottai S.O,624708,,,,
Tamilnadu,DINDIGUL,Sithuvarpatti B.O,624801,,,,
Tamilnadu,DINDIGUL,Solaikadu B.O,624212,,,,
Tamilnadu,DINDIGUL,Sreerankattupatti B.O,624401,,,,
Tamilnadu,DINDIGUL,Sriramapuram B.O,624622,,,,
Tamilnadu,DINDIGUL,Sriramapuram B.O,624702,,,,
Tamilnadu,DINDIGUL,St.Marys Estate B.O,624212,,,,
Tamilnadu,DINDIGUL,Sukkampatti B.O,624709,,,,
Tamilnadu,DINDIGUL,Sukkampatti B.O,624801,,,,
Tamilnadu,DINDIGUL,Sullerumbu B.O,624710,,,,
Tamilnadu,DINDIGUL,T.Panjampatti B.O,624304,,,,
Tamilnadu,DINDIGUL,T.Pudupatti B.O,624705,,,,
Tamilnadu,DINDIGUL,T.Vadugapatti B.O,624308,,,,
Tamilnadu,DINDIGUL,Tadicombu S.O,624709,,,,
Tamilnadu,DINDIGUL,Tandigudi S.O,624216,,,,
Tamilnadu,DINDIGUL,Teppakulathupatti B.O,624709,,,,
Tamilnadu,DINDIGUL,Thalaiyuthu B.O,624618,,,,
Tamilnadu,DINDIGUL,Thamaraikulam B.O,624615,,,,
Tamilnadu,DINDIGUL,Thamaraipadi B.O,624005,,,,
Tamilnadu,DINDIGUL,Thangachiammapatti B.O,624612,,,,
Tamilnadu,DINDIGUL,Thathanaickenpatti B.O,624621,,,,
Tamilnadu,DINDIGUL,Thattarapatti B.O,624710,,,,
Tamilnadu,DINDIGUL,Thavasimadai B.O,624304,,,,
Tamilnadu,DINDIGUL,Thazhakadai B.O,624003,,,,
Tamilnadu,DINDIGUL,Theethagoundenvalasu B.O,624616,,,,
Tamilnadu,DINDIGUL,Thennampatti B.O,624802,,,,
Tamilnadu,DINDIGUL,Theppathupatti B.O,624220,,,,
Tamilnadu,DINDIGUL,Thettupatti B.O,624705,,,,
Tamilnadu,DINDIGUL,Thimmanallur B.O,624308,,,,
Tamilnadu,DINDIGUL,Thonimalai B.O,624212,,,,
Tamilnadu,DINDIGUL,Thoppampatti B.O,624617,,,,
Tamilnadu,DINDIGUL,Thottanampatti B.O,624005,,,,
Tamilnadu,DINDIGUL,Thottanuthu B.O,624005,,,,
Tamilnadu,DINDIGUL,Thozhipatti B.O,624703,,,,
Tamilnadu,DINDIGUL,Thummalagundu B.O,624802,,,,
Tamilnadu,DINDIGUL,Thummalapatti B.O,624617,,,,
Tamilnadu,DINDIGUL,Tirukoornam B.O,624620,,,,
Tamilnadu,DINDIGUL,Tirumalaigoundenvalasu B.O,624616,,,,
Tamilnadu,DINDIGUL,Ulliyakottai B.O,624703,,,,
Tamilnadu,DINDIGUL,Undarpatti B.O,624709,,,,
Tamilnadu,DINDIGUL,Uralipatti B.O,624402,,,,
Tamilnadu,DINDIGUL,Usilampatti B.O,624706,,,,
Tamilnadu,DINDIGUL,Uthupatti B.O,624206,,,,
Tamilnadu,DINDIGUL,V.S.K.Kurumbapatti B.O,624306,,,,
Tamilnadu,DINDIGUL,Vadagadu B.O,624619,,,,
Tamilnadu,DINDIGUL,Vadakattupudur B.O,624304,,,,
Tamilnadu,DINDIGUL,Vadamadurai S.O,624802,,,,
Tamilnadu,DINDIGUL,Vadugampadi B.O,624706,,,,
Tamilnadu,DINDIGUL,Vagarai B.O,624613,,,,
Tamilnadu,DINDIGUL,Vaithilathoppampatti B.O,624306,,,,
Tamilnadu,DINDIGUL,Vakkampatti B.O,624303,,,,
Tamilnadu,DINDIGUL,Valayapatti B.O,624704,,,,
Tamilnadu,DINDIGUL,Vallipatti B.O,624710,,,,
Tamilnadu,DINDIGUL,Vanikarai B.O,624710,,,,
Tamilnadu,DINDIGUL,Vannampatti B.O,624707,,,,
Tamilnadu,DINDIGUL,Varthamanathi Dam Project B.O,624613,,,,
Tamilnadu,DINDIGUL,Vathipatti B.O,624401,,,,
Tamilnadu,DINDIGUL,Vedasandur S.O,624710,,,,
Tamilnadu,DINDIGUL,Veerakkal B.O,624303,,,,
Tamilnadu,DINDIGUL,Veeralapatti B.O,624614,,,,
Tamilnadu,DINDIGUL,Veerasinnnampatti B.O,624304,,,,
Tamilnadu,DINDIGUL,Velampatti B.O,624401,,,,
Tamilnadu,DINDIGUL,Velampatti B.O,624617,,,,
Tamilnadu,DINDIGUL,Vellodu S.O,624307,,,,
Tamilnadu,DINDIGUL,Velvarkottai S.O,624803,,,,
Tamilnadu,DINDIGUL,Vembarpatti S.O,624308,,,,
Tamilnadu,DINDIGUL,Vengalapatti B.O,624212,,,,
Tamilnadu,DINDIGUL,Venkatasrikottai B.O,624202,,,,
Tamilnadu,DINDIGUL,Veriyappur B.O,624619,,,,
Tamilnadu,DINDIGUL,Vilampatti S.O,624219,,,,
Tamilnadu,DINDIGUL,Viralimayanpatti B.O,624220,,,,
Tamilnadu,DINDIGUL,Viralipatti B.O,624202,,,,
Tamilnadu,DINDIGUL,Viralipatti B.O,624709,,,,
Tamilnadu,DINDIGUL,Virupatchi B.O,624614,,,,
Tamilnadu,DINDIGUL,Viruveedu S.O,624220,,,,
Tamilnadu,DINDIGUL,Yeluvanampatti B.O,624202,,,,
Tamilnadu,DINDIGUL,Adukkam B.O,624101,,,,
Tamilnadu,DINDIGUL,Attuvampatti B.O,624101,,,,
Tamilnadu,DINDIGUL,Kumburvayal B.O,624101,,,,
Tamilnadu,DINDIGUL,Machur B.O,624101,,,,
Tamilnadu,DINDIGUL,Melpallam B.O,624101,,,,
Tamilnadu,DINDIGUL,Naidupuram B.O,624101,,,,
Tamilnadu,DINDIGUL,Palamalai B.O,624101,,,,
Tamilnadu,DINDIGUL,Pallangi B.O,624101,,,,
Tamilnadu,DINDIGUL,Perumalmalai B.O,624101,,,,
Tamilnadu,DINDIGUL,Perumpallam B.O,624101,,,,
Tamilnadu,DINDIGUL,Prakasapuram B.O,624101,,,,
Tamilnadu,DINDIGUL,Shenbaganur B.O,624101,,,,
Tamilnadu,DINDIGUL,Srinivasapuram B.O,624101,,,,
Tamilnadu,DINDIGUL,Vadagounji B.O,624101,,,,
Tamilnadu,DINDIGUL,Vellagavi B.O,624101,,,,
Tamilnadu,DINDIGUL,Vilpatti B.O,624101,,,,
Tamilnadu,DINDIGUL,Kalladipatti B.O,624201,,,,
Tamilnadu,DINDIGUL,Kullalagundu B.O,624201,,,,
Tamilnadu,DINDIGUL,Malayagondanpatti B.O,624201,,,,
Tamilnadu,DINDIGUL,Pallapatti B.O,624201,,,,
Tamilnadu,DINDIGUL,Devinaickenpatti B.O,624711,,,,
Tamilnadu,DINDIGUL,Kalvarpatti B.O,624711,,,,
Tamilnadu,DINDIGUL,Kuttam B.O,624711,,,,
Tamilnadu,DINDIGUL,Minukampatti B.O,624711,,,,
Tamilnadu,DINDIGUL,Poonuthu B.O,624711,,,,
Tamilnadu,DINDIGUL,Viruthalaipatti B.O,624711,,,,
Tamilnadu,Dharmapuri,A.Gollahalli ,636704,,,,
Tamilnadu,Dharmapuri,A.Jettihalli ,636807,,,,
Tamilnadu,Dharmapuri,A.Pallipatti ,636905,,,,
Tamilnadu,Dharmapuri,A.Sappanipatti ,635205,,,,
Tamilnadu,Dharmapuri,Achalvadi ,636903,,,,
Tamilnadu,Dharmapuri,Adagapadi ,636803,,,,
Tamilnadu,Dharmapuri,Adikarapatti ,636905,,,,
Tamilnadu,Dharmapuri,Adiyamankottai ,636807,,,,
Tamilnadu,Dharmapuri,Agraharam ,636903,,,,
Tamilnadu,Dharmapuri,Ajjanahalli ,636810,,,,
Tamilnadu,Dharmapuri,Akkamanahalli ,636704,,,,
Tamilnadu,Dharmapuri,Alamelupuram ,636905,,,,
Tamilnadu,Dharmapuri,Alapuram ,636904,,,,
Tamilnadu,Dharmapuri,Ammampalayam ,636114,,,,
Tamilnadu,Dharmapuri,Ammanimallapuram ,636801,,,,
Tamilnadu,Dharmapuri,Andiyur ,636906,,,,
Tamilnadu,Dharmapuri,Anjehalli ,636813,,,,
Tamilnadu,Dharmapuri,Annasagaram ,636704,,,,
Tamilnadu,Dharmapuri,Arakasanahalli ,636811,,,,
Tamilnadu,Dharmapuri,Arasampatti ,635201,,,,
Tamilnadu,Dharmapuri,Attornahalli ,636805,,,,
Tamilnadu,Dharmapuri,Badrahalli ,636810,,,,
Tamilnadu,Dharmapuri,Bairnaickenpatti ,636906,,,,
Tamilnadu,Dharmapuri,Bairnatham ,636905,,,,
Tamilnadu,Dharmapuri,Baisuhalli ,635205,,,,
Tamilnadu,Dharmapuri,Balajangamanahalli ,636807,,,,
Tamilnadu,Dharmapuri,Barur ,635201,,,,
Tamilnadu,Dharmapuri,Batchapet ,636903,,,,
Tamilnadu,Dharmapuri,Bedrahalli ,636803,,,,
Tamilnadu,Dharmapuri,Begarahalli ,636808,,,,
Tamilnadu,Dharmapuri,Belarahalli ,636808,,,,
Tamilnadu,Dharmapuri,Bendrahalli ,635201,,,,
Tamilnadu,Dharmapuri,Bettamugulalam ,636806,,,,
Tamilnadu,Dharmapuri,Bikkampatti ,636813,,,,
Tamilnadu,Dharmapuri,Biliyanur Agraharam ,636813,,,,
Tamilnadu,Dharmapuri,Bommanur ,636805,,,,
Tamilnadu,Dharmapuri,Bommidi ,635301,,,,
Tamilnadu,Dharmapuri,Boodanahalli ,636804,,,,
Tamilnadu,Dharmapuri,Buddireddipatti ,635302,,,,
Tamilnadu,Dharmapuri,Chellampatti ,636903,,,,
Tamilnadu,Dharmapuri,Chetthalli ,636809,,,,
Tamilnadu,Dharmapuri,Chikkadornabetta ,636806,,,,
Tamilnadu,Dharmapuri,Chinnampalli ,636811,,,,
Tamilnadu,Dharmapuri,Chinnankuppam ,636903,,,,
Tamilnadu,Dharmapuri,Chintalpadi ,635302,,,,
Tamilnadu,Dharmapuri,D Thurinjipatti ,635202,,,,
Tamilnadu,Dharmapuri,Dalavaihalli ,636803,,,,
Tamilnadu,Dharmapuri,Dandukaranahalli ,636808,,,,
Tamilnadu,Dharmapuri,Dasarahalli ,635305,,,,
Tamilnadu,Dharmapuri,Dharmapuri Collectorate ,636705,,,,
Tamilnadu,Dharmapuri,Dharmapuri Fort ,636701,,,,
Tamilnadu,Dharmapuri,Dharmapuri H.O,636701,,,,
Tamilnadu,Dharmapuri,Dharmapuri Pub. Offices ,636701,,,,
Tamilnadu,Dharmapuri,Dharmapuri R.S ,636701,,,,
Tamilnadu,Dharmapuri,Dharmapuri South ,636701,,,,
Tamilnadu,Dharmapuri,Dinnabelur ,636810,,,,
Tamilnadu,Dharmapuri,Doddampatti ,636903,,,,
Tamilnadu,Dharmapuri,Dokkubothanahalli ,636807,,,,
Tamilnadu,Dharmapuri,Donnakuttahalli ,636810,,,,
Tamilnadu,Dharmapuri,Eachambadi ,636902,,,,
Tamilnadu,Dharmapuri,Elagiri ,636807,,,,
Tamilnadu,Dharmapuri,Elavadai ,635305,,,,
Tamilnadu,Dharmapuri,Ellapudayampatti ,636903,,,,
Tamilnadu,Dharmapuri,Erranahalli ,636808,,,,
Tamilnadu,Dharmapuri,Errapayanahalli ,636813,,,,
Tamilnadu,Dharmapuri,Erupalli ,636813,,,,
Tamilnadu,Dharmapuri,Esalpatti ,636807,,,,
Tamilnadu,Dharmapuri,Gendenahalli ,636811,,,,
Tamilnadu,Dharmapuri,Gendiganahalli ,635205,,,,
Tamilnadu,Dharmapuri,Giddanahalli ,636809,,,,
Tamilnadu,Dharmapuri,Gobichettipalayam ,635305,,,,
Tamilnadu,Dharmapuri,Gobinathampatti ,635305,,,,
Tamilnadu,Dharmapuri,Gudalur ,636906,,,,
Tamilnadu,Dharmapuri,Gujjarahalli ,636806,,,,
Tamilnadu,Dharmapuri,Hale Dharmapuri ,636701,,,,
Tamilnadu,Dharmapuri,Hanumanthapuram ,636802,,,,
Tamilnadu,Dharmapuri,Hanumantheertham ,636902,,,,
Tamilnadu,Dharmapuri,Harur ,636903,,,,
Tamilnadu,Dharmapuri,Harur Bazaar ,636903,,,,
Tamilnadu,Dharmapuri,Hogenakkal ,636810,,,,
Tamilnadu,Dharmapuri,Ichambadi ,635202,,,,
Tamilnadu,Dharmapuri,Ichampatti ,636807,,,,
Tamilnadu,Dharmapuri,Indur ,636803,,,,
Tamilnadu,Dharmapuri,Irumathur ,635201,,,,
Tamilnadu,Dharmapuri,Ittiampatti ,636903,,,,
Tamilnadu,Dharmapuri,Ittiampatti ,636903,,,,
Tamilnadu,Dharmapuri,Jakkasamudram ,636805,,,,
Tamilnadu,Dharmapuri,Jakkupatti ,635202,,,,
Tamilnadu,Dharmapuri,Jammanahalli ,636904,,,,
Tamilnadu,Dharmapuri,Jertalav ,636808,,,,
Tamilnadu,Dharmapuri,Jingalkathirampatti ,635201,,,,
Tamilnadu,Dharmapuri,Jittandahalli ,636805,,,,
Tamilnadu,Dharmapuri,K.Vetrapatti ,636902,,,,
Tamilnadu,Dharmapuri,Kadagathur ,636809,,,,
Tamilnadu,Dharmapuri,Kadathur ,635303,,,,
Tamilnadu,Dharmapuri,Kalappambadi ,636811,,,,
Tamilnadu,Dharmapuri,Kalasapadi ,636903,,,,
Tamilnadu,Dharmapuri,Kalipettai ,636905,,,,
Tamilnadu,Dharmapuri,Kambainallore ,635202,,,,
Tamilnadu,Dharmapuri,Kammampatti ,636352,,,,
Tamilnadu,Dharmapuri,Kandagavundanur ,635302,,,,
Tamilnadu,Dharmapuri,Kandagavundanur ,635301,,,,
Tamilnadu,Dharmapuri,Kandenahalli ,636806,,,,
Tamilnadu,Dharmapuri,Kannipatti ,635205,,,,
Tamilnadu,Dharmapuri,Kathanahalli ,636808,,,,
Tamilnadu,Dharmapuri,Kathirinaickenahalli ,635303,,,,
Tamilnadu,Dharmapuri,Kathiripatti ,636906,,,,
Tamilnadu,Dharmapuri,Kattampatti ,636808,,,,
Tamilnadu,Dharmapuri,Katteri ,636902,,,,
Tamilnadu,Dharmapuri,Keelkuppam ,636902,,,,
Tamilnadu,Dharmapuri,Keeraipatti ,636903,,,,
Tamilnadu,Dharmapuri,Kelavalli ,635202,,,,
Tamilnadu,Dharmapuri,Keraikodahalli ,635305,,,,
Tamilnadu,Dharmapuri,Kokkarapatti ,636905,,,,
Tamilnadu,Dharmapuri,Kolagampatti ,636903,,,,
Tamilnadu,Dharmapuri,Komarasamipatti ,636701,,,,
Tamilnadu,Dharmapuri,Kombur ,636905,,,,
Tamilnadu,Dharmapuri,Konangihalli ,636813,,,,
Tamilnadu,Dharmapuri,Kongarapatti ,635202,,,,
Tamilnadu,Dharmapuri,Kongavembu ,636902,,,,
Tamilnadu,Dharmapuri,Koothapadi ,636810,,,,
Tamilnadu,Dharmapuri,Kottapatti ,636906,,,,
Tamilnadu,Dharmapuri,Kottumaranahalli ,635205,,,,
Tamilnadu,Dharmapuri,Kovilur ,635205,,,,
Tamilnadu,Dharmapuri,Krishnapuram ,635202,,,,
Tamilnadu,Dharmapuri,Kuppangarai ,635205,,,,
Tamilnadu,Dharmapuri,Kuppur ,636704,,,,
Tamilnadu,Dharmapuri,Kurubarahalli ,635302,,,,
Tamilnadu,Dharmapuri,Lakshmapuram ,636905,,,,
Tamilnadu,Dharmapuri,Laligam ,636804,,,,
Tamilnadu,Dharmapuri,M.Maravadi ,636805,,,,
Tamilnadu,Dharmapuri,Mademangalam ,636804,,,,
Tamilnadu,Dharmapuri,Mahendramangalam ,636805,,,,
Tamilnadu,Dharmapuri,Makkanur ,636803,,,,
Tamilnadu,Dharmapuri,Mallikuttai ,635205,,,,
Tamilnadu,Dharmapuri,Mallupatti ,636805,,,,
Tamilnadu,Dharmapuri,Mampatti ,636902,,,,
Tamilnadu,Dharmapuri,Manchinayakkanahalli ,636813,,,,
Tamilnadu,Dharmapuri,Mangarai ,636813,,,,
Tamilnadu,Dharmapuri,Maniyadahalli ,636807,,,,
Tamilnadu,Dharmapuri,Maniyambadi ,635303,,,,
Tamilnadu,Dharmapuri,Manjarahalli ,636810,,,,
Tamilnadu,Dharmapuri,Marandahalli ,636806,,,,
Tamilnadu,Dharmapuri,Marandahalli Bazaar ,636806,,,,
Tamilnadu,Dharmapuri,Maravadi ,635205,,,,
Tamilnadu,Dharmapuri,Maruthipatti ,635305,,,,
Tamilnadu,Dharmapuri,Mathikonpalayam ,636701,,,,
Tamilnadu,Dharmapuri,Matlamapatti ,635205,,,,
Tamilnadu,Dharmapuri,Menisi ,636904,,,,
Tamilnadu,Dharmapuri,Mittadinnahalli ,636804,,,,
Tamilnadu,Dharmapuri,Mittanoolahalli ,636704,,,,
Tamilnadu,Dharmapuri,Mobiripatti ,636902,,,,
Tamilnadu,Dharmapuri,Modur ,635205,,,,
Tamilnadu,Dharmapuri,Molayanur ,636904,,,,
Tamilnadu,Dharmapuri,Moolakadu ,636352,,,,
Tamilnadu,Dharmapuri,Morappur ,635305,,,,
Tamilnadu,Dharmapuri,Mottankurichi ,635302,,,,
Tamilnadu,Dharmapuri,Mukkanahalli ,635202,,,,
Tamilnadu,Dharmapuri,Mullikadu ,636905,,,,
Tamilnadu,Dharmapuri,Murukkampatti ,635202,,,,
Tamilnadu,Dharmapuri,Nagamarai ,636810,,,,
Tamilnadu,Dharmapuri,Nagarkudal ,636803,,,,
Tamilnadu,Dharmapuri,Nallampalli ,636807,,,,
Tamilnadu,Dharmapuri,Nallasenahalli ,636804,,,,
Tamilnadu,Dharmapuri,Nammanadahalli ,636812,,,,
Tamilnadu,Dharmapuri,Naripalli ,636906,,,,
Tamilnadu,Dharmapuri,Narthampatti ,636804,,,,
Tamilnadu,Dharmapuri,Navalai ,635305,,,,
Tamilnadu,Dharmapuri,Nettadahalli ,636803,,,,
Tamilnadu,Dharmapuri,Nochikuttai ,636903,,,,
Tamilnadu,Dharmapuri,Noolahalli ,636813,,,,
Tamilnadu,Dharmapuri,Obilinaickenahalli ,635303,,,,
Tamilnadu,Dharmapuri,Odasahalli ,635303,,,,
Tamilnadu,Dharmapuri,Onnappagoundanahalli ,636809,,,,
Tamilnadu,Dharmapuri,P.Agraharam ,636809,,,,
Tamilnadu,Dharmapuri,P.Chettihalli ,636808,,,,
Tamilnadu,Dharmapuri,Padi ,636809,,,,
Tamilnadu,Dharmapuri,Pagalahalli ,636807,,,,
Tamilnadu,Dharmapuri,Palacode ,636808,,,,
Tamilnadu,Dharmapuri,Palavadi ,636809,,,,
Tamilnadu,Dharmapuri,Palayam ,636807,,,,
Tamilnadu,Dharmapuri,Panjapalli ,636812,,,,
Tamilnadu,Dharmapuri,Pappambadi ,636905,,,,
Tamilnadu,Dharmapuri,Pappinaickenpatti ,636808,,,,
Tamilnadu,Dharmapuri,Pappireddipatti ,636905,,,,
Tamilnadu,Dharmapuri,Parayapatti ,635305,,,,
Tamilnadu,Dharmapuri,Parayapattipudur ,636903,,,,
Tamilnadu,Dharmapuri,Pattukonampatti ,636905,,,,
Tamilnadu,Dharmapuri,Paupparapatti ,636809,,,,
Tamilnadu,Dharmapuri,Pennagaram ,636810,,,,
Tamilnadu,Dharmapuri,Pereripudur ,636903,,,,
Tamilnadu,Dharmapuri,Periyanahalli ,635205,,,,
Tamilnadu,Dharmapuri,Periyapatti ,636906,,,,
Tamilnadu,Dharmapuri,Perumbalai ,636811,,,,
Tamilnadu,Dharmapuri,Petatampatti ,636903,,,,
Tamilnadu,Dharmapuri,Pikkili ,636809,,,,
Tamilnadu,Dharmapuri,Pilparuthi ,635301,,,,
Tamilnadu,Dharmapuri,Poduthampatti ,636808,,,,
Tamilnadu,Dharmapuri,Polayampalli ,635305,,,,
Tamilnadu,Dharmapuri,Poyyapatti ,636906,,,,
Tamilnadu,Dharmapuri,Pudupatti ,636905,,,,
Tamilnadu,Dharmapuri,Pulidikarai ,635202,,,,
Tamilnadu,Dharmapuri,Pulikarai ,636808,,,,
Tamilnadu,Dharmapuri,Pungunatham ,636803,,,,
Tamilnadu,Dharmapuri,Rajagollahalli ,636813,,,,
Tamilnadu,Dharmapuri,Ramagondahalli ,636810,,,,
Tamilnadu,Dharmapuri,Ramenahalli ,635302,,,,
Tamilnadu,Dharmapuri,Ranimookanur ,635303,,,,
Tamilnadu,Dharmapuri,Regadahalli ,635301,,,,
Tamilnadu,Dharmapuri,Samanur ,636806,,,,
Tamilnadu,Dharmapuri,Samichettipatti ,636807,,,,
Tamilnadu,Dharmapuri,Sandapatti ,635305,,,,
Tamilnadu,Dharmapuri,Sathiyanathapuram ,636813,,,,
Tamilnadu,Dharmapuri,Seeriyanahalli ,636808,,,,
Tamilnadu,Dharmapuri,Selliampatti ,636809,,,,
Tamilnadu,Dharmapuri,Senganur ,636810,,,,
Tamilnadu,Dharmapuri,Settikarai ,636704,,,,
Tamilnadu,Dharmapuri,Sikkalur ,636906,,,,
Tamilnadu,Dharmapuri,Sillarahalli ,635303,,,,
Tamilnadu,Dharmapuri,Sitrapatti ,635305,,,,
Tamilnadu,Dharmapuri,Sitteri ,636903,,,,
Tamilnadu,Dharmapuri,Sittilingi ,636906,,,,
Tamilnadu,Dharmapuri,Sogathur ,636809,Tamilnadu,Dharmapuri,Solaikottai ,636704
Tamilnadu,Dharmapuri,Somenahalli ,636803,,,,
Tamilnadu,Dharmapuri,Sunchalnatham ,636810,,,,
Tamilnadu,Dharmapuri,Sunnampatti ,636808,,,,
Tamilnadu,Dharmapuri,T.Ganigarahalli ,636352,,,,
Tamilnadu,Dharmapuri,Tenkaraikottai ,636904,,,,
Tamilnadu,Dharmapuri,Thalanatham ,635302,,,,
Tamilnadu,Dharmapuri,Thathampatti ,635201,,,,
Tamilnadu,Dharmapuri,Thippampatti ,635202,,,,
Tamilnadu,Dharmapuri,Thippireddihalli ,635301,,,,
Tamilnadu,Dharmapuri,Thirumalvadi ,636808,,,,
Tamilnadu,Dharmapuri,Thokkampatti ,636705,,,,
Tamilnadu,Dharmapuri,Thoppur ,636352,,,,
Tamilnadu,Dharmapuri,Thumbalammaepettai ,636906,,,,
Tamilnadu,Dharmapuri,Thumjepalli ,636812,,,,
Tamilnadu,Dharmapuri,Thurinjipatti ,635301,,,,
Tamilnadu,Dharmapuri,Tirtamalai ,636906,,,,
Tamilnadu,Dharmapuri,Ungaranahalli ,636704,,,,
Tamilnadu,Dharmapuri,Vagurappampatti ,635202,,,,
Tamilnadu,Dharmapuri,Vaguthupatti ,635302,,,,
Tamilnadu,Dharmapuri,Vattuvanahalli ,636810,,,,
Tamilnadu,Dharmapuri,Vedakattumaduvu ,636906,,,,
Tamilnadu,Dharmapuri,Vedarampatti ,635202,,,,
Tamilnadu,Dharmapuri,Veerappanaickenpatti ,636906,,,,
Tamilnadu,Dharmapuri,Velanur ,636906,,,,
Tamilnadu,Dharmapuri,Vellalapatti ,635202,,,,
Tamilnadu,Dharmapuri,Venkatadrihalli ,635303,,,,
Tamilnadu,Dharmapuri,Venkatasamudram ,636905,,,,
Tamilnadu,Dharmapuri,Venkatenahalli ,636704,,,,
Tamilnadu,Dharmapuri,Vennampatti ,636705,,,,
Tamilnadu,Dharmapuri,Veppalahalli ,636805,,,,
Tamilnadu,Dharmapuri,Veppampatti ,636903,,,,
Tamilnadu,Dharmapuri,Veppilaimuthampatti ,635301,,,,
Tamilnadu,Dharmapuri,Yelangalpatti ,636808,,,,
Tamilnadu,sivagangai,A.Karungulam,630321,,,,
Tamilnadu,sivagangai,A.Mukkulam,630611,,,,
Tamilnadu,sivagangai,A.siruvayal,630305,,,,
Tamilnadu,sivagangai,A.Thekkur,630201,,,,
Tamilnadu,sivagangai,Ac.school,630107,,,,
Tamilnadu,sivagangai,Ae.college,630004,,,,
Tamilnadu,sivagangai,Akkavayal,630713,,,,
Tamilnadu,sivagangai,Alagamanagiri,630553,,,,
Tamilnadu,sivagangai,Alagappapuram,630003,,,,
Tamilnadu,sivagangai,Alagapuri,630556,,,,
Tamilnadu,sivagangai,Alampatti,630211,,,,
Tamilnadu,sivagangai,Alangudi,630307,,,,
Tamilnadu,sivagangai,Avanipatti,630205,,,,
Tamilnadu,sivagangai,Ayyapatti,630211,,,,
Tamilnadu,sivagangai,Bhramanampatti,630210,,,,
Tamilnadu,sivagangai,Bosengar,630561,,,,
Tamilnadu,sivagangai,Cvmangalam,630501,,,,
Tamilnadu,sivagangai,Cecri campus,630006,,,,
Tamilnadu,sivagangai,Chettinad,630102,,,,
Tamilnadu,sivagangai,Chinnakannanur,630606,,,,
Tamilnadu,sivagangai,Chockalingampudur,630101,,,,
Tamilnadu,sivagangai,Chockanathapuram,630313,,,,
Tamilnadu,sivagangai,Devakottai,630302,,,,
Tamilnadu,sivagangai,Devakottai Extension,630303,,,,
Tamilnadu,sivagangai,Devakottai Palace,630302,,,,
Tamilnadu,sivagangai,Devakottai Road,630005,,,,
Tamilnadu,sivagangai,Devakottai South,630302,,,,
Tamilnadu,sivagangai,Devakottai West,630302,,,,
Tamilnadu,sivagangai,Dharmapatti,630309,,,,
Tamilnadu,sivagangai,Eluvankottai,630303,,,,
Tamilnadu,sivagangai,Enathi,630561,,,,
Tamilnadu,sivagangai,Eriyur,630566,,,,
Tamilnadu,sivagangai,Hanumanthagudi,630303,,,,
Tamilnadu,sivagangai,Idaikattur,630602,,,,
Tamilnadu,sivagangai,Idayamelur,630562,,,,
Tamilnadu,sivagangai,Ilayangudi,630702,,,,
Tamilnadu,sivagangai,Ilayathakudi,630205,,,,
Tamilnadu,sivagangai,Illupakudi,630202,,,,
Tamilnadu,sivagangai,Indankulam,630709,,,,
Tamilnadu,sivagangai,Iraniyur,630212,,,,
Tamilnadu,sivagangai,Jawahar Bazaar,630561,,,,
Tamilnadu,sivagangai,Jayankondan,630108,,,,
Tamilnadu,sivagangai,K.Alagapuri,630106,,,,
Tamilnadu,sivagangai,K.Sukkanurani,630551,,,,
Tamilnadu,sivagangai,Kalagathankottai,630710,,,,
Tamilnadu,sivagangai,Kalakanmoi,630555,,,,
Tamilnadu,sivagangai,Kalappur,630501,,,,
Tamilnadu,theni,A.Vadipatti,625602,,,,
Tamilnadu,theni,Agamalai,625605,,,,
Tamilnadu,theni,Alagapuri,625523,,,,
Tamilnadu,theni,Allinagaram,625531,,,,
Tamilnadu,theni,Ammapatti,625512,,,,
Tamilnadu,theni,Ammatchiapuram,625531,,,,
Tamilnadu,theni,Anaikaraipatti,625582,,,,
Tamilnadu,theni,Anamalayanpatti,625526,,,,
Tamilnadu,theni,Annanji,625531,,,,
Tamilnadu,theni,Appipatti,625515,,,,
Tamilnadu,theni,Athankaraipatti,625517,,,,
Tamilnadu,theni,Aundipatti,625512,,,,
Tamilnadu,theni,B.Ammapatti,625528,,,,
Tamilnadu,theni,B.Meenakshipuram,625582,,,,
Tamilnadu,theni,Bangalamedu,625531,,,,
Tamilnadu,theni,Bodidasanpatti,625536,,,,
Tamilnadu,theni,Bodimettu,625513,,,,
Tamilnadu,theni,Bodinayakanur,625513,,,,
Tamilnadu,theni,Bodinayakanur Bazar,625513,,,,
Tamilnadu,theni,Bodinayakanur North,625513,,,,
Tamilnadu,theni,Bodinayakanur R.s.,625513,,,,
Tamilnadu,theni,Bomminayakanpatti,625602,,,,
Tamilnadu,theni,Buthipuram,625531,,,,
Tamilnadu,theni,C.Pudupatti,625556,,,,
Tamilnadu,theni,Central Station,625582,,,,
Tamilnadu,theni,Chinnakattalai,625527,,,,
Tamilnadu,theni,Chinnamanur,625515,,,,
Tamilnadu,theni,Chinnamanur Bazar,625515,,,,
Tamilnadu,theni,Chinnaovalapuram,625515,,,,
Tamilnadu,theni,Cumbum,625516,,,,
Tamilnadu,theni,Cumbum West,625516,,,,
Tamilnadu,theni,Devadanapatti,625602,,,,
Tamilnadu,theni,Dharmapuri,625520,,,,
Tamilnadu,theni,Endapuli,625604,,,,
Tamilnadu,theni,Erasakkanayakanur,625515,,,,
Tamilnadu,theni,Erumalainayakanpatti,625602,,,,
Tamilnadu,theni,Ethakovil,625536,,,,
Tamilnadu,theni,G.Kallupatti,625203,,,,
Tamilnadu,theni,G.Usilampatti,625517,,,,
Tamilnadu,theni,Gandamanayakanur,625517,,,,
Tamilnadu,theni,Gandhinagar (cumbum),625516,,,,
Tamilnadu,theni,Genguvarpatti,625203,,,,
Tamilnadu,theni,Gokilapuram,625526,,,,
Tamilnadu,theni,Gopalapuram,625534,,,,
Tamilnadu,theni,Govindagaram,625517,,,,
Tamilnadu,theni,Gudalur,625518,,,,
Tamilnadu,theni,Gullapuram,625562,,,,
Tamilnadu,theni,Hanumanthanpatti,625533,,,,
Tamilnadu,theni,Highwavys,625519,,,,
Tamilnadu,theni,Jangalpatti,625520,,,,
Tamilnadu,theni,Jeevanagar,625513,,,,
Tamilnadu,theni,Jeyamangalam,625603,,,,
Tamilnadu,theni,Kadamalaikundu,625579,,,,
Tamilnadu,theni,Kamarajapuram,625582,,,,
Tamilnadu,theni,Kamatchipuram,625520,,,,
Tamilnadu,theni,Kamayakoundanpatti,625521,,,,
Tamilnadu,theni,Kanniappapillaipatti,625512,,,,
Tamilnadu,theni,Kanniservaipatti,625515,,,,
Tamilnadu,theni,Karunagamuthanpatti,625516,,,,
Tamilnadu,theni,Keelagudalur,625518,,,,
Tamilnadu,theni,Kodangipatti,625534,,,,
Tamilnadu,theni,Koduvilarpatti,625534,,,,
Tamilnadu,theni,Koilpatti,625562,,,,
Tamilnadu,theni,Kombai,625522,,,,
Tamilnadu,theni,Kombaitholu,625579,,,,
Tamilnadu,theni,Koolayanur,625515,,,,
Tamilnadu,theni,Kothaloothu,625512,,,,
Tamilnadu,theni,Kothapatti,625512,,,,
Tamilnadu,theni,Kottagudi,625582,,,,
Tamilnadu,theni,Kottur,625534,,,,
Tamilnadu,theni,Kovilparai,625579,,,,
Tamilnadu,theni,Krishnampatti,625530,,,,
Tamilnadu,theni,Kujjanur,625515,,,,
Tamilnadu,theni,Kullappagoundanpatti,625516,,,,
Tamilnadu,theni,Kumizhantholu,625579,,,,
Tamilnadu,theni,Kunnur,625531,,,,
Tamilnadu,theni,Kuppinayakanpatti,625520,,,,
Tamilnadu,theni,Kurangani,625582,,,,
Tamilnadu,theni,Lakshminayakanpatti,625530,,,,
Tamilnadu,theni,Lakshmipuram,625523,,,,
Tamilnadu,theni,Manalar,625519,,,,
Tamilnadu,theni,Manjalar Dam,625602,,,,
Tamilnadu,theni,Marikundu,625517,,,,
Tamilnadu,theni,Markeyankottai,625552,,,,
Tamilnadu,theni,Mayiladumparai,625579,,,,
Tamilnadu,theni,Megamalai,625515,,,,
Tamilnadu,theni,Melachokkanathapuram,625582,,,,
Tamilnadu,theni,Melasindalachery,625524,,,,
Tamilnadu,theni,Melmangalam,625603,,,,
Tamilnadu,theni,Moolakadai,625579,,,,
Tamilnadu,theni,Mottanuthu,625512,,,,
Tamilnadu,theni,Murugamalainagar,625605,,,,
Tamilnadu,theni,Muthulapuram,625515,,,,
Tamilnadu,theni,Nagalapuram,625528,,,,
Tamilnadu,theni,Nallakaruppanpatti,625604,,,,
Tamilnadu,theni,Narayanathevanpatti,625521,,,,
Tamilnadu,theni,Odaipatti,625540,,,,
Tamilnadu,theni,Okkaraipatti,625517,,,,
Tamilnadu,theni,P.Dharmathupatti,625536,,,,
Tamilnadu,theni,Palacombai,625512,,,,
Tamilnadu,theni,Palanichettipatti,625531,,,,
Tamilnadu,theni,Pallavarayanpatti,625524,,,,
Tamilnadu,theni,Pannaipuram,625524,,,,
Tamilnadu,theni,Periyakulam,625601,,,,
Tamilnadu,theni,Periyakulam Bazaar,625601,,,,
Tamilnadu,theni,Periyakulam East,625604,,,,
Tamilnadu,theni,Periyakulam Public office,625601,,,,
Tamilnadu,theni,Periyar Project,625525,,,,
Tamilnadu,theni,Poomalaikundu,625520,,,,
Tamilnadu,theni,Poosanuthu,625579,,,,
Tamilnadu,theni,Pottipuram,625528,,,,
Tamilnadu,theni,Pulikuthi,625524,,,,
Tamilnadu,theni,Pullimankombai,625536,,,,
Tamilnadu,theni,Rajadhani,625512,,,,
Tamilnadu,theni,Rajagopalanpatti,625536,,,,
Tamilnadu,theni,Rasingapuram,625528,,,,
Tamilnadu,theni,Rengasamudram,625562,,,,
Tamilnadu,theni,Rosanampatti,625512,,,,
Tamilnadu,theni,Royappanpatti,625526,,,,
Tamilnadu,theni,Sankarapuram,625530,,,,
Tamilnadu,theni,Saruthupatti,625523,,,,
Tamilnadu,theni,Sathakoilpatti,625602,,,,
Tamilnadu,theni,Seelayampatti,625515,,,,
Tamilnadu,theni,Seepalakottai,625540,,,,
Tamilnadu,theni,Shunmugasundarapuram,625512,,,,
Tamilnadu,theni,Silamalai,625528,,,,
Tamilnadu,theni,Sillamarathupatti,625528,,,,
Tamilnadu,theni,Silvarpatti,625602,,,,
Tamilnadu,theni,Sindalacherry,625530,,,,
Tamilnadu,theni,Siraparai,625579,,,,
Tamilnadu,theni,Srirengapuram,625534,,,,
Tamilnadu,theni,Subburajnagar,625582,,,,
Tamilnadu,theni,Sukkangalpatti,625540,,,,
Tamilnadu,theni,Surulipatti,625516,,,,
Tamilnadu,theni,Suruliyar Lower camp,625525,,,,
Tamilnadu,theni,T.Kallipatti,625605,,,,
Tamilnadu,theni,T.Meenatchipuram,625530,,,,
Tamilnadu,theni,T.Nagar (theni),625531,,,,
Tamilnadu,theni,T.Subbulapuram,625536,,,,
Tamilnadu,theni,T.V.renganathapuram,625536,,,,
Tamilnadu,theni,Tadichery,625534,,,,
Tamilnadu,theni,Tamarakulam,625605,,,,
Tamilnadu,theni,Thamminayakanpatti,625530,,,,
Tamilnadu,theni,Thangammalpuram,625579,,,,
Tamilnadu,theni,Thekkampatti,625517,,,,
Tamilnadu,theni,Theni,625531,,,,
Tamilnadu,theni,Theni East,625531,,,,
Tamilnadu,theni,Theppampatti,625512,,,,
Tamilnadu,theni,Thevaram,625530,,,,
Tamilnadu,theni,Thimmarasanayakanur,625536,,,,
Tamilnadu,theni,Thullukuttinayakanur,625705,,,,
Tamilnadu,theni,Thummagundu,625579,,,,
Tamilnadu,theni,U.Ammapatti,625533,,,,
Tamilnadu,theni,Upparpatti,625534,,,,
Tamilnadu,theni,Uppukottai,625534,,,,
Tamilnadu,theni,Uthamapalayam,625533,,,,
Tamilnadu,theni,Uthamapalayam Bazar,625533,,,,
Tamilnadu,theni,Uthamapalayam West,625533,,,,
Tamilnadu,theni,Vadagarai,625601,,,,
Tamilnadu,theni,Vadugapatti,625603,,,,
Tamilnadu,theni,Vaigaidamsite,625562,,,,
Tamilnadu,theni,Vaigaiproject,625562,,,,
Tamilnadu,theni,Varadharajnagar,625562,,,,
Tamilnadu,theni,Varushanadu,625579,,,,
Tamilnadu,theni,Veerapandi,625534,,,,
Tamilnadu,theni,Vellaiyammalpuram,625540,,,,
Tamilnadu,Madurai ,Venkatachalapuram,625572,,,,
Tamilnadu,Madurai ,Venniar Estate,625538,,,,
Tamilnadu,Madurai ,A.Ammapatti,625706,,,,
Tamilnadu,Madurai ,A.Kokkulam,625514,,,,
Tamilnadu,Madurai ,A.Pudupatti,625501,,,,
Tamilnadu,Madurai ,A.Thottiapatti,625704,,,,
Tamilnadu,Madurai ,A.Vellalapatti,625301,,,,
Tamilnadu,Madurai ,Achampatti,625501,,,,
Tamilnadu,Madurai ,Alagappa Nagar,625003,,,,
Tamilnadu,Madurai ,Alagapuri,625501,,,,
Tamilnadu,Madurai ,Alagarkoil,625301,,,,
Tamilnadu,Madurai ,Alagichipatti,625109,,,,
Tamilnadu,Madurai ,Alampatti,625706,,,,
Tamilnadu,Madurai ,Alanganallur,625501,,,,
Tamilnadu,Madurai ,Alappalacheri,625704,,,,
Tamilnadu,Madurai ,Allikundam,625527,,,,
Tamilnadu,Madurai ,Ambalakaranpatti,625109,,,,
Tamilnadu,Madurai ,Anaiyur,625017,,,,
Tamilnadu,Madurai ,Anaiyur H.b. colony,625017,,,,
Tamilnadu,Madurai ,Andarkottaram,625020,,,,
Tamilnadu,Madurai ,Andipatti,625218,,,,
Tamilnadu,Madurai ,Anna Nagar,625020,,,,
Tamilnadu,Madurai ,Anuppanadi Housing board colon,625009,,,,
Tamilnadu,Madurai ,Anuppanady,625009,,,,
Tamilnadu,Madurai ,Appakarai,625704,,,,
Tamilnadu,Madurai ,Appantiruppathi,625301,,,,
Tamilnadu,Madurai ,Arasapatti,625706,,,,
Tamilnadu,Madurai ,Arasaradi,625016,,,,
Tamilnadu,Madurai ,Arittapatti,625106,,,,
Tamilnadu,Madurai ,Ariyapatti,625532,,,,
Tamilnadu,Madurai ,Arukkampatti,625105,,,,
Tamilnadu,Madurai ,Arumbanur,625104,,,,
Tamilnadu,Madurai ,Athikaripatti,625527,,,,
Tamilnadu,Madurai ,Athipatti,625705,,,,
Tamilnadu,Madurai ,Attapatti,625108,,,,
Tamilnadu,Madurai ,Austinpatti,625008,,,,
Tamilnadu,Madurai ,Avalsurampatti,625701,,,,
Tamilnadu,Madurai ,Avanivapuram,625012,,,,
Tamilnadu,Madurai ,Ayyanarkulam,625537,,,,
Tamilnadu,Madurai ,Ayyankottai,625221,,,,
Tamilnadu,Madurai ,Ayyankuruvithurai,625207,,,,
Tamilnadu,Madurai ,Ayyapatti,625103,,,,
Tamilnadu,Madurai ,Ayyur,625501,,,,
Tamilnadu,Madurai ,Boothipuram,625532,,,,
Tamilnadu,Madurai ,Budamangalam,625108,,,,
Tamilnadu,Madurai ,Buthagudi,625017,,,,
Tamilnadu,Madurai ,Chatrapatti,625014,,,,
Tamilnadu,Madurai ,Chatravellalapatti,625503,,,,
Tamilnadu,Madurai ,Checkanurani,625514,,,,
Tamilnadu,Madurai ,Chellampatti,625566,,,,
Tamilnadu,Madurai ,Chettikulam,625514,,,,
Tamilnadu,Madurai ,Chintamani,625009,,,,
Tamilnadu,Madurai ,Chitoor,625707,,,,
Tamilnadu,Madurai ,Chittampatti,625122,,,,
Tamilnadu,Madurai ,Chockalingapuram,625103,,,,
Tamilnadu,Madurai ,Deivanayagapuram,625703,,,,
Tamilnadu,Madurai ,Denobli Press,625007,,,,
Tamilnadu,Madurai ,Doddappanayakanur,625532,,,,
Tamilnadu,Madurai ,E.Kottapatty,625535,,,,
Tamilnadu,Madurai ,Ellis Nagar,625016,,,,
Tamilnadu,Madurai ,Eravarpatti,625537,,,,
Tamilnadu,Madurai ,Erkudi Achampathu,625019,,,,
Tamilnadu,Madurai ,Errampatti,625501,,,,
Tamilnadu,Madurai ,Erumarpatti,625527,,,,
Tamilnadu,Madurai ,Ettimangalam,625105,,,,
Tamilnadu,Madurai ,Gandhi Nagar,625020,,,,
Tamilnadu,Madurai ,Ganjampatti,625708,,,,
Tamilnadu,Madurai ,Gnanaolivupuram,625016,,,,
Tamilnadu,Madurai ,Harveypatti,625005,,,,
Tamilnadu,Madurai ,Ilamanur,625201,,,,
Tamilnadu,Madurai ,Irumbadi,625205,,,,
Tamilnadu,Madurai ,Jaihindpuram,625011,,,,
Tamilnadu,Madurai ,Jari Usilampatti,625702,,,,
Tamilnadu,Madurai ,Jayankondanilai,625102,,,,
Tamilnadu,Madurai ,Jothilnayakanur,625535,,,,
Tamilnadu,Madurai ,Jothimanickam,625514,,,,
Tamilnadu,Madurai ,K.Pudur,625007,,,,
Tamilnadu,Madurai ,K.Sennampatti,625701,,,,
Tamilnadu,Madurai ,Kachakatti,625218,,,,
Tamilnadu,Madurai ,Kachirayanpatti,625101,,,,
Tamilnadu,Madurai ,Kachirayiruppu,625234,,,,
Tamilnadu,Madurai ,Kadaneri,625702,,,,
Tamilnadu,Madurai ,Kadupatti,625207,,,,
Tamilnadu,Madurai ,Kalappanpatti,625529,,,,
Tamilnadu,Madurai ,Kalimangalam,625020,,,,
Tamilnadu,Madurai ,Kallampatti,625106,,,,
Tamilnadu,Madurai ,Kallanai,625501,,,,
Tamilnadu,Madurai ,Kallandiri,625301,,,,
Tamilnadu,Madurai ,Kalligudi,625701,,,,
Tamilnadu,Madurai ,Kalluthu,625537,,,,
Tamilnadu,Madurai ,Kalpalam Road,625002,,,,
Tamilnadu,Madurai ,Kalvelipatti,625221,,,,
Tamilnadu,Madurai ,Kambur,625101,,,,
Tamilnadu,Madurai ,Kancharampettai,625014,,,,
Tamilnadu,Madurai ,Kangeyanatham,625706,,,,
Tamilnadu,Madurai ,Kappalur,625008,,,,
Tamilnadu,Madurai ,Kappalur Indl.estate,625008,,,,
Tamilnadu,Madurai ,Karadikal,625706,,,,
Tamilnadu,Madurai ,Karaikeni,625702,,,,
Tamilnadu,Madurai ,Karumathur,625514,,,,
Tamilnadu,Madurai ,Karungalakudi,625101,,,,
Tamilnadu,Madurai ,Karupatti,625205,,,,
Tamilnadu,Madurai ,Karuppayurani,625020,,,,
Tamilnadu,Madurai ,Karuvanur,625014,,,,
Tamilnadu,Madurai ,Kathakinaru,625107,,,,
Tamilnadu,Madurai ,Kattathevanpatti,625529,,,,
Tamilnadu,Madurai ,Keelamathur,625016,,,,
Tamilnadu,Madurai ,Keerathurai,625001,,,,
Tamilnadu,Madurai ,Kesampatti,625105,,,,
Tamilnadu,Madurai ,Kethuvarpatti,625705,,,,
Tamilnadu,Madurai ,Kidaripatti,625301,,,,
Tamilnadu,Madurai ,Kilaiyur,625106,,,,
Tamilnadu,Madurai ,Kilakuyilkudi,625019,,,,
Tamilnadu,Madurai ,Kilavalavu,625102,,,,
Tamilnadu,Madurai ,Kilavaneri,625704,,,,
Tamilnadu,Madurai ,Kinnimangalam,625514,,,,
Tamilnadu,Madurai ,Kochadai,625016,,,,
Tamilnadu,Madurai ,Kodangipatti,625503,,,,
Tamilnadu,Madurai ,Kodikulam,625514,,,,
Tamilnadu,Madurai ,Kodimangalam,625016,,,,
Tamilnadu,Madurai ,Kodukkampatti,625108,,,,
Tamilnadu,Madurai ,Kondayampatti,625221,,,,
Tamilnadu,Madurai ,Kongampatti,625102,,,,
Tamilnadu,Madurai ,Koothiyargundu,625008,,,,
Tamilnadu,Madurai ,Koovalapuram,625703,,,,
Tamilnadu,Madurai ,Koppinaickanpatti,625702,,,,
Tamilnadu,Madurai ,Kottagudi,625106,,,,
Tamilnadu,Madurai ,Kottampatti,625103,,,,
Tamilnadu,Madurai ,Kottanathampatti,625109,,,,
Tamilnadu,Madurai ,Kovilangulam,625514,,,,
Tamilnadu,Madurai ,Krishnapuram Colony,625014,,,,
Tamilnadu,Madurai ,Kudakoil,625022,,,,
Tamilnadu,Madurai ,Kuduseri,625705,,,,
Tamilnadu,Madurai ,Kulamangalam,625017,,,,
Tamilnadu,Madurai ,Kulasekarankottai,625218,,,,
Tamilnadu,Madurai ,Kumaram,625018,,,,
Tamilnadu,Madurai ,Kunnarampatti,625101,,,,
Tamilnadu,Madurai ,Kuppalnatham,625527,,,,
Tamilnadu,Madurai ,Kuraiyur,625701,,,,
Tamilnadu,Madurai ,Kuravagudi,625537,,,,
Tamilnadu,Madurai ,Kurichipatti,625109,,,,
Tamilnadu,Madurai ,Kusavangundu,625022,,,,
Tamilnadu,Madurai ,Kuttimeichanpatti,625501,,,,
Tamilnadu,Madurai ,Lakshmipuram,625301,,,,
Tamilnadu,Madurai ,Lalapuram,625707,,,,
Tamilnadu,Madurai ,M.Kallupatti,625535,,,,
Tamilnadu,Madurai ,M.Pudupatti,625702,,,,
Tamilnadu,Madurai ,M.Puliyankulam,625707,,,,
Tamilnadu,Madurai ,M.Subbulapuram,625702,,,,
Tamilnadu,Madurai ,Ma Munichalai road,625009,,,,
Tamilnadu,Madurai ,Ma Periyar bus stand,625001,,,,
Tamilnadu,Madurai ,Ma Race course,625002,,,,
Tamilnadu,Madurai ,Ma Rajaji hospital,625020,,,,
Tamilnadu,Madurai ,Ma Reserve lines,625014,,,,
Tamilnadu,Madurai ,Ma West masi street,625001,,,,
Tamilnadu,Madurai ,Madakkulam,625003,,,,
Tamilnadu,Madurai ,Madipanur,625704,,,,
Tamilnadu,Madurai ,Madurai,625001,,,,
Tamilnadu,Madurai ,Madurai Agricultural college,625104,,,,
Tamilnadu,Madurai ,Madurai Bazaar,625001,,,,
Tamilnadu,Madurai ,Madurai Bibikulam,625002,,,,
Tamilnadu,Madurai ,Madurai Corporation building,625002,,,,
Tamilnadu,Madurai ,Madurai Courts,625020,,,,
Tamilnadu,Madurai ,Madurai East,625009,,,,
Tamilnadu,Madurai ,Madurai North,625014,,,,
Tamilnadu,Madurai ,Madurai Palace,625001,,,,
Tamilnadu,Madurai ,Madurai Railway divl office,625016,,,,
Tamilnadu,Madurai ,Madurai West,625001,,,,
Tamilnadu,Madurai ,Malampatti,625102,,,,
Tamilnadu,Madurai ,Mallapuram,625535,,,,
Tamilnadu,Madurai ,Manappachery,625103,,,,
Tamilnadu,Madurai ,Mangalampatti,625101,,,,
Tamilnadu,Madurai ,Mangalrevu,625703,,,,
Tamilnadu,Madurai ,Mangulam,625301,,,,
Tamilnadu,Madurai ,Mannadimangalam,625207,,,,
Tamilnadu,Madurai ,Manuthu,625527,,,,
Tamilnadu,Madurai ,Mariammalkulam,625221,,,,
Tamilnadu,Madurai ,Marudangudi,625701,,,,
Tamilnadu,Madurai ,Mathur,625301,,,,
Tamilnadu,Madurai ,Meenambalpuram,625002,,,,
Tamilnadu,Madurai ,Meikilarpatti,625532,,,,
Tamilnadu,Madurai ,Melakkal,625234,,,,
Tamilnadu,Madurai ,Melakottai,625706,,,,
Tamilnadu,Madurai ,Melanachikulam,625205,,,,
Tamilnadu,Madurai ,Melauppiligundu,625022,,,,
Tamilnadu,Madurai ,Melavlavu,625105,,,,
Tamilnadu,Madurai ,Melur,625106,,,,
Tamilnadu,Madurai ,Melur East,625106,,,,
Tamilnadu,Madurai ,Melur South,625106,,,,
Tamilnadu,Madurai ,Mettupatti,625502,,,,
Tamilnadu,Madurai ,Mudakkuchalai,625016,,,,
Tamilnadu,Madurai ,Mudalaikulam,625514,,,,
Tamilnadu,Madurai ,Muduvarpatti,625503,,,,
Tamilnadu,Madurai ,Mullipallam,625207,,,,
Tamilnadu,Madurai ,Municipal Colony,625020,,,,
Tamilnadu,Madurai ,Muthusamypatti,625102,,,,
Tamilnadu,Madurai ,Nachikulam,625205,,,,
Tamilnadu,Madurai ,Nadumudalaikulam,625514,,,,
Tamilnadu,Madurai ,Nagamalai,625019,,,,
Tamilnadu,Madurai ,Nakkalapatti,625532,,,,
Tamilnadu,Madurai ,Nallamaram,625702,,,,
Tamilnadu,Madurai ,Nallur,625022,,,,
Tamilnadu,Madurai ,Nariampatti,625207,,,,
Tamilnadu,theni,Venkatachalapuram,625572,,,,
Tamilnadu,theni,Venniar Estate,625538,,,,
Tamilnadu,Thanjavur,Achampatti,613402,,,,
Tamilnadu,Thanjavur,Adambai,614602,,,,
Tamilnadu,Thanjavur,Adanur,612301,,,,
Tamilnadu,Thanjavur,Adirampattinam,614701,,,,
Tamilnadu,Thanjavur,Adirampattinam R.s,614701,,,,
Tamilnadu,Thanjavur,Adirampattinam Town,614701,,,,
Tamilnadu,Thanjavur,Adirampattinam West,614701,,,,
Tamilnadu,Thanjavur,Aduthurai,612101,,,,
Tamilnadu,Thanjavur,Aduthurai Bazar,612101,,,,
Tamilnadu,Thanjavur,Agaramangudi,614303,,,,
Tamilnadu,Thanjavur,Aimbadumelnagaram,613101,,,,
Tamilnadu,Thanjavur,Aiyanapuram,613602,,,,
Tamilnadu,Thanjavur,Akkaraivattam,614614,,,,
Tamilnadu,Thanjavur,Aladikkumulai,614615,,,,
Tamilnadu,Thanjavur,Alagiyanayakipuram,614723,,,,
Tamilnadu,Thanjavur,Alakkudi,613601,,,,
Tamilnadu,Thanjavur,Alampallam,614901,,,,
Tamilnadu,Thanjavur,Alathur,614901,,,,
Tamilnadu,Thanjavur,Alivalam,614602,,,,
Tamilnadu,Thanjavur,Allur,613101,,,,
Tamilnadu,Thanjavur,Ambalapattu,614626,,,,
Tamilnadu,Thanjavur,Ambalapattu North,614626,,,,
Tamilnadu,Thanjavur,Ammachathiram,612103,,,,
Tamilnadu,Thanjavur,Ammaiyandi,614623,,,,
Tamilnadu,Thanjavur,Ammangudi,612202,,,,
Tamilnadu,Thanjavur,Ammanichatram,614802,,,,
Tamilnadu,Thanjavur,Ammapet,614401,,,,
Tamilnadu,Thanjavur,Anaikadu,614602,,,,
Tamilnadu,Thanjavur,Anaikudi,612105,,,,
Tamilnadu,Thanjavur,Andalampettai,612104,,,,
Tamilnadu,Thanjavur,Andami,614903,,,,
Tamilnadu,Thanjavur,Andikadu,614723,,,,
Tamilnadu,Thanjavur,Annalagraharam,612401,,,,
Tamilnadu,Thanjavur,Annappanpettai,613003,,,,
Tamilnadu,Thanjavur,Aralur,612106,,,,
Tamilnadu,Thanjavur,Arasapattu,614019,,,,
Tamilnadu,Thanjavur,Arcadu,613205,,,,
Tamilnadu,Thanjavur,Arisikara Street,613001,,,,
Tamilnadu,Thanjavur,Arsuthipattu,613504,,,,
Tamilnadu,Thanjavur,Arundavapuram,614402,,,,
Tamilnadu,Thanjavur,Asoor,612501,,,,
Tamilnadu,Thanjavur,Athikottai,614906,,,,
Tamilnadu,Thanjavur,Atthiyur,612503,,,,
Tamilnadu,Thanjavur,Attivetti,614613,,,,
Tamilnadu,Thanjavur,Avanam,614623,,,,
Tamilnadu,Thanjavur,Avaniapuram,612107,,,,
Tamilnadu,Thanjavur,Avarampatti,613602,,,,
Tamilnadu,Thanjavur,Ayyamp R.s.,614211,,,,
Tamilnadu,Thanjavur,Ayyampet,614201,,,,
Tamilnadu,Thanjavur,Ayyampet Bazaar,614201,,,,
Tamilnadu,Thanjavur,Ayyavadi,612204,,,,
Tamilnadu,Thanjavur,Azhiavaikal,614904,,,,
Tamilnadu,Thanjavur,Baburajapuram,612302,,,,
Tamilnadu,Thanjavur,Budalur,613602,,,,
Tamilnadu,Thanjavur,Chakrapalli,614211,,,,
Tamilnadu,Thanjavur,Chennampatti,613403,,,,
Tamilnadu,Thanjavur,Chinnakadaitheru,614401,,,,
Tamilnadu,Thanjavur,Chitrakudi,613602,,,,
Tamilnadu,Thanjavur,Chokkanathapuram,614803,,,,
Tamilnadu,Thanjavur,Cholagankarai,614626,,,,
Tamilnadu,Thanjavur,Cholanmaligai,612703,,,,
Tamilnadu,Thanjavur,Cholapuram,614902,,,,
Tamilnadu,Thanjavur,Co-operative Buildings,613009,,,,
Tamilnadu,Thanjavur,Darasuram,612702,,,,
Tamilnadu,Thanjavur,Devanancheri,612501,,,,
Tamilnadu,Thanjavur,Devarayanpettai,614204,,,,
Tamilnadu,Thanjavur,Eachankottai,614902,,,,
Tamilnadu,Thanjavur,Elangadu-tpl,613104,,,,
Tamilnadu,Thanjavur,Enadi,614615,,,,
Tamilnadu,Thanjavur,Enathikarambai,614623,,,,
Tamilnadu,Thanjavur,Engan,612603,,,,
Tamilnadu,Thanjavur,Eraharam,612303,,,,
Tamilnadu,Thanjavur,Eripurakarai,614701,,,,
Tamilnadu,Thanjavur,Ganapathi Agraharam,614202,,,,
Tamilnadu,Thanjavur,Ganapathi Nagar,613007,,,,
Tamilnadu,Thanjavur,Gangadarapuram,612302,,,,
Tamilnadu,Thanjavur,Govindapuram,612101,,,,
Tamilnadu,Thanjavur,Gudalur,613003,,,,
Tamilnadu,Thanjavur,Ichangudi,613204,,,,
Tamilnadu,Thanjavur,Idaiyiruppu,614302,,,,
Tamilnadu,Thanjavur,Idayathi,614628,,,,
Tamilnadu,Thanjavur,Ilangadu,614903,,,,
Tamilnadu,Thanjavur,Ilangarkudi,614203,,,,
Tamilnadu,Thanjavur,Iluppakorai,614202,,,,
Tamilnadu,Thanjavur,Inayathukanpatti,613005,,,,
Tamilnadu,Thanjavur,Indalur,613102,,,,
Tamilnadu,Thanjavur,Injikollai,612605,,,,
Tamilnadu,Thanjavur,Innambur,612303,,,,
Tamilnadu,Thanjavur,Irudayapuram,613001,,,,
Tamilnadu,Thanjavur,Irumbuthalai,613504,,,,
Tamilnadu,Thanjavur,Jambugambalpuram,613502,,,,
Tamilnadu,Thanjavur,Kabistalam,614203,,,,
Tamilnadu,Thanjavur,Kachamangalam,613102,,,,
Tamilnadu,Thanjavur,Kadakadappai,613003,,,,
Tamilnadu,Thanjavur,Kadanthankudi,614903,,,,
Tamilnadu,Thanjavur,Kadichambadi,612501,,,,
Tamilnadu,Thanjavur,Kadiramangalam,612106,,,,
Tamilnadu,Thanjavur,Kaduvettividuthi,614614,,,,
Tamilnadu,Thanjavur,Kakkarai,614625,,,,
Tamilnadu,Thanjavur,Kakkaraikottai,614902,,,,
Tamilnadu,Thanjavur,Kalagam,614804,,,,
Tamilnadu,Thanjavur,Kalancheri,613504,,,,
Tamilnadu,Thanjavur,Kalanivasal,614804,,,,
Tamilnadu,Thanjavur,Kalathur,612802,,,,
Tamilnadu,Thanjavur,Kalimedu,613002,,,,
Tamilnadu,Thanjavur,Kallaperambur,613601,,,,
Tamilnadu,Thanjavur,Kallapuliyur,612501,,,,
Tamilnadu,Thanjavur,Kallur,612503,,,,
Tamilnadu,Thanjavur,Kallurnikadu,614628,,,,
Tamilnadu,Thanjavur,Kalumangalam,613602,,,,
Tamilnadu,Thanjavur,Kalvirayanpettai,613601,,,,
Tamilnadu,Thanjavur,Kalyanaodai,614903,,,,
Tamilnadu,Thanjavur,Kalyanapuram,613201,,,,
Tamilnadu,Thanjavur,Kandamangalam,614602,,,,
Tamilnadu,Thanjavur,Kandithampattu,613504,,,,
Tamilnadu,Thanjavur,Kandamangalam,613104,,,,
Tamilnadu,Thanjavur,Kandithampattu,614904,,,,
Tamilnadu,Thanjavur,Kandiyur,613202,,,,
Tamilnadu,Thanjavur,Kangeyampatti,613602,,,,
Tamilnadu,Thanjavur,Kanjanur,609804,,,,
Tamilnadu,Thanjavur,Kannanthankudi,614625,,,,
Tamilnadu,Thanjavur,Kannathankudimelaiyur,614625,,,,
Tamilnadu,Thanjavur,Kannugudi,614901,,,,
Tamilnadu,Thanjavur,Kannugudi Kilpathi,614901,,,,
Tamilnadu,Thanjavur,Karambakadu,614802,,,,
Tamilnadu,Thanjavur,Karambayam,614626,,,,
Tamilnadu,Thanjavur,Karukadipatti,614902,,,,
Tamilnadu,Thanjavur,Karunthattankudi,613002,,,,
Tamilnadu,Thanjavur,Karuppamanai,614804,,,,
Tamilnadu,Thanjavur,Karuppur,609807,,,,
Tamilnadu,Thanjavur,Karuppur-kbs,614203,,,,
Tamilnadu,Thanjavur,Kasanadupudur,614904,,,,
Tamilnadu,Thanjavur,Kasangadu,614613,,,,
Tamilnadu,Thanjavur,Kattayankadu,614803,,,,
Tamilnadu,Thanjavur,Kattur,614019,,,,
Tamilnadu,Thanjavur,Kavalur,614303,,,,
Tamilnadu,Thanjavur,Kavarapattu,614625,,,,
Tamilnadu,Thanjavur,Kilakadu,614704,,,,
Tamilnadu,Thanjavur,Kilakattur,609807,,,,
Tamilnadu,Thanjavur,Kilakurichi,614615,,,,
Tamilnadu,Thanjavur,Kilamangalam,614615,,,,
Tamilnadu,Thanjavur,Kilathirupanthuruthi,613103,,,,
Tamilnadu,Thanjavur,Kilauluvur,614904,,,,
Tamilnadu,Thanjavur,Kilavastachavadi,614904,,,,
Tamilnadu,Thanjavur,Kiliyur,614208,,,,
Tamilnadu,Thanjavur,Koildevarayanpettai,614204,,,,
Tamilnadu,Thanjavur,Kokkeri,614402,,,,
Tamilnadu,Thanjavur,Kollaikadu,614628,,,,
Tamilnadu,Thanjavur,Konerirajapuram,613101,,,,
Tamilnadu,Thanjavur,Konulampallam,609807,,,,
Tamilnadu,Thanjavur,Koohur,612602,,,,
Tamilnadu,Thanjavur,Koorchi,612504,,,,
Tamilnadu,Thanjavur,Koranattukkaruppur,612501,,,,
Tamilnadu,Thanjavur,Korukkai Thottam,612401,,,,
Tamilnadu,Thanjavur,Kothangudi,612602,,,,
Tamilnadu,Thanjavur,Kottaitheru,614902,,,,
Tamilnadu,Thanjavur,Kottaiyur,612302,,,,
Tamilnadu,Thanjavur,Kovathagudi,614301,,,,
Tamilnadu,Thanjavur,Kovilacherri,612503,,,,
Tamilnadu,Thanjavur,Koviladi-tpl,613105,,,,
Tamilnadu,Thanjavur,Kovilur,613502,,,,
Tamilnadu,Thanjavur,Krishnapuram,612401,,,,
Tamilnadu,Thanjavur,Krishnarayar Agraharam,612001,,,,
Tamilnadu,Thanjavur,Kulamangalam,614019,,,,
Tamilnadu,Thanjavur,Kulichapattu,613501,,,,
Tamilnadu,Thanjavur,Kumaramangalam,612602,,,,
Tamilnadu,Thanjavur,Kumbakonam,612001,,,,
Tamilnadu,Thanjavur,Kumbakonam Bazar,612001,,,,
Tamilnadu,Thanjavur,Kumbakonam City,612001,,,,
Tamilnadu,Thanjavur,Kumbakonam Cutchery,612001,,,,
Tamilnadu,Thanjavur,Kumbakonam East,612001,,,,
Tamilnadu,Thanjavur,Kumbakonam Extn.,612001,,,,
Tamilnadu,Thanjavur,Kumbakonam Market,612001,,,,
Tamilnadu,Thanjavur,Kumbakonam R.s.,612001,,,,
Tamilnadu,Thanjavur,Kumbakonam West,612001,,,,
Tamilnadu,Thanjavur,Kumilakudi,613502,,,,
Tamilnadu,Thanjavur,Kuruchi,614602,,,,
Tamilnadu,Thanjavur,Kurungulam,613303,,,,
Tamilnadu,Thanjavur,Kurungulam Melpathy,613303,,,,
Tamilnadu,Thanjavur,Kuruvikarambai,614802,,,,
Tamilnadu,Thanjavur,Kuthur,613104,,,,
Tamilnadu,Thanjavur,Lower Anicut,612502,,,,
Tamilnadu,Thanjavur,Madalampettai,612001,,,,
Tamilnadu,Thanjavur,Madukkur,614903,,,,
Tamilnadu,Thanjavur,Madukkur Bazaar,614903,,,,
Tamilnadu,Thanjavur,Madukkur North,614903,,,,
Tamilnadu,Thanjavur,Magilankottai,614701,,,,
Tamilnadu,Thanjavur,Mahadana Street,612104,,,,
Tamilnadu,Thanjavur,Maharajapuram,612503,,,,
Tamilnadu,Thanjavur,Mahimalai,614401,,,,
Tamilnadu,Thanjavur,Maliyakadu,614602,,,,
Tamilnadu,Thanjavur,Mallipattinam,614723,,,,
Tamilnadu,Thanjavur,Manakadu,614612,,,,
Tamilnadu,Thanjavur,Manalur,609804,,,,
Tamilnadu,Thanjavur,Manambadi,612503,,,,
Tamilnadu,Thanjavur,Manambuchavadi,613001,,,,
Tamilnadu,Thanjavur,Manangorai,614206,,,,
Tamilnadu,Thanjavur,Manayeripatti,613402,,,,
Tamilnadu,Thanjavur,Manikudi,612504,,,,
Tamilnadu,Thanjavur,Manjavayal,614613,,,,
Tamilnadu,Thanjavur,Mannangadu,614613,,,,
Tamilnadu,Thanjavur,Manojipatti,613004,,,,
Tamilnadu,Thanjavur,Maravakadu,614704,,,,
Tamilnadu,Thanjavur,Mariammankoil,613501,,,,
Tamilnadu,Thanjavur,Marudakudi,613602,,,,
Tamilnadu,Thanjavur,Marudanallur,612402,,,,
Tamilnadu,Thanjavur,Marungapallam,614802,,,,
Tamilnadu,Thanjavur,Marungulam,613006,,,,
Tamilnadu,Thanjavur,Maruthuvakudi,612101,,,,
Tamilnadu,Thanjavur,Maruvur,613203,,,,
Tamilnadu,Thanjavur,Mathur,612602,,,,
Tamilnadu,Thanjavur,Mathur-ayp,614206,,,,
Tamilnadu,Thanjavur,Mattayanthidal,614302,,,,
Tamilnadu,Thanjavur,Mattiyur,612504,,,,
Tamilnadu,Thanjavur,Mavadukurichi,614804,,,,
Tamilnadu,Thanjavur,Mekalathur,613102,,,,
Tamilnadu,Thanjavur,Melaiyur,612101,,,,
Tamilnadu,Thanjavur,Melakalakudi,613501,,,,
Tamilnadu,Thanjavur,Melakaveri,612002,,,,
Tamilnadu,Thanjavur,Melattur,614301,,,,
Tamilnadu,Thanjavur,Melauluvur,614904,,,,
Tamilnadu,Thanjavur,Melavasthachavadi,613005,,,,
Tamilnadu,Thanjavur,Mgm Sanatorium,613402,,,,
Tamilnadu,Thanjavur,Michaelpatti,613104,,,,
Tamilnadu,Thanjavur,Mohamed Bunder,613201,,,,
Tamilnadu,Thanjavur,Moothakurichi,614906,,,,
Tamilnadu,Thanjavur,Mudachikadu,614804,,,,
Tamilnadu,Thanjavur,Mudalchery,614602,,,,
Tamilnadu,Thanjavur,Mudukadu,614612,,,,
Tamilnadu,Thanjavur,Mukasa Nanjikottai,613006,,,,
Tamilnadu,Thanjavur,Mukasakaduveli,613203,,,,
Tamilnadu,Thanjavur,Mullakudi,613104,,,,
Tamilnadu,Thanjavur,Mullangudi,612502,,,,
Tamilnadu,Thanjavur,Mullurpattikadu,614901,,,,
Tamilnadu,Thanjavur,Murthiambalpuram,614019,,,,
Tamilnadu,Thanjavur,Murukkangudi,612202,,,,
Tamilnadu,Thanjavur,Muthandipatti,613402,,,,
Tamilnadu,Thanjavur,Nadimuthunagar,614602,,,,
Tamilnadu,Thanjavur,Nadiyam,614802,,,,
Tamilnadu,Thanjavur,Nadukaveri,613101,,,,
Tamilnadu,Thanjavur,Nadur,614904,,,,
Tamilnadu,Thanjavur,Naduvikottai,614602,,,,
Tamilnadu,Thanjavur,Nagarasampettai,612605,,,,
Tamilnadu,Thanjavur,Nagathi,613205,,,,
Tamilnadu,Thanjavur,Nainankulam,614602,,,,
Tamilnadu,Thanjavur,Nallavanniyankudikadu,613502,,,,
Tamilnadu,Thanjavur,Nambivayal,614615,,,,
Tamilnadu,Thanjavur,Nariyanur,614301,,,,
Tamilnadu,Thanjavur,Natchar Koil,612602,,,,
Tamilnadu,Thanjavur,Nattuchalai,614906,,,,
Tamilnadu,Thanjavur,Neduntheru,614210,,,,
Tamilnadu,Thanjavur,Neduvakottai,614625,,,,
Tamilnadu,Thanjavur,Neivasal-ame,614019,,,,
Tamilnadu,Thanjavur,Neivelivadapathy,614628,,,,
Tamilnadu,Thanjavur,Nemam,613104,,,,
Tamilnadu,Thanjavur,Nirathanallur,612501,,,,
Tamilnadu,Thanjavur,Odayalur,612804,,,,
Tamilnadu,Thanjavur,Odayarkoil,614402,,,,
Tamilnadu,Thanjavur,Okkanadukilaiyur,614632,,,,
Tamilnadu,Thanjavur,Okkanadumelaiyur,614625,,,,
Tamilnadu,Thanjavur,Ombathuveli,614302,,,,
Tamilnadu,Thanjavur,Oppiliappankoil,612204,,,,
Tamilnadu,Thanjavur,Orantharayankudikadu,614625,,,,
Tamilnadu,Thanjavur,Orathur,613602,,,,
Tamilnadu,Thanjavur,Orattanad,614625,,,,
Tamilnadu,Thanjavur,Orattanad Pudur,614625,,,,
Tamilnadu,Thanjavur,Orattanad South,614625,,,,
Tamilnadu,Thanjavur,Ottangadu,614803,,,,
Tamilnadu,Thanjavur,Pachiyur,614902,,,,
Tamilnadu,Thanjavur,Padirankottai,614614,,,,
Tamilnadu,Thanjavur,Paingal,614623,,,,
Tamilnadu,Thanjavur,Palakudi,612102,,,,
Tamilnadu,Thanjavur,Palamaneri,613104,,,,
Tamilnadu,Thanjavur,Palanjore,614701,,,,
Tamilnadu,Thanjavur,Palavathankattalai,612401,,,,
Tamilnadu,Thanjavur,Palaya Peravurni,614804,,,,
Tamilnadu,Thanjavur,Palayapatti South,613402,,,,
Tamilnadu,Thanjavur,Pallathur,614803,,,,
Tamilnadu,Thanjavur,Palliagraharam,613003,,,,
Tamilnadu,Thanjavur,Palliyur,613504,,,,
Tamilnadu,Thanjavur,Pampappadaiyur,612703,,,,
Tamilnadu,Thanjavur,Panchanathikottai,614904,,,,
Tamilnadu,Thanjavur,Pandaravadai,614204,,,,
Tamilnadu,Thanjavur,Pannavayal,614602,,,,
Tamilnadu,Thanjavur,Papanasam,614205,,,,
Tamilnadu,Thanjavur,Papanasam Bazaar,614205,,,,
Tamilnadu,Thanjavur,Papanasam North,614205,,,,
Tamilnadu,Thanjavur,Papanasam Public office,614205,,,,
Tamilnadu,Thanjavur,Papanasam West,614205,,,,
Tamilnadu,Thanjavur,Pappanad,614626,,,,
Tamilnadu,Thanjavur,Parakkalakottai,614613,,,,
Tamilnadu,Thanjavur,Parangivettikadu,614626,,,,
Tamilnadu,Thanjavur,Paruthicherri,612605,,,,
Tamilnadu,Thanjavur,Paruthikottai,614904,,,,
Tamilnadu,Thanjavur,Paruthikudi,612102,,,,
Tamilnadu,Thanjavur,Pasupathikoil,614206,,,,
Tamilnadu,Thanjavur,Patteeswaram,612703,,,,
Tamilnadu,Thanjavur,Pattukottai,614601,,,,
Tamilnadu,Thanjavur,Pattukottai Bazaar,614601,,,,
